{"version": 0.6, "generator": "Overpass API 0.7.62.8 e802775f", "osm3s": {"timestamp_osm_base": "2025-10-16T11:13:59Z", "copyright": "The data included in this document is from www.openstreetmap.org. The data is made available under ODbL."}, "elements": [{"type": "node", "id": 5711027954, "lat": 1.1944879, "lon": 124.7942098}, {"type": "node", "id": 5711027955, "lat": 1.1945229, "lon": 124.7942763}, {"type": "node", "id": 5711027956, "lat": 1.194667, "lon": 124.7942005}, {"type": "node", "id": 5711027957, "lat": 1.1946321, "lon": 124.794134}, {"type": "node", "id": 5837914085, "lat": 1.2532436, "lon": 124.7945305, "tags": {"amenity": "fuel", "name": "Pertamina", "name:fr": "Pertamina"}}, {"type": "node", "id": 6841351266, "lat": 1.2086547, "lon": 124.7896416, "tags": {"amenity": "fuel", "brand": "Pertamina", "brand:wikidata": "Q1641044", "brand:wikipedia": "en:Pertamina", "name": "Pertamina"}}, {"type": "node", "id": 9769604763, "lat": 1.2216132, "lon": 124.78074, "tags": {"amenity": "townhall", "name": "GSG Kiawa Satu"}}, {"type": "node", "id": 9769604764, "lat": 1.2211107, "lon": 124.7826281, "tags": {"amenity": "townhall", "name": "GSG Kiawa Dua"}}, {"type": "node", "id": 10543479417, "lat": 1.1831852, "lon": 124.5612238, "tags": {"amenity": "doctors", "healthcare": "doctor", "name": "Praktek Umum Dr Christian A Pondaag Kawangkoan Bawah"}}, {"type": "way", "id": 600685912, "nodes": [5711027957, 5711027956, 5711027955, 5711027954, 5711027957], "tags": {"amenity": "doctors", "building": "yes", "healthcare": "doctor", "name": "Praktek Umum Dokter Vally Ratulangi"}}]}