{"version": 0.6, "generator": "Overpass API 0.7.62.8 e802775f", "osm3s": {"timestamp_osm_base": "2025-10-14T08:42:00Z", "copyright": "The data included in this document is from www.openstreetmap.org. The data is made available under ODbL."}, "elements": [{"type": "node", "id": 1934645966, "lat": -0.4575311, "lon": 100.5464092, "tags": {"amenity": "school", "name": "SD N. 25 Silabuk Parambahan Kec. Lima Kaum"}}, {"type": "node", "id": 1934652008, "lat": -0.462956, "lon": 100.5534827, "tags": {"amenity": "school", "name": "SD N. 27 DUSUN TUO Kec. Lima Kaum"}}, {"type": "node", "id": 1934654028, "lat": -0.4630892, "lon": 100.5656, "tags": {"amenity": "school", "name": "MAN 2 Batusangkar"}}, {"type": "node", "id": 1934654030, "lat": -0.4636811, "lon": 100.5641266, "tags": {"amenity": "school", "name": "SD N. 01 Balai Batu Kec. Lima Kaum"}}, {"type": "node", "id": 1934654033, "lat": -0.4627561, "lon": 100.5665237, "tags": {"amenity": "school", "name": "SMP N. 3 Batusangkar"}}, {"type": "node", "id": 1934657812, "lat": -0.4611751, "lon": 100.5731926, "tags": {"amenity": "college", "name": "STAIN Batusangkar"}}, {"type": "node", "id": 1982550010, "lat": -0.4797198, "lon": 100.6284663, "tags": {"amenity": "school", "name": "SMA N 2 Batusangkar"}}, {"type": "node", "id": 1982550012, "lat": -0.4801853, "lon": 100.6295034, "tags": {"amenity": "school", "name": "SMK N 1 Batusangkar"}}, {"type": "node", "id": 1982560505, "lat": -0.49106, "lon": 100.6756579, "tags": {"entrance": "main"}}, {"type": "node", "id": 1982568494, "lat": -0.4794118, "lon": 100.6560088, "tags": {"amenity": "school", "name": "SD N. 05 Koto Tangah"}}, {"type": "node", "id": 1982571509, "lat": -0.4875351, "lon": 100.656379, "tags": {"amenity": "school", "name": "MTsN Tanjung Emas"}}, {"type": "node", "id": 1982571510, "lat": -0.4845955, "lon": 100.6383736, "tags": {"amenity": "school", "name": "SD N. 17 Saruaso"}}, {"type": "node", "id": 1982571511, "lat": -0.4860617, "lon": 100.6360689, "tags": {"amenity": "school", "name": "SD N. 6 Saruaso"}}, {"type": "node", "id": 1982590283, "lat": -0.4699151, "lon": 100.5818223, "tags": {"amenity": "school", "name": "SD N. 19 Piliang Lima Kaum"}}, {"type": "node", "id": 1989177462, "lat": -0.4466731, "lon": 100.5931641, "tags": {"amenity": "school", "name": "SD N. 34 Sungai Tarab"}}, {"type": "node", "id": 1989189988, "lat": -0.4456808, "lon": 100.5860295, "tags": {"amenity": "school", "name": "SD N. 09 Sungai Tarab Simpuruik"}}, {"type": "node", "id": 1989189991, "lat": -0.454021, "lon": 100.5967094, "tags": {"amenity": "school", "name": "SD N. 26 Kampung Baru"}}, {"type": "node", "id": 1989189994, "lat": -0.4526281, "lon": 100.5955221, "tags": {"amenity": "school", "name": "SMA N. 1 Batusangkar"}}, {"type": "node", "id": 1989189997, "lat": -0.4530403, "lon": 100.5949918, "tags": {"amenity": "school", "name": "SMP N.1 Batusangkar"}}, {"type": "node", "id": 1989190000, "lat": -0.4532963, "lon": 100.5960761, "tags": {"amenity": "school", "name": "SMP N.2 Batusangkar"}}, {"type": "node", "id": 1990955022, "lat": -0.4362699, "lon": 100.551002, "tags": {"amenity": "school", "name": "SD N. 13 Sungai Tarab"}}, {"type": "node", "id": 1990955023, "lat": -0.4191934, "lon": 100.5420864, "tags": {"amenity": "school", "name": "SD N. 29 Sungai Tarab"}}, {"type": "node", "id": 1990955024, "lat": -0.4455663, "lon": 100.5571433, "tags": {"amenity": "school", "name": "SMP N. 4 Sungai Tarab"}}, {"type": "node", "id": 1990955670, "lat": -0.4190257, "lon": 100.5428701, "tags": {"amenity": "kindergarten", "name": "TK/ Padu IHSAN Padang Laweh"}}, {"type": "node", "id": 1990959005, "lat": -0.4246184, "lon": 100.5347815, "tags": {"amenity": "school", "name": "SD N. 05 Talang Tangah"}}, {"type": "node", "id": 1990959006, "lat": -0.4511342, "lon": 100.5742688, "tags": {"amenity": "school", "name": "SD N. 24 Baringin"}}, {"type": "node", "id": 1990980994, "lat": -0.4642587, "lon": 100.5762133, "tags": {"amenity": "university", "name": "AKPER"}}, {"type": "node", "id": 1990981162, "lat": -0.4450082, "lon": 100.5556306, "tags": {"amenity": "school", "name": "SD N. 01 Sungai Tarab"}}, {"type": "node", "id": 2647455040, "lat": -0.5025973, "lon": 100.5575186, "tags": {"amenity": "school", "name": "SMA Negeri 1 Rambatan", "school:type_idn": "sma"}}, {"type": "node", "id": 3341159964, "lat": -0.45487, "lon": 100.5955151}, {"type": "node", "id": 3341159965, "lat": -0.4531857, "lon": 100.5943371, "tags": {"access:roof": "no", "amenity": "school", "building:levels": "2", "building:roof": "tin", "building:structure": "reinforced_masonry", "building:walls": "brick", "name": "SD 05 Kampung Baru", "type:id": "SD"}}, {"type": "node", "id": 3341159967, "lat": -0.4553216, "lon": 100.5950326, "tags": {"access:roof": "no", "amenity": "school", "building:levels": "1", "building:roof": "tin", "building:structure": "unreinforced_masonry", "building:walls": "brick", "name": "SMP 5 Batusangkar", "type:id": "SMP"}}, {"type": "node", "id": 4198292413, "lat": -0.453567, "lon": 100.5963176, "tags": {"amenity": "school", "name": "SDN 14 kampuang baru"}}, {"type": "node", "id": 4198296638, "lat": -0.4530146, "lon": 100.5942079, "tags": {"amenity": "school", "name": "SMA Muhamadiyah Batusangkar", "type:id": "Muhammadiyah"}}, {"type": "node", "id": 4198326448, "lat": -0.4540021, "lon": 100.5946423}, {"type": "node", "id": 4198326449, "lat": -0.4545396, "lon": 100.5946382}, {"type": "node", "id": 4198326450, "lat": -0.454543, "lon": 100.595088}, {"type": "node", "id": 4198326451, "lat": -0.4540055, "lon": 100.595092}, {"type": "node", "id": 4198326452, "lat": -0.4540038, "lon": 100.594871}, {"type": "node", "id": 6389992061, "lat": -0.4910364, "lon": 100.6759604}, {"type": "node", "id": 6704403361, "lat": -0.6094964, "lon": 100.6208906, "tags": {"amenity": "school", "name": "SMA Negeri 1 X Koto Diatas", "school:type_idn": "sma", "wikidata": "Q77304928"}}, {"type": "node", "id": 6747184842, "lat": -0.4081778, "lon": 100.7321794, "tags": {"amenity": "school", "name": "SMA Negeri 1 Lintau Buo", "school:type_idn": "sma"}}, {"type": "node", "id": 6747204119, "lat": -0.4833203, "lon": 100.6150889, "tags": {"amenity": "school", "name": "SMA Negeri 3 Batu Sangkar", "school:type_idn": "sma", "wikidata": "Q74221902"}}, {"type": "node", "id": 6747212895, "lat": -0.4486981, "lon": 100.6114599, "tags": {"amenity": "school", "name": "SMA Negeri 2 Batu Sangkar", "school:type_idn": "sma"}}, {"type": "node", "id": 6747323587, "lat": -0.5242573, "lon": 100.7071638, "tags": {"amenity": "school", "name": "SMA Negeri 1 Padang Ganting", "school:type_idn": "sma"}}, {"type": "node", "id": 6747327430, "lat": -0.4306836, "lon": 100.5631453, "tags": {"amenity": "school", "name": "SMA Negeri 1 Sungai Tarab", "school:type_idn": "sma"}}, {"type": "node", "id": 6747329726, "lat": -0.4630569, "lon": 100.5133072, "tags": {"amenity": "school", "name": "SMA Negeri 1 Pariangan", "school:type_idn": "sma"}}, {"type": "node", "id": 6747330619, "lat": -0.4053696, "lon": 100.5829077}, {"type": "node", "id": 7678721872, "lat": -0.4658825, "lon": 100.5375087}, {"type": "node", "id": 7678721873, "lat": -0.4661494, "lon": 100.5376402}, {"type": "node", "id": 7678721874, "lat": -0.4663747, "lon": 100.5370796}, {"type": "node", "id": 7678721875, "lat": -0.4660045, "lon": 100.5369401}, {"type": "node", "id": 10806658143, "lat": -0.4910329, "lon": 100.675297}, {"type": "node", "id": 11467762401, "lat": -0.4552841, "lon": 100.5956617}, {"type": "node", "id": 11467762402, "lat": -0.4552667, "lon": 100.5957127}, {"type": "node", "id": 11467762403, "lat": -0.4554504, "lon": 100.5957971}, {"type": "node", "id": 11467762404, "lat": -0.4555711, "lon": 100.59549}, {"type": "node", "id": 11467762405, "lat": -0.4548335, "lon": 100.5952258}, {"type": "node", "id": 11471861744, "lat": -0.447753, "lon": 100.5862675, "tags": {"amenity": "school", "name": "Yayasan Insan Madani"}}, {"type": "node", "id": 12393840115, "lat": -0.455593, "lon": 100.5952489, "tags": {"addr:district": "Tanah Datar", "addr:province": "Sumatera Barat", "addr:street": "JL. MT. Haryono No 01 Batusangkar", "addr:subdistrict": "Lima Kaum", "addr:village": "Baringin", "amenity": "social_facility", "email": "kab_tanahdatar@pmi.or.id", "name": "POSKO PMI Kabupaten Tanah Datar", "operator": "Palang Merah Indonesia", "operator:short": "PMI", "phone": "082216430724", "social_facility": "command_post"}}, {"type": "node", "id": 12393840116, "lat": -0.4555855, "lon": 100.5952495, "tags": {"addr:district": "Tanah Datar", "addr:province": "Sumatera Barat", "addr:street": "JL. MT. Haryono No 01 Batusangkar", "addr:subdistrict": "Lima Kaum", "addr:village": "Baringin", "amenity": "social_facility", "email": "kab_tanahdatar@pmi.or.id", "name": "KSR PMI Kabupaten Tanah Datar", "operator": "Palang Merah Indonesia", "operator:short": "PMI", "phone": "082216430724", "social_facility": "ksr_district_office"}}, {"type": "node", "id": 12393840165, "lat": -0.455585, "lon": 100.59547, "tags": {"addr:district": "Tanah Datar", "addr:province": "Sumatera Barat", "addr:street": "JL. MT. Haryono No 1 Batusangkar- Baringin 27213", "addr:subdistrict": "Lima Kaum", "addr:village": "Baringin", "amenity": "social_facility", "email": "kab_tanahdatar@pmi.or.id", "name": "PMI Kabupaten Tanah Datar", "operator": "Palang Merah Indonesia", "operator:short": "PMI", "phone": "082216430724", "social_facility": "office"}}, {"type": "node", "id": 12628403743, "lat": -0.4905377, "lon": 100.6755057}, {"type": "node", "id": 12628403752, "lat": -0.4906352, "lon": 100.6759892}, {"type": "node", "id": 12817483773, "lat": -0.40486, "lon": 100.5835086}, {"type": "node", "id": 12817483774, "lat": -0.4046481, "lon": 100.5833396}, {"type": "node", "id": 12817483775, "lat": -0.4040607, "lon": 100.5837473}, {"type": "node", "id": 12817483776, "lat": -0.4035296, "lon": 100.583058}, {"type": "node", "id": 12817483777, "lat": -0.4042619, "lon": 100.5824733}, {"type": "node", "id": 12817483778, "lat": -0.4041278, "lon": 100.582197}, {"type": "node", "id": 12817483779, "lat": -0.4046454, "lon": 100.5819261}, {"type": "way", "id": 419832928, "nodes": [4198326448, 4198326449, 4198326450, 4198326451, 4198326452, 4198326448], "tags": {"amenity": "school", "name": "Komplek SD Batusangkar"}}, {"type": "way", "id": 822386996, "nodes": [7678721873, 7678721872, 7678721875, 7678721874, 7678721873], "tags": {"amenity": "school"}}, {"type": "way", "id": 1235362635, "nodes": [3341159964, 11467762405, 11467762404, 11467762403, 11467762402, 11467762401, 3341159964], "tags": {"amenity": "school", "name": "Madrasah Tsanawiyah Negeri Batusangkar", "religion": "muslim"}}, {"type": "way", "id": 1363839193, "nodes": [12628403752, 6389992061, 1982560505, 10806658143, 12628403743, 12628403752], "tags": {"amenity": "school", "isced:level": "1", "name": "SD Negeri 7 Tanjung Barulak", "ref": "10302695", "short_name": "SDN 7 Tanjung Barulak", "wikidata": "Q123814402"}}, {"type": "way", "id": 1384391699, "nodes": [6747330619, 12817483779, 12817483778, 12817483777, 12817483776, 12817483775, 12817483774, 12817483773, 6747330619], "tags": {"amenity": "school", "isced:level": "3", "name": "SMA Negeri 1 Sungayang", "school:type_idn": "sma"}}]}