{"version": 0.6, "generator": "Overpass API 0.7.62.8 e802775f", "osm3s": {"timestamp_osm_base": "2025-10-14T08:42:00Z", "copyright": "The data included in this document is from www.openstreetmap.org. The data is made available under ODbL."}, "elements": [{"type": "node", "id": 2915947237, "lat": -0.2055935, "lon": 100.6012458}, {"type": "node", "id": 2915947238, "lat": -0.2055935, "lon": 100.6014282}, {"type": "node", "id": 2915947239, "lat": -0.2057974, "lon": 100.6014496}, {"type": "node", "id": 2915947240, "lat": -0.2058081, "lon": 100.6012458}, {"type": "node", "id": 4559472335, "lat": -0.2329898, "lon": 100.6229044, "tags": {"amenity": "school", "name": "MTsN kota Payakumbuh"}}, {"type": "node", "id": 4623598993, "lat": -0.2175459, "lon": 100.6417641, "tags": {"addr:housenumber": "109", "addr:street": "Jl. Sudirman", "amenity": "school", "name:en": "My English Club", "opening_hours": "Mo-Su 09:00-18:00", "phone": "+6285364046570"}}, {"type": "node", "id": 4781221292, "lat": -0.2263002, "lon": 100.6238718, "tags": {"amenity": "school", "name": "sd12 paritrantang"}}, {"type": "node", "id": 4781238680, "lat": -0.2322462, "lon": 100.6240797, "tags": {"amenity": "school", "name": "SMAN 4 PAYAKUMBUH"}}, {"type": "node", "id": 5862974867, "lat": -0.2721742, "lon": 100.6525374, "tags": {"addr:city": "Lima Puluh Kota", "addr:housenumber": "Jorong Bukik Kanduang", "amenity": "school", "name": "SDN 05 Tanjung Haro Sikabu-kabu , Kec.Luak", "religion": "muslim"}}, {"type": "node", "id": 5862995073, "lat": -0.2746635, "lon": 100.656319, "tags": {"addr:city": "Lima Puluh Kota", "addr:housenumber": "Jorong lakuak Dama", "addr:street": "Jalan Utama Nagari Tanjung Haro Sikabu-kabu Padang Panjang", "amenity": "school", "name": "SDN 01 Tanjung Haro Sikabu-kabu, Kec.Luak", "religion": "muslim"}}, {"type": "node", "id": 5862999385, "lat": -0.2617479, "lon": 100.6545443, "tags": {"addr:city": "Lima Puluh Kota", "addr:housenumber": "Padang Panjang", "addr:postcode": "26261", "addr:street": "Jalan SIlarak Padang Panjnag", "amenity": "school", "name": "SDN 04 Tanjung Haro Sikabu-kabu, Kec.Luak", "religion": "muslim"}}, {"type": "node", "id": 5863000689, "lat": -0.2578904, "lon": 100.6553146, "tags": {"addr:city": "Lima Puluh Kota", "addr:housenumber": "Tanjuang Bulakan", "addr:postcode": "26261", "addr:street": "Tanjung Haro Selatan", "amenity": "school", "denomination": "Sarana_Pendidikan_Negeri", "name": "SMPN 2 Luak", "operator": "Herry wanda", "religion": "muslim"}}, {"type": "node", "id": 5863004039, "lat": -0.2540054, "lon": 100.6609722, "tags": {"addr:city": "Lima Puluh Kota", "addr:postcode": "26261", "addr:street": "Tanjung Haro Utara", "amenity": "school", "name": "SDN 03 Tanjung Haro SIkabu-kabu , kec.Luak"}}, {"type": "node", "id": 6390208199, "lat": -0.2714287, "lon": 100.6896995, "tags": {"barrier": "gate"}}, {"type": "node", "id": 6654127102, "lat": -0.2822316, "lon": 100.4785538, "tags": {"amenity": "school", "name": "SMA Negeri 1 Baso", "school:type_idn": "sma", "wikidata": "Q12510258"}}, {"type": "node", "id": 6659073884, "lat": -0.1389758, "lon": 100.5521214, "tags": {"amenity": "school", "name": "SMA Negeri 1 Guguak", "school:type_idn": "sma"}}, {"type": "node", "id": 6659184148, "lat": -0.1107644, "lon": 100.5103916, "tags": {"amenity": "school", "name": "SMA Negeri 1 Suliki", "school:type_idn": "sma"}}, {"type": "node", "id": 6659195433, "lat": -0.2977614, "lon": 100.6082627, "tags": {"amenity": "school", "name": "SMA Negeri 1 Situjuah Limo Nagari", "school:type_idn": "sma"}}, {"type": "node", "id": 6747167715, "lat": -0.3713626, "lon": 100.534738, "tags": {"amenity": "school", "name": "SMA Negeri 2 Sungai Tarab", "school:type_idn": "sma"}}, {"type": "node", "id": 6747325697, "lat": -0.3202487, "lon": 100.5339655, "tags": {"amenity": "school", "name": "SMA Negeri 1 Salimpaung", "school:type_idn": "sma"}}, {"type": "node", "id": 9971333318, "lat": -0.223089, "lon": 100.6099947, "tags": {"amenity": "school", "name": "madani"}}, {"type": "node", "id": 9976190117, "lat": -0.2558128, "lon": 100.6836859, "tags": {"amenity": "school", "name": "pesantren cahaya islam"}}, {"type": "node", "id": 10681056805, "lat": -0.2383449, "lon": 100.6293318, "tags": {"amenity": "school", "name": "al huffazh mart"}}, {"type": "node", "id": 10681058105, "lat": -0.2380465, "lon": 100.6292976, "tags": {"amenity": "school", "name": "al huffazh mart"}}, {"type": "node", "id": 10775011973, "lat": -0.2651363, "lon": 100.5766834}, {"type": "node", "id": 10775011974, "lat": -0.265469, "lon": 100.576719}, {"type": "node", "id": 10775011975, "lat": -0.2654864, "lon": 100.5766393}, {"type": "node", "id": 10775011976, "lat": -0.2656666, "lon": 100.5766687}, {"type": "node", "id": 10775011977, "lat": -0.2656267, "lon": 100.5772199}, {"type": "node", "id": 10775011978, "lat": -0.2657065, "lon": 100.5773187}, {"type": "node", "id": 10775011979, "lat": -0.2655262, "lon": 100.5773551}, {"type": "node", "id": 10775011980, "lat": -0.2650739, "lon": 100.577284}, {"type": "node", "id": 11499177249, "lat": -0.2712279, "lon": 100.6878292}, {"type": "node", "id": 11499177250, "lat": -0.2741346, "lon": 100.6890639}, {"type": "node", "id": 11499177251, "lat": -0.2737474, "lon": 100.6874829}, {"type": "node", "id": 11499177252, "lat": -0.2700251, "lon": 100.6877791}, {"type": "node", "id": 11499177253, "lat": -0.2705081, "lon": 100.6899158}, {"type": "node", "id": 12147269468, "lat": -0.2227744, "lon": 100.6325822, "tags": {"amenity": "school", "grades": "7-9", "name": "SMP Fidelis Payakumbuh", "religion": "christian"}}, {"type": "node", "id": 12147269481, "lat": -0.2224955, "lon": 100.6325983}, {"type": "node", "id": 12147269482, "lat": -0.2228235, "lon": 100.6328512}, {"type": "node", "id": 12147269483, "lat": -0.2230587, "lon": 100.6325113}, {"type": "node", "id": 12147269484, "lat": -0.2230192, "lon": 100.6324836}, {"type": "node", "id": 12147269485, "lat": -0.2230587, "lon": 100.6324303}, {"type": "node", "id": 12147269486, "lat": -0.2227741, "lon": 100.6322188}, {"type": "node", "id": 12147269496, "lat": -0.2243186, "lon": 100.6334435, "tags": {"amenity": "school", "name": "SMPN 1 Payakumbuh"}}, {"type": "node", "id": 12393840147, "lat": -0.223019, "lon": 100.636981, "tags": {"addr:district": "Kota Payakumbuh", "addr:province": "Sumatera Barat", "addr:street": "Jln. Ade Irma Suryani- No:18- Labuah Baru- Kec. Payakumbuh Utara", "addr:subdistrict": "Payakumbuh Utara", "addr:village": "Labuah Baru", "amenity": "social_facility", "email": "kota_payakumbuh@pmi.or.id", "name": "KSR PMI Kota Payakumbuh", "operator": "Palang Merah Indonesia", "operator:short": "PMI", "phone": "085265312653", "social_facility": "ksr_city_office"}}, {"type": "node", "id": 12393840148, "lat": -0.223197, "lon": 100.637039, "tags": {"addr:district": "Kota Payakumbuh", "addr:province": "Sumatera Barat", "addr:street": "Jln. Ade Irma Suryani- No:18- Labuah Baru- Kec. Payakumbuh Utara", "addr:subdistrict": "Payakumbuh Utara", "addr:village": "Labuah Baru", "amenity": "social_facility", "email": "kota_payakumbuh@pmi.or.id", "name": "POSKO PMI Kota Payakumbuh", "operator": "Palang Merah Indonesia", "operator:short": "PMI", "phone": "085265312653", "social_facility": "command_post"}}, {"type": "node", "id": 12393840149, "lat": -0.223157, "lon": 100.637002, "tags": {"addr:district": "Kota Payakumbuh", "addr:province": "Sumatera Barat", "addr:street": "Jln. Ade Irma Suryani- No:18- Labuah Baru- Kec. Payakumbuh Utara", "addr:subdistrict": "Payakumbuh Utara", "addr:village": "Labuah Baru", "amenity": "social_facility", "email": "kota_payakumbuh@pmi.or.id", "name": "PMI Kota Payakumbuh", "operator": "Palang Merah Indonesia", "operator:short": "PMI", "phone": "085265312653", "social_facility": "office"}}, {"type": "node", "id": 12393840151, "lat": -0.169285, "lon": 100.6602403, "tags": {"addr:district": "Lima Puluh Kota", "addr:province": "Sumatera Barat", "addr:street": "Jln raya negara Tanjung Pati km 7 kec Harau kab Lima puluh kota prov Sumatra Barat", "addr:subdistrict": "Harau", "addr:village": "Koto tuo", "amenity": "social_facility", "email": "bprasetya241180@gmail.com", "name": "KSR PMI Kabupaten Lima Puluh Kota", "operator": "Palang Merah Indonesia", "operator:short": "PMI", "phone": "08126797107", "social_facility": "ksr_district_office"}}, {"type": "node", "id": 12393840152, "lat": -0.1692904, "lon": 100.6602477, "tags": {"addr:district": "Lima Puluh Kota", "addr:province": "Sumatera Barat", "addr:street": "Jln raya negara Tanjung Pati km 7 kec Harau kab Lima puluh kota PROV sumatera barat", "addr:subdistrict": "Harau", "addr:village": "Koto tuo", "amenity": "social_facility", "email": "bprasetya241180@gmail.com", "name": "POSKO PMI Kabupaten Lima Puluh Kota", "operator": "Palang Merah Indonesia", "operator:short": "PMI", "phone": "08126797107", "social_facility": "command_post"}}, {"type": "node", "id": 12393840179, "lat": -0.169283, "lon": 100.660253, "tags": {"addr:district": "Lima Puluh Kota", "addr:province": "Sumatera Barat", "addr:street": "Jln raya negara Tanjung Pati km 7 koto tuo kec Harau kab Lima puluh kota PROV sumatera barat", "addr:subdistrict": "Harau", "addr:village": "Koto tuo", "amenity": "social_facility", "email": "bprasetya241180@gmail.com", "name": "PMI Kabupaten Lima Puluh Kota", "operator": "Palang Merah Indonesia", "operator:short": "PMI", "phone": "08126797107", "social_facility": "office"}}, {"type": "way", "id": 288047538, "nodes": [2915947237, 2915947238, 2915947239, 2915947240, 2915947237], "tags": {"amenity": "school", "name": "TK"}}, {"type": "way", "id": 1158638757, "nodes": [10775011973, 10775011974, 10775011975, 10775011976, 10775011977, 10775011978, 10775011979, 10775011980, 10775011973], "tags": {"amenity": "school", "grades": "1-6", "name": "SDN 02 Koto Tangah Batu Hampa", "operator": "Dinas Pendidikan Kab. Lima Puluh Kota, Kementrian Pendidikan, Kebudayaan, Riset. dan Teknologi RI", "operator:type": "government"}}, {"type": "way", "id": 1237969540, "nodes": [11499177253, 11499177252, 11499177249, 11499177251, 11499177250, 6390208199, 11499177253], "tags": {"amenity": "school", "isced:level": "3", "name": "SMK-PP Padang Mengatas", "official_name": "SMK-PP Negeri Padang Mengatas", "ref": "10310831", "wikidata": "Q76707879"}}, {"type": "way", "id": 1312371039, "nodes": [12147269481, 12147269482, 12147269483, 12147269484, 12147269485, 12147269486, 12147269481], "tags": {"amenity": "school"}}]}