{"version": 0.6, "generator": "Overpass API 0.7.62.8 e802775f", "osm3s": {"timestamp_osm_base": "2025-10-13T13:20:01Z", "copyright": "The data included in this document is from www.openstreetmap.org. The data is made available under ODbL."}, "elements": [{"type": "node", "id": 3674544972, "lat": 10.3862271, "lon": 123.2164595}, {"type": "node", "id": 3674544973, "lat": 10.3860048, "lon": 123.2165132}, {"type": "node", "id": 3674544974, "lat": 10.3859262, "lon": 123.216671}, {"type": "node", "id": 3915057348, "lat": 10.385499, "lon": 123.2196778}, {"type": "node", "id": 3915563001, "lat": 10.3670995, "lon": 123.1813004}, {"type": "node", "id": 3915563005, "lat": 10.3671886, "lon": 123.1813494}, {"type": "node", "id": 3915563015, "lat": 10.3672416, "lon": 123.1812497}, {"type": "node", "id": 3915830533, "lat": 10.3196755, "lon": 123.1606079}, {"type": "node", "id": 3915830534, "lat": 10.3196927, "lon": 123.160667}, {"type": "node", "id": 3915830535, "lat": 10.3197503, "lon": 123.1605853}, {"type": "node", "id": 3915830539, "lat": 10.3197675, "lon": 123.1606444}, {"type": "node", "id": 3928370912, "lat": 10.3778873, "lon": 123.2335296}, {"type": "node", "id": 3928370913, "lat": 10.377811, "lon": 123.2334352}, {"type": "node", "id": 3928370914, "lat": 10.3777533, "lon": 123.2334834}, {"type": "node", "id": 3928370915, "lat": 10.3778296, "lon": 123.2335778}, {"type": "node", "id": 3928511980, "lat": 10.3742974, "lon": 123.2673076}, {"type": "node", "id": 3928511981, "lat": 10.3743037, "lon": 123.267424}, {"type": "node", "id": 3928511982, "lat": 10.3741344, "lon": 123.2674335}, {"type": "node", "id": 3928511983, "lat": 10.3741281, "lon": 123.2673171}, {"type": "node", "id": 3928693519, "lat": 10.3857287, "lon": 123.219273}, {"type": "node", "id": 3928693520, "lat": 10.3857812, "lon": 123.2196224}, {"type": "node", "id": 3928693521, "lat": 10.3854685, "lon": 123.2193143}, {"type": "node", "id": 3928717104, "lat": 10.3801419, "lon": 123.212101}, {"type": "node", "id": 3928717105, "lat": 10.3800864, "lon": 123.2122103}, {"type": "node", "id": 3928717106, "lat": 10.3800085, "lon": 123.2121694}, {"type": "node", "id": 3928717107, "lat": 10.380064, "lon": 123.2120601}, {"type": "node", "id": 3928735510, "lat": 10.3853686, "lon": 123.2177855, "tags": {"amenity": "fuel"}}, {"type": "node", "id": 3929823898, "lat": 10.3313958, "lon": 123.2111362}, {"type": "node", "id": 3929823899, "lat": 10.3313784, "lon": 123.2111955}, {"type": "node", "id": 3929823900, "lat": 10.3313154, "lon": 123.2111764}, {"type": "node", "id": 3929823901, "lat": 10.3313328, "lon": 123.2111171}, {"type": "node", "id": 4085435481, "lat": 10.3354971, "lon": 123.3263907}, {"type": "node", "id": 4085435485, "lat": 10.3355786, "lon": 123.326382}, {"type": "node", "id": 4085440939, "lat": 10.3572295, "lon": 123.3250551}, {"type": "node", "id": 4085440940, "lat": 10.3572305, "lon": 123.3249633}, {"type": "node", "id": 4085440949, "lat": 10.3573651, "lon": 123.3250566}, {"type": "node", "id": 4085446255, "lat": 10.3743982, "lon": 123.2686216}, {"type": "node", "id": 4085446256, "lat": 10.3744074, "lon": 123.2686937}, {"type": "node", "id": 4085446265, "lat": 10.3745377, "lon": 123.2686032}, {"type": "node", "id": 4085446266, "lat": 10.3745469, "lon": 123.2686753}, {"type": "node", "id": 5472039624, "lat": 10.3573662, "lon": 123.3249648}, {"type": "node", "id": 5541560022, "lat": 10.3417448, "lon": 123.3244417, "tags": {"amenity": "fuel", "name": "Gas Station"}}, {"type": "node", "id": 9786489903, "lat": 10.378111, "lon": 123.1999886}, {"type": "node", "id": 9786489904, "lat": 10.3780736, "lon": 123.2000222}, {"type": "node", "id": 9786489905, "lat": 10.3779966, "lon": 123.1999334}, {"type": "node", "id": 9786489906, "lat": 10.378034, "lon": 123.1998999}, {"type": "node", "id": 9786489907, "lat": 10.3671526, "lon": 123.1812007}, {"type": "node", "id": 9945351156, "lat": 10.1500671, "lon": 123.2788499}, {"type": "node", "id": 9945351157, "lat": 10.149932, "lon": 123.2788326}, {"type": "node", "id": 9945351158, "lat": 10.1499232, "lon": 123.2789033}, {"type": "node", "id": 9945351159, "lat": 10.1500583, "lon": 123.2789206}, {"type": "node", "id": 9945457704, "lat": 10.2451742, "lon": 123.3197134}, {"type": "node", "id": 9945457705, "lat": 10.2450836, "lon": 123.319692}, {"type": "node", "id": 9945457706, "lat": 10.2450666, "lon": 123.3197667}, {"type": "node", "id": 9945457707, "lat": 10.2451571, "lon": 123.319788}, {"type": "node", "id": 9949588119, "lat": 10.3782716, "lon": 123.332507}, {"type": "node", "id": 9949588120, "lat": 10.3781922, "lon": 123.3324786}, {"type": "node", "id": 9949588121, "lat": 10.3781781, "lon": 123.3325192}, {"type": "node", "id": 9949588122, "lat": 10.3782575, "lon": 123.3325476}, {"type": "node", "id": 9949592330, "lat": 10.3996223, "lon": 123.273336}, {"type": "node", "id": 9949592331, "lat": 10.3995718, "lon": 123.2733514}, {"type": "node", "id": 9949592332, "lat": 10.399593, "lon": 123.2734233}, {"type": "node", "id": 9949592333, "lat": 10.3996435, "lon": 123.2734079}, {"type": "node", "id": 11030268103, "lat": 10.1777348, "lon": 123.2832406}, {"type": "node", "id": 11030268104, "lat": 10.1776866, "lon": 123.2832083}, {"type": "node", "id": 11030285605, "lat": 10.1776525, "lon": 123.2832608}, {"type": "node", "id": 11030285606, "lat": 10.1777007, "lon": 123.2832931}, {"type": "node", "id": 11030309706, "lat": 10.3863431, "lon": 123.2221448}, {"type": "node", "id": 11030309707, "lat": 10.386238, "lon": 123.2221566}, {"type": "node", "id": 11030309708, "lat": 10.3862453, "lon": 123.2222231}, {"type": "node", "id": 11030309709, "lat": 10.3863504, "lon": 123.2222113}, {"type": "node", "id": 11030309710, "lat": 10.3859747, "lon": 123.2216379}, {"type": "node", "id": 11030309711, "lat": 10.3859228, "lon": 123.2216435}, {"type": "node", "id": 11030309712, "lat": 10.3859316, "lon": 123.2217268}, {"type": "node", "id": 11030309713, "lat": 10.3859835, "lon": 123.2217211}, {"type": "node", "id": 11030309715, "lat": 10.3865026, "lon": 123.2163208}, {"type": "node", "id": 11030309716, "lat": 10.3862112, "lon": 123.2163911}, {"type": "node", "id": 11030309717, "lat": 10.3858896, "lon": 123.216514}, {"type": "node", "id": 11030309718, "lat": 10.3859988, "lon": 123.2164877}, {"type": "node", "id": 11030309719, "lat": 10.3865493, "lon": 123.2165209}, {"type": "node", "id": 11743401369, "lat": 10.3880367, "lon": 123.2201791, "tags": {"addr:street": "E. Aguinaldo Street", "amenity": "doctors", "operator": "Glorifil Sy Paglinawan, M.D.", "pharmacy": "yes"}}, {"type": "node", "id": 11976739136, "lat": 10.3606152, "lon": 123.1707147}, {"type": "node", "id": 11976739137, "lat": 10.3606057, "lon": 123.1707529}, {"type": "node", "id": 11976739138, "lat": 10.360576, "lon": 123.1707452}, {"type": "node", "id": 11976739139, "lat": 10.3605855, "lon": 123.170707}, {"type": "node", "id": 11977995848, "lat": 10.3791054, "lon": 123.2051177}, {"type": "node", "id": 11977995849, "lat": 10.3790335, "lon": 123.2052833}, {"type": "node", "id": 11977995850, "lat": 10.3791327, "lon": 123.2053278}, {"type": "node", "id": 11977995851, "lat": 10.3792046, "lon": 123.2051622}, {"type": "node", "id": 11983034259, "lat": 10.3356088, "lon": 123.3264878}, {"type": "node", "id": 11983034260, "lat": 10.3356004, "lon": 123.3264068}, {"type": "node", "id": 11983034261, "lat": 10.3355904, "lon": 123.3264897}, {"type": "node", "id": 11983034262, "lat": 10.3355814, "lon": 123.3264089}, {"type": "node", "id": 11983034264, "lat": 10.3355103, "lon": 123.3265173}, {"type": "node", "id": 11983034265, "lat": 10.3355924, "lon": 123.3265085}, {"type": "node", "id": 12134223673, "lat": 10.324173, "lon": 123.133173}, {"type": "node", "id": 12134223674, "lat": 10.3241747, "lon": 123.133202}, {"type": "node", "id": 12134223675, "lat": 10.3241404, "lon": 123.1332041}, {"type": "node", "id": 12134223676, "lat": 10.3241455, "lon": 123.1332917}, {"type": "node", "id": 12134223677, "lat": 10.324173, "lon": 123.1332901}, {"type": "node", "id": 12134223678, "lat": 10.3241756, "lon": 123.1333351}, {"type": "node", "id": 12134223679, "lat": 10.3242602, "lon": 123.13333}, {"type": "node", "id": 12134223680, "lat": 10.3242508, "lon": 123.1331684}, {"type": "node", "id": 12143426950, "lat": 10.3592928, "lon": 123.1698993}, {"type": "node", "id": 12143426951, "lat": 10.3592591, "lon": 123.1699543}, {"type": "node", "id": 12143426952, "lat": 10.3593513, "lon": 123.1700125}, {"type": "node", "id": 12143426953, "lat": 10.3593849, "lon": 123.1699575}, {"type": "node", "id": 12154002276, "lat": 10.3564819, "lon": 123.1512228}, {"type": "node", "id": 12154002277, "lat": 10.3563903, "lon": 123.1512099}, {"type": "node", "id": 12154002278, "lat": 10.3563804, "lon": 123.1512818}, {"type": "node", "id": 12154002279, "lat": 10.356472, "lon": 123.1512949}, {"type": "node", "id": 12466618901, "lat": 10.3564174, "lon": 123.1512138}, {"type": "node", "id": 12466618902, "lat": 10.356424, "lon": 123.1511661}, {"type": "node", "id": 12466618903, "lat": 10.3564567, "lon": 123.1511707}, {"type": "node", "id": 12466618904, "lat": 10.3564511, "lon": 123.1512183}, {"type": "node", "id": 12522422226, "lat": 10.3790092, "lon": 123.2301248}, {"type": "node", "id": 12522422227, "lat": 10.3791563, "lon": 123.230336}, {"type": "node", "id": 12522422228, "lat": 10.3791103, "lon": 123.2303691}, {"type": "node", "id": 12522422229, "lat": 10.3789632, "lon": 123.2301579}, {"type": "way", "id": 363273081, "nodes": [3674544972, 3674544973, 11030309718, 11030309717, 3674544974, 11030309719, 11030309715, 11030309716, 3674544972], "tags": {"addr:city": "Canlaon City", "addr:postcode": "6223", "addr:street": "Lopez-Jaena Street", "amenity": "townhall", "building": "yes", "name": "Canlaon City Hall", "townhall:type": "city"}}, {"type": "way", "id": 388346700, "nodes": [3915563015, 3915563005, 3915563001, 9786489907, 3915563015], "tags": {"addr:city": "Canlaon", "addr:postcode": "6223", "addr:street": "Vallehermoso - Canlaon City - La Castellana Road", "addr:village": "Masulog", "admin_level": "10", "amenity": "townhall", "building": "civic", "building:levels": "2", "government": "administrative", "name": "Bahay Pamahalaan ng Barangay Masulog", "name:en": "Masulog Barangay Hall", "name:tl": "Bahay Pamahalaan ng Barangay Masulog", "operator": "Masulog Barangay Government", "townhall:type": "barangay"}}, {"type": "way", "id": 388373312, "nodes": [3915830535, 3915830539, 3915830534, 3915830533, 3915830535], "tags": {"addr:city": "La Castellana", "addr:district": "Puso", "addr:postcode": "6131", "addr:province": "Negros Occidental", "admin_level": "10", "amenity": "townhall", "building": "public", "name": "Puso Barangay Hall", "operator": "Puso BLGU", "townhall:type": "barangay"}}, {"type": "way", "id": 389668490, "nodes": [3928370912, 3928370913, 3928370914, 3928370915, 3928370912], "tags": {"addr:city": "Canlaon", "addr:place": "Panubigan", "addr:postcode": "6223", "admin_level": "10", "amenity": "townhall", "building": "civic", "building:levels": "1", "government": "administrative", "name": "Panubigan Barangay Hall", "office": "government", "operator": "Panubigan Barangay Government", "townhall:type": "barangay"}}, {"type": "way", "id": 389683376, "nodes": [3928511980, 3928511981, 3928511982, 3928511983, 3928511980], "tags": {"amenity": "fuel"}}, {"type": "way", "id": 389699297, "nodes": [3928693519, 3928693520, 3915057348, 3928693521, 3928693519], "tags": {"amenity": "fuel", "brand": "Caltex", "brand:wikidata": "Q277470", "name": "Caltex"}}, {"type": "way", "id": 389701609, "nodes": [3928717104, 3928717105, 3928717106, 3928717107, 3928717104], "tags": {"addr:city": "Canlaon", "addr:postcode": "6223", "admin_level": "10", "amenity": "townhall", "building": "public", "government": "administrative", "name": "Mabigo Barangay Hall", "office": "government", "operator": "Mabigo Barangay Government", "townhall:type": "barangay"}}, {"type": "way", "id": 389824082, "nodes": [3929823898, 3929823899, 3929823900, 3929823901, 3929823898], "tags": {"addr:city": "Canlaon", "addr:place": "Budlasan", "addr:postcode": "6223", "admin_level": "10", "amenity": "townhall", "building": "public", "government": "administrative", "name": "Budlasan Barangay Hall", "office": "government", "operator": "Budlasan Barangay Government", "townhall:type": "barangay"}}, {"type": "way", "id": 406479283, "nodes": [5472039624, 4085440949, 4085440939, 4085440940, 5472039624], "tags": {"addr:city": "Vallehermoso", "addr:postcode": "6224", "addr:street": "Dumaguete North Road", "admin_level": "10", "amenity": "townhall", "building": "public", "building:levels": "2", "government": "administrative", "name": "Bagawines Barangay Hall", "office": "government", "opening_hours": "Mo-Fr 08:00-17:00", "operator": "Bagawines Barangay Government", "townhall:type": "barangay"}}, {"type": "way", "id": 406479304, "nodes": [4085435485, 11983034262, 11983034260, 11983034259, 11983034261, 11983034265, 11983034264, 4085435481, 4085435485], "tags": {"addr:city": "Vallehermoso", "addr:postcode": "6224", "addr:street": "J. Burgos Street", "admin_level": "6", "amenity": "townhall", "building": "public", "building:levels": "2", "government": "administrative", "name": "Vallehermoso Municipal Hall", "office": "government", "operator": "Vallehermoso Municipal Government", "townhall:type": "municipality"}}, {"type": "way", "id": 406480165, "nodes": [4085446265, 4085446266, 4085446256, 4085446255, 4085446265], "tags": {"addr:city": "Vallehermoso", "addr:postcode": "6224", "addr:street": "Vallehermoso - Canlaon City - La Castellana Road", "admin_level": "10", "amenity": "townhall", "building": "public", "building:levels": "2", "government": "administrative", "name": "Tagbino Barangay Hall", "office": "government", "operator": "Tagbino Barangay Government", "townhall:type": "barangay"}}, {"type": "way", "id": 1065672383, "nodes": [9786489903, 9786489904, 9786489905, 9786489906, 9786489903], "tags": {"addr:city": "Canlaon", "addr:postcode": "6223", "addr:street": "Vallehermoso - Canlaon City - La Castellana Road", "admin_level": "10", "amenity": "townhall", "building": "public", "building:levels": "2", "government": "administrative", "name": "Linothangan Barangay Hall", "office": "government", "operator": "Linothangan Barangay Government", "townhall:type": "barangay"}}, {"type": "way", "id": 1085374938, "nodes": [9945351156, 9945351157, 9945351158, 9945351159, 9945351156], "tags": {"addr:city": "Guihulngan", "addr:postcode": "6214", "addr:street": "Dumaguete North Road", "admin_level": "10", "amenity": "townhall", "building": "public", "building:levels": "2", "government": "administrative", "name": "Malusay Barangay Hall", "office": "government", "operator": "Malusay Barangay Government", "townhall:type": "barangay"}}, {"type": "way", "id": 1085384850, "nodes": [9945457704, 9945457705, 9945457706, 9945457707, 9945457704], "tags": {"addr:city": "Guihulngan", "addr:postcode": "6214", "addr:street": "Dumaguete North Road", "admin_level": "10", "amenity": "townhall", "building": "public", "building:levels": "2", "government": "administrative", "name": "Hilaitan Barangay Hall", "office": "government", "operator": "Hilaitan Barangay Government", "townhall:type": "barangay"}}, {"type": "way", "id": 1085846635, "nodes": [9949588119, 9949588120, 9949588121, 9949588122, 9949588119], "tags": {"addr:city": "Vallehermoso", "addr:postcode": "6224", "addr:street": "Dumaguete North Road", "admin_level": "10", "amenity": "townhall", "building": "public", "building:levels": "1", "government": "administrative", "name": "Macapso Barangay Hall", "office": "government", "operator": "Macapso Barangay Government", "townhall:type": "barangay"}}, {"type": "way", "id": 1085846643, "nodes": [9949592330, 9949592331, 9949592332, 9949592333, 9949592330], "tags": {"addr:city": "Vallehermoso", "addr:postcode": "6224", "admin_level": "10", "amenity": "townhall", "building": "public", "building:levels": "1", "government": "administrative", "name": "Maglahos Barangay Hall", "office": "government", "operator": "Maglahos Barangay Government", "townhall:type": "barangay"}}, {"type": "way", "id": 1187867203, "nodes": [11030268103, 11030268104, 11030285605, 11030285606, 11030268103], "tags": {"addr:city": "Guihulngan", "addr:postcode": "6214", "addr:street": "Dumaguete North Road", "admin_level": "10", "amenity": "townhall", "building": "public", "building:levels": "2", "name": "Calamba Barangay Hall", "operator": "Calamba Barangay Government", "townhall:type": "barangay"}}, {"type": "way", "id": 1187869515, "nodes": [11030309706, 11030309707, 11030309708, 11030309709, 11030309706], "tags": {"addr2:street": "Aquino Street", "addr:street": "Vallehermoso - Canlaon City - La Castellana Road", "amenity": "fuel", "brand": "Petro Gazz", "building": "roof", "layer": "1", "name": "Petro Gazz", "short_name": "Gazz", "was:name": "Petron"}}, {"type": "way", "id": 1187869516, "nodes": [11030309710, 11030309711, 11030309712, 11030309713, 11030309710], "tags": {"addr:street": "Vallehermoso - Canlaon City - La Castellana Road", "amenity": "fuel", "brand": "SEAOIL", "brand:facebook": "SEAOIL", "brand:instagram": "seaoilph", "brand:twitter": "seaoilph", "brand:website": "https://www.seaoil.com.ph/", "brand:wikidata": "Q7389549", "brand:wikipedia": "en:Seaoil Philippines", "building": "roof", "fuel:diesel": "yes", "fuel:octane_91": "yes", "fuel:octane_95": "yes", "layer": "1", "name": "Seaoil"}}, {"type": "way", "id": 1291929284, "nodes": [11976739139, 11976739136, 11976739137, 11976739138, 11976739139], "tags": {"amenity": "shelter", "shelter_type": "public_transport"}}, {"type": "way", "id": 1292051873, "nodes": [11977995851, 11977995850, 11977995849, 11977995848, 11977995851], "tags": {"addr:street": "Vallehermoso - Canlaon City - La Castellana Road", "amenity": "fuel", "fixme": "name", "note": "looks like a small service station from imagery, typical in rural areas"}}, {"type": "way", "id": 1310887548, "nodes": [12134223673, 12134223674, 12134223675, 12134223676, 12134223677, 12134223678, 12134223679, 12134223680, 12134223673], "tags": {"addr:municipality": "La Castellana", "addr:place": "Cabacungan", "addr:postcode": "6131", "addr:province": "Negros Occidental", "admin_level": "10", "amenity": "townhall", "building": "civic", "building:levels": "1", "name": "Cabacungan Barangay Hall", "operator": "Cabacungan BLGU", "townhall:type": "barangay"}}, {"type": "way", "id": 1311920617, "nodes": [12143426953, 12143426952, 12143426951, 12143426950, 12143426953], "tags": {"addr:city": "La Castellana", "addr:district": "Masulog", "addr:postcode": "6131", "addr:province": "Negros Occidental", "addr:street": "Vallehermoso - Canlaon City - La Castellana Road", "admin_level": "10", "amenity": "townhall", "building": "public", "building:levels": "2", "name": "Masulog Barangay Hall", "operator": "Masulog BLGU", "townhall:type": "barangay"}}, {"type": "way", "id": 1313065236, "nodes": [12154002276, 12466618904, 12466618903, 12466618902, 12466618901, 12154002277, 12154002278, 12154002279, 12154002276], "tags": {"addr:city": "La Castellana", "addr:district": "Biaknabato", "addr:postcode": "6131", "addr:province": "Negros Occidental", "admin_level": "10", "amenity": "townhall", "building": "public", "building:levels": "1", "name": "Biaknabato Barangay Hall", "operator": "Biaknabato BLGU", "townhall:type": "barangay"}}, {"type": "way", "id": 1353323366, "nodes": [12522422229, 12522422226, 12522422227, 12522422228, 12522422229], "tags": {"addr:quarter": "Mabigo", "addr:street": "Exodus Avenue", "amenity": "doctors", "building": "civic", "healthcare": "community_health_worker", "name": "Canlaon City Rural Health Unit", "operator:type": "public", "ref": "DOH000000000002019"}}]}