{"version": 0.6, "generator": "Overpass API 0.7.62.8 e802775f", "osm3s": {"timestamp_osm_base": "2025-10-16T10:22:35Z", "copyright": "The data included in this document is from www.openstreetmap.org. The data is made available under ODbL."}, "elements": [{"type": "node", "id": 3058662908, "lat": -1.478431, "lon": 101.0569214}, {"type": "node", "id": 3058662909, "lat": -1.4783578, "lon": 101.0569289}, {"type": "node", "id": 3058662910, "lat": -1.478378, "lon": 101.0572072}, {"type": "node", "id": 3058662911, "lat": -1.4783729, "lon": 101.0572476}, {"type": "node", "id": 3058662912, "lat": -1.4783021, "lon": 101.0573261}, {"type": "node", "id": 3058662913, "lat": -1.4785575, "lon": 101.0576017}, {"type": "node", "id": 3058662914, "lat": -1.4787193, "lon": 101.0574424}, {"type": "node", "id": 3058662915, "lat": -1.4785777, "lon": 101.0572983}, {"type": "node", "id": 3058662916, "lat": -1.478469, "lon": 101.0571945}, {"type": "node", "id": 3058664520, "lat": -1.4844613, "lon": 101.0606258}, {"type": "node", "id": 3058664521, "lat": -1.4841525, "lon": 101.0605242}, {"type": "node", "id": 3058664522, "lat": -1.4843028, "lon": 101.0601014}, {"type": "node", "id": 3058664523, "lat": -1.4846198, "lon": 101.0602071}, {"type": "node", "id": 3058664619, "lat": -1.4805907, "lon": 101.0628519}, {"type": "node", "id": 3058664620, "lat": -1.4805185, "lon": 101.0630825}, {"type": "node", "id": 3058664621, "lat": -1.4809796, "lon": 101.0632168}, {"type": "node", "id": 3058664622, "lat": -1.4810622, "lon": 101.0629896}, {"type": "node", "id": 3058664623, "lat": -1.4838195, "lon": 101.0579914}, {"type": "node", "id": 3058664624, "lat": -1.4837851, "lon": 101.0582565}, {"type": "node", "id": 3058664625, "lat": -1.4841223, "lon": 101.0583288}, {"type": "node", "id": 3058664626, "lat": -1.4841636, "lon": 101.0580362}, {"type": "node", "id": 3058664642, "lat": -1.4794594, "lon": 101.0539083}, {"type": "node", "id": 3058664643, "lat": -1.4798658, "lon": 101.054201}, {"type": "node", "id": 3058664644, "lat": -1.4802316, "lon": 101.0537863}, {"type": "node", "id": 3058664645, "lat": -1.4797642, "lon": 101.0534774}, {"type": "node", "id": 3058664646, "lat": -1.4799167, "lon": 101.0535464}, {"type": "node", "id": 3058664647, "lat": -1.4802401, "lon": 101.0537563}, {"type": "node", "id": 3058664648, "lat": -1.4803829, "lon": 101.0535668}, {"type": "node", "id": 3058664649, "lat": -1.4801644, "lon": 101.0534094}, {"type": "node", "id": 3058664650, "lat": -1.479567, "lon": 101.0527827}, {"type": "node", "id": 3058664651, "lat": -1.4793281, "lon": 101.0530713}, {"type": "node", "id": 3058664652, "lat": -1.479669, "lon": 101.0533161}, {"type": "node", "id": 3058664653, "lat": -1.479905, "lon": 101.0530013}, {"type": "node", "id": 3058664795, "lat": -1.4898974, "lon": 101.062175}, {"type": "node", "id": 3058664796, "lat": -1.4903648, "lon": 101.0630125}, {"type": "node", "id": 3058664797, "lat": -1.4905355, "lon": 101.0631995}, {"type": "node", "id": 3058664798, "lat": -1.4906249, "lon": 101.0632401}, {"type": "node", "id": 3058664799, "lat": -1.4910028, "lon": 101.0625775}, {"type": "node", "id": 3058664800, "lat": -1.4904826, "lon": 101.0620937}, {"type": "node", "id": 3058664801, "lat": -1.4901413, "lon": 101.0623417}, {"type": "node", "id": 3058664802, "lat": -1.4900112, "lon": 101.0621221}, {"type": "node", "id": 3058664833, "lat": -1.476025, "lon": 101.0432486}, {"type": "node", "id": 3058942857, "lat": -1.4939894, "lon": 101.0672314}, {"type": "node", "id": 3058942858, "lat": -1.4942547, "lon": 101.068046}, {"type": "node", "id": 3058942859, "lat": -1.4946099, "lon": 101.0681997}, {"type": "node", "id": 3058942860, "lat": -1.4949027, "lon": 101.0678012}, {"type": "node", "id": 3058942861, "lat": -1.4946534, "lon": 101.0674151}, {"type": "node", "id": 3058942891, "lat": -1.4946061, "lon": 101.0676899}, {"type": "node", "id": 3162410572, "lat": -1.5533334, "lon": 101.2448293}, {"type": "node", "id": 3162410573, "lat": -1.5541122, "lon": 101.2449425}, {"type": "node", "id": 3162410574, "lat": -1.5533628, "lon": 101.2459372}, {"type": "node", "id": 3162410575, "lat": -1.552753, "lon": 101.2458639}, {"type": "node", "id": 3166118789, "lat": -1.5259153, "lon": 101.26376}, {"type": "node", "id": 3166118790, "lat": -1.5260815, "lon": 101.2639721}, {"type": "node", "id": 3166118791, "lat": -1.5258178, "lon": 101.2641556}, {"type": "node", "id": 3166118792, "lat": -1.525623, "lon": 101.2639434}, {"type": "node", "id": 4679451946, "lat": -1.5513493, "lon": 101.2461452}, {"type": "node", "id": 4679451947, "lat": -1.5509994, "lon": 101.2460205}, {"type": "node", "id": 4679451948, "lat": -1.5510999, "lon": 101.2457384}, {"type": "node", "id": 5529930736, "lat": -1.4946094, "lon": 101.0676706}, {"type": "node", "id": 6405402508, "lat": -1.554035, "lon": 101.2452385}, {"type": "node", "id": 6405402509, "lat": -1.5539392, "lon": 101.2454029}, {"type": "node", "id": 6747112423, "lat": -1.4755842, "lon": 101.042801}, {"type": "node", "id": 6747165013, "lat": -1.5267204, "lon": 101.2631334, "tags": {"amenity": "school", "name": "SMA Negeri 3 Solok Selatan", "school:type_idn": "sma", "wikidata": "Q75164773"}}, {"type": "node", "id": 6747176730, "lat": -1.4311919, "lon": 101.0141104, "tags": {"amenity": "school", "name": "SMA Negeri 5 Solok Selatan", "school:type_idn": "sma", "wikidata": "Q75165458"}}, {"type": "node", "id": 6747181622, "lat": -1.4885269, "lon": 101.0608292, "tags": {"amenity": "school", "name": "SMA Negeri 4 Solok Selatan", "school:type_idn": "sma", "wikidata": "Q75165023"}}, {"type": "node", "id": 6747186602, "lat": -1.5692112, "lon": 101.2193705, "tags": {"amenity": "school", "name": "SMA Negeri 6 Solok Selatan", "school:type_idn": "sma", "wikidata": "Q75165674"}}, {"type": "node", "id": 7672864642, "lat": -1.5515552, "lon": 101.2458882}, {"type": "node", "id": 7672864644, "lat": -1.5514672, "lon": 101.2460789}, {"type": "node", "id": 9314939089, "lat": -1.5884535, "lon": 101.1455058}, {"type": "node", "id": 9314939090, "lat": -1.5881573, "lon": 101.1457495}, {"type": "node", "id": 9314939091, "lat": -1.5883555, "lon": 101.1460218}, {"type": "node", "id": 9314939092, "lat": -1.5886353, "lon": 101.1457693}, {"type": "node", "id": 9319868204, "lat": -1.440122, "lon": 101.0164001}, {"type": "node", "id": 9319868205, "lat": -1.44033, "lon": 101.0161135}, {"type": "node", "id": 9319868206, "lat": -1.440258, "lon": 101.0160613}, {"type": "node", "id": 9319868207, "lat": -1.4403049, "lon": 101.0159968}, {"type": "node", "id": 9319868208, "lat": -1.4404606, "lon": 101.0161098}, {"type": "node", "id": 9319868209, "lat": -1.4402058, "lon": 101.0164609}, {"type": "node", "id": 9320159365, "lat": -1.489521, "lon": 101.0394945}, {"type": "node", "id": 9320159366, "lat": -1.4894299, "lon": 101.039573}, {"type": "node", "id": 9320159367, "lat": -1.4896418, "lon": 101.0398487}, {"type": "node", "id": 9320159368, "lat": -1.4898679, "lon": 101.0396585}, {"type": "node", "id": 9320159369, "lat": -1.4897847, "lon": 101.0395343}, {"type": "node", "id": 9587045150, "lat": -1.5505646, "lon": 101.2519534, "tags": {"amenity": "school", "isced:level": "1", "name": "SD Negeri 06 Durian Taruang"}}, {"type": "node", "id": 9587107285, "lat": -1.4763223, "lon": 101.0422292}, {"type": "node", "id": 9587107286, "lat": -1.4769613, "lon": 101.0425811}, {"type": "node", "id": 9587107287, "lat": -1.4757915, "lon": 101.0433477}, {"type": "node", "id": 12393840122, "lat": -1.565342, "lon": 101.238162, "tags": {"addr:district": "Solok Selatan", "addr:province": "Sumatera Barat", "addr:street": "Timbulun jln poros kantor bupati solok selatan komplek perkantoran", "addr:subdistrict": "Sangir", "addr:village": "Timbulun", "amenity": "social_facility", "email": "pmikabupatensolokselatan@gmail.com", "name": "POSKO PMI Kabupaten Solok Selatan", "operator": "Palang Merah Indonesia", "operator:short": "PMI", "phone": "081374972221", "social_facility": "command_post"}}, {"type": "node", "id": 12393840123, "lat": -1.565255, "lon": 101.238388, "tags": {"addr:district": "Solok Selatan", "addr:province": "Sumatera Barat", "addr:street": "Timbulun jln poros kantor bupati komplek perkantoran", "addr:subdistrict": "Sangir", "addr:village": "Timbulun", "amenity": "social_facility", "email": "pmikabupatensolokselatan@gmail.com", "name": "KSR PMI Kabupaten Solok Selatan", "operator": "Palang Merah Indonesia", "operator:short": "PMI", "phone": "081374972221", "social_facility": "ksr_district_office"}}, {"type": "node", "id": 12393840124, "lat": -1.565347, "lon": 101.23809, "tags": {"addr:district": "Solok Selatan", "addr:province": "Sumatera Barat", "addr:street": "Timbulun jln poros kantor bupati solok selatan komplek perkantoran", "addr:subdistrict": "Sangir", "addr:village": "Timbulun", "amenity": "social_facility", "email": "pmikabupatensolokselatan@gmail.com", "name": "PMI Kabupaten Solok Selatan", "operator": "Palang Merah Indonesia", "operator:short": "PMI", "phone": "081374972221", "social_facility": "office"}}, {"type": "way", "id": 301748034, "nodes": [3058662908, 3058662909, 3058662910, 3058662911, 3058662912, 3058662913, 3058662914, 3058662915, 3058662916, 3058662908], "tags": {"amenity": "school", "building": "yes", "name": "SLTPN 02 Solok Selatan"}}, {"type": "way", "id": 301748055, "nodes": [3058664520, 3058664521, 3058664522, 3058664523, 3058664520], "tags": {"amenity": "school", "building": "yes", "name": "SD 02 & 04"}}, {"type": "way", "id": 301748077, "nodes": [3058664619, 3058664620, 3058664621, 3058664622, 3058664619], "tags": {"amenity": "school", "building": "yes", "name": "SD Kiambang"}}, {"type": "way", "id": 301748078, "nodes": [3058664623, 3058664624, 3058664625, 3058664626, 3058664623], "tags": {"amenity": "school", "building": "yes"}}, {"type": "way", "id": 301748082, "nodes": [3058664642, 3058664643, 3058664644, 3058664645, 3058664642], "tags": {"amenity": "school", "building": "yes", "name": "SLTPN 01 Sungai Pagu"}}, {"type": "way", "id": 301748083, "nodes": [3058664646, 3058664647, 3058664648, 3058664649, 3058664646], "tags": {"amenity": "school", "building": "yes", "name": "TK"}}, {"type": "way", "id": 301748084, "nodes": [3058664650, 3058664651, 3058664652, 3058664653, 3058664650], "tags": {"amenity": "school", "building": "yes", "name": "SD"}}, {"type": "way", "id": 301748109, "nodes": [3058664795, 3058664796, 3058664797, 3058664798, 3058664799, 3058664800, 3058664801, 3058664802, 3058664795], "tags": {"amenity": "school", "building": "yes", "name": "MAN Sungai Pagu"}}, {"type": "way", "id": 301765758, "nodes": [3058942857, 3058942858, 3058942859, 3058942860, 3058942891, 5529930736, 3058942861, 3058942857], "tags": {"amenity": "school", "name": "SMKN 1 Solok Selatan"}}, {"type": "way", "id": 310756321, "nodes": [3162410572, 3162410573, 6405402508, 6405402509, 3162410574, 3162410575, 3162410572], "tags": {"addr:city": "Solok Selatan Sangir", "addr:street": "Timbulun", "amenity": "school", "isced:level": "2", "name": "SMP Negeri 3 Solok Selatan", "operator:type": "government", "ref": "10306960", "short_name": "SMPN 3 Solok Selatan", "wikidata": "Q123774168"}}, {"type": "way", "id": 311064456, "nodes": [3166118789, 3166118790, 3166118791, 3166118792, 3166118789], "tags": {"addr:city": "SOLOK SELTAN", "addr:street": "jln.raya lubuk gadang", "amenity": "school", "name": "SD 01 LUBUK GADANG"}}, {"type": "way", "id": 1009555878, "nodes": [9314939092, 9314939091, 9314939090, 9314939089, 9314939092], "tags": {"addr:place": "Kecamatan Pauh Duo, Solok Selatan", "amenity": "school", "isced:level": "1", "name": "SD Negeri 03 Pekonina", "source:geometry": "Maxar"}}, {"type": "way", "id": 1010099251, "nodes": [9319868209, 9319868208, 9319868207, 9319868206, 9319868205, 9319868204, 9319868209], "tags": {"amenity": "school", "building": "school", "isced:level": "1", "name": "SDN 6 Pekan Rabaa"}}, {"type": "way", "id": 1010134928, "nodes": [9320159369, 9320159368, 9320159367, 9320159366, 9320159365, 9320159369], "tags": {"addr:full": "Sipotu Sako Utara, Kec. Sungai Pagu, Kab. Solok Selatan", "amenity": "school", "isced:level": "1", "name": "SD Negeri 16 Sipotu", "ref": "10306929", "source:geometry": "Maxar"}}, {"type": "way", "id": 1041348815, "nodes": [9587107287, 3058664833, 9587107286, 9587107285, 6747112423, 9587107287], "tags": {"amenity": "school", "name": "SMA Negeri 1 Solok Selatan", "wikidata": "Q75164042"}}, {"type": "way", "id": 1254164185, "nodes": [4679451948, 7672864642, 7672864644, 4679451946, 4679451947, 4679451948], "tags": {"amenity": "school", "isced:level": "1", "name": "SD Negeri 14 Padang Aro", "operator:type": "government", "ref": "10307552", "short_name": "SDN 14 Padang Aro", "wikidata": "Q116763542"}}]}