{"version": 0.6, "generator": "Overpass API 0.7.62.8 e802775f", "osm3s": {"timestamp_osm_base": "2025-09-30T11:11:28Z", "copyright": "The data included in this document is from www.openstreetmap.org. The data is made available under ODbL."}, "elements": [{"type": "node", "id": 2277281701, "lat": 14.5010688, "lon": -90.9547139, "tags": {"amenity": "townhall", "name": "RENAP"}}, {"type": "node", "id": 2277282263, "lat": 14.5027944, "lon": -90.9516301, "tags": {"amenity": "fuel", "brand": "Gasolinera La Caba\u00f1a"}}, {"type": "node", "id": 2489698160, "lat": 14.6829351, "lon": -91.0142316, "tags": {"amenity": "townhall", "name": "Municipalidad de Patz\u00fan"}}, {"type": "node", "id": 3892836121, "lat": 14.6194764, "lon": -91.1490383, "tags": {"amenity": "fuel", "name": "Blue Oil", "source": "Reconocimiento cartogr\u00e1fico por KG 2016."}}, {"type": "node", "id": 3928056635, "lat": 14.6394548, "lon": -91.1479547, "tags": {"addr:city": "San Lucas Tolim\u00e1n", "addr:street": "Carretera San Lucas Tolim\u00e1n - Santiago Atitl\u00e1n", "amenity": "fuel", "source": "Reconocimiento cartogr\u00e1fico por KG 2016."}}, {"type": "node", "id": 3928740549, "lat": 14.633581, "lon": -91.1425386, "tags": {"amenity": "townhall", "name": "Municipalidad de San Lucas Tolim\u00e1n", "phone": "7961-5258", "source": "Reconocimiento cartogr\u00e1fico por KG 2016."}}, {"type": "node", "id": 3928740550, "lat": 14.633736, "lon": -91.1424803}, {"type": "node", "id": 3928740551, "lat": 14.6333, "lon": -91.1427378}, {"type": "node", "id": 3928740552, "lat": 14.6332572, "lon": -91.1426547}, {"type": "node", "id": 3928740553, "lat": 14.6336919, "lon": -91.1423972}, {"type": "node", "id": 3928740554, "lat": 14.6336501, "lon": -91.1430811, "tags": {"addr:city": "San Lucas Tolim\u00e1n", "addr:street": "6a Avenida", "amenity": "bank", "atm": "yes", "name": "Banrural", "source": "Reconocimiento cartogr\u00e1fico por KG 2016."}}, {"type": "node", "id": 4065669393, "lat": 14.6957602, "lon": -90.9506305}, {"type": "node", "id": 4065669394, "lat": 14.6955055, "lon": -90.9506412}, {"type": "node", "id": 4065669395, "lat": 14.6954988, "lon": -90.9504722}, {"type": "node", "id": 4065669396, "lat": 14.6957535, "lon": -90.9504614}, {"type": "node", "id": 4065669397, "lat": 14.6840306, "lon": -90.9512037}, {"type": "node", "id": 4065669398, "lat": 14.6839046, "lon": -90.9512119}, {"type": "node", "id": 4065669399, "lat": 14.6838951, "lon": -90.9510559}, {"type": "node", "id": 4065669400, "lat": 14.6840211, "lon": -90.9510477}, {"type": "node", "id": 4065669401, "lat": 14.6771405, "lon": -90.9510941}, {"type": "node", "id": 4065669402, "lat": 14.676999, "lon": -90.9511048}, {"type": "node", "id": 4065669403, "lat": 14.6769857, "lon": -90.9509178}, {"type": "node", "id": 4065669404, "lat": 14.6771273, "lon": -90.9509071}, {"type": "node", "id": 4065669405, "lat": 14.6409227, "lon": -90.9290154}, {"type": "node", "id": 4065669406, "lat": 14.6408463, "lon": -90.9289465}, {"type": "node", "id": 4065669407, "lat": 14.6407351, "lon": -90.9290784}, {"type": "node", "id": 4065669408, "lat": 14.6408116, "lon": -90.9291473}, {"type": "node", "id": 4065669409, "lat": 14.6411872, "lon": -90.9284733}, {"type": "node", "id": 4065669410, "lat": 14.641089, "lon": -90.9285843}, {"type": "node", "id": 4065669411, "lat": 14.6409579, "lon": -90.9284605}, {"type": "node", "id": 4065669412, "lat": 14.641056, "lon": -90.9283495}, {"type": "node", "id": 4065675525, "lat": 14.6294147, "lon": -90.9172261}, {"type": "node", "id": 4065675526, "lat": 14.6294999, "lon": -90.9175443}, {"type": "node", "id": 4065675527, "lat": 14.6294309, "lon": -90.917564}, {"type": "node", "id": 4065675528, "lat": 14.6293457, "lon": -90.9172458}, {"type": "node", "id": 4065677547, "lat": 14.6360793, "lon": -90.8998681}, {"type": "node", "id": 4065677548, "lat": 14.6360183, "lon": -90.8998324}, {"type": "node", "id": 4065677549, "lat": 14.6359197, "lon": -90.900012}, {"type": "node", "id": 4065677550, "lat": 14.6359806, "lon": -90.9000477}, {"type": "node", "id": 4065739106, "lat": 14.6404164, "lon": -90.8832985}, {"type": "node", "id": 4065739107, "lat": 14.6403655, "lon": -90.883389}, {"type": "node", "id": 4065739108, "lat": 14.6401688, "lon": -90.8832709}, {"type": "node", "id": 4065739109, "lat": 14.6402197, "lon": -90.8831804}, {"type": "node", "id": 4082351608, "lat": 14.6340164, "lon": -91.1425342, "tags": {"addr:city": "San Lucas Tolim\u00e1n", "addr:street": "3a Calle C", "amenity": "bank", "atm": "yes", "contact:email": "Mercadeo.BAM@bam.com.gt", "contact:facebook": "https://www.facebook.com/bamguatemala", "contact:instagram": "https://instagram.com/bam.guatemala", "contact:linkedin": "https://gt.linkedin.com/company/bam-gt", "contact:phone": "+502 2338 6565", "contact:twitter": "https://twitter.com/BAMguatemala", "contact:website": "https://www.bam.com", "contact:youtube": "https://www.youtube.com/user/bamguatemala", "name": "BAM", "opening_hours": "Mo-Fr 09:00-17:00; Sa 09:00-13:00", "source": "Reconocimiento cartogr\u00e1fico por KG 2016."}}, {"type": "node", "id": 4082459676, "lat": 14.6355805, "lon": -91.14356, "tags": {"addr:city": "San Lucas Tolim\u00e1n", "addr:street": "5a Avenida", "amenity": "dentist", "name": "Cl\u00ednica Dental", "source": "Reconocimiento cartogr\u00e1fico por KG 2016."}}, {"type": "node", "id": 4083148972, "lat": 14.6329365, "lon": -91.1426424, "tags": {"amenity": "bank", "name": "Caja Rural", "source": "Reconocimiento cartogr\u00e1fico por KG 2016."}}, {"type": "node", "id": 4083404217, "lat": 14.6347337, "lon": -91.1426811, "tags": {"addr:city": "San Lucas Tolim\u00e1n", "addr:street": "6a Avenida", "amenity": "social_facility", "level": "2", "name": "Grupo AA - 21 de Septiembre", "operator": "Alcoh\u00f3licos An\u00f3nimos", "source": "Reconocimiento cartogr\u00e1fico por KG 2016.", "wheelchair": "no"}}, {"type": "node", "id": 4677469490, "lat": 14.632875, "lon": -91.1437452, "tags": {"addr:city": "San Lucas Tolim\u00e1n", "addr:street": "5a Calle", "amenity": "bank", "name": "Banco Azteca", "name:es": "Banco Azteca"}}, {"type": "node", "id": 4686267037, "lat": 14.5323221, "lon": -91.1322994}, {"type": "node", "id": 4686267268, "lat": 14.5322487, "lon": -91.1322344}, {"type": "node", "id": 4686267457, "lat": 14.5323138, "lon": -91.1322265}, {"type": "node", "id": 4686267497, "lat": 14.532257, "lon": -91.1323074}, {"type": "node", "id": 6166779585, "lat": 14.514639, "lon": -90.8799572, "tags": {"amenity": "shelter"}}, {"type": "node", "id": 6754602314, "lat": 14.7372388, "lon": -90.9915124}, {"type": "node", "id": 6754602315, "lat": 14.7372116, "lon": -90.9913583}, {"type": "node", "id": 6754602316, "lat": 14.7372952, "lon": -90.9911508}, {"type": "node", "id": 6754602317, "lat": 14.7374323, "lon": -90.9909711}, {"type": "node", "id": 6754602318, "lat": 14.7375092, "lon": -90.9908466}, {"type": "node", "id": 6754602319, "lat": 14.7374256, "lon": -90.9906634}, {"type": "node", "id": 6754602320, "lat": 14.7373287, "lon": -90.9905355}, {"type": "node", "id": 6754602321, "lat": 14.7372351, "lon": -90.9904422}, {"type": "node", "id": 6754602322, "lat": 14.7370813, "lon": -90.9903868}, {"type": "node", "id": 6754602323, "lat": 14.7369442, "lon": -90.9903523}, {"type": "node", "id": 6754602324, "lat": 14.7368372, "lon": -90.9903073}, {"type": "node", "id": 6754602325, "lat": 14.7366531, "lon": -90.9903133}, {"type": "node", "id": 6754602326, "lat": 14.7364113, "lon": -90.9904042}, {"type": "node", "id": 6754602327, "lat": 14.7361695, "lon": -90.9905349}, {"type": "node", "id": 6754602328, "lat": 14.7359881, "lon": -90.990677}, {"type": "node", "id": 6754602329, "lat": 14.7357793, "lon": -90.9907736}, {"type": "node", "id": 6754602330, "lat": 14.7356199, "lon": -90.9909498}, {"type": "node", "id": 6754602331, "lat": 14.7355594, "lon": -90.9913021}, {"type": "node", "id": 6754602332, "lat": 14.7355649, "lon": -90.9914499}, {"type": "node", "id": 6754602333, "lat": 14.7357408, "lon": -90.9915579}, {"type": "node", "id": 6754602334, "lat": 14.7359716, "lon": -90.9916431}, {"type": "node", "id": 6754602335, "lat": 14.7361805, "lon": -90.991717}, {"type": "node", "id": 6754602336, "lat": 14.7364718, "lon": -90.9917511}, {"type": "node", "id": 6754602337, "lat": 14.736763, "lon": -90.9917852}, {"type": "node", "id": 6754602338, "lat": 14.7371203, "lon": -90.9916488}, {"type": "node", "id": 6910158988, "lat": 14.6501115, "lon": -90.8915841, "tags": {"addr:street": "1 Calle", "amenity": "bank", "name": "Intercop"}}, {"type": "node", "id": 6933065294, "lat": 14.6497212, "lon": -90.8898633, "tags": {"addr:street": "2 Calle", "amenity": "dentist", "name": "Laboratorio Dental White Dent"}}, {"type": "node", "id": 6933300089, "lat": 14.6499173, "lon": -90.8913831, "tags": {"addr:street": "1 Avenida", "amenity": "bank", "name": "Banrural"}}, {"type": "node", "id": 6933300197, "lat": 14.6478909, "lon": -90.8908631, "tags": {"addr:street": "1 Avenida", "amenity": "bank", "name": "Micoope"}}, {"type": "node", "id": 6935652285, "lat": 14.6481717, "lon": -90.8908954, "tags": {"addr:street": "1 Avenida", "amenity": "doctors"}}, {"type": "node", "id": 6935652685, "lat": 14.6446267, "lon": -90.8901843, "tags": {"addr:street": "1 Avenida", "amenity": "dentist"}}, {"type": "node", "id": 6935818490, "lat": 14.6500983, "lon": -90.8869897, "tags": {"addr:street": "5 Avenida", "amenity": "dentist", "name": "Centr\u00f3 Dental San Juan"}}, {"type": "node", "id": 6935818791, "lat": 14.6441256, "lon": -90.8881893, "tags": {"addr:street": "3 Avenida", "amenity": "fuel", "name": "Gasolinera Puma"}}, {"type": "node", "id": 6936078998, "lat": 14.6496764, "lon": -90.8927888, "tags": {"addr:street": "1 Calle", "amenity": "dentist"}}, {"type": "node", "id": 7100291689, "lat": 14.7306969, "lon": -90.8871613, "tags": {"addr:street": "Carretera a San Ju\u00e1n Comalapa", "amenity": "fuel", "name": "Gasolinera Comalapa"}}, {"type": "node", "id": 7129297456, "lat": 14.6294786, "lon": -90.9175503}, {"type": "node", "id": 7129297457, "lat": 14.6293885, "lon": -90.9172336}, {"type": "node", "id": 10278580782, "lat": 14.6836368, "lon": -91.0145459}, {"type": "node", "id": 10278580783, "lat": 14.6833604, "lon": -91.0142825}, {"type": "node", "id": 10278580784, "lat": 14.6835864, "lon": -91.0140781}, {"type": "node", "id": 10278580785, "lat": 14.6838513, "lon": -91.0143339}, {"type": "node", "id": 11088937310, "lat": 14.6771339, "lon": -90.9510002}, {"type": "node", "id": 11088937312, "lat": 14.6769923, "lon": -90.9510096}, {"type": "node", "id": 11096487859, "lat": 14.6957568, "lon": -90.9505466}, {"type": "node", "id": 11096487860, "lat": 14.6955018, "lon": -90.9505494}, {"type": "node", "id": 11096529034, "lat": 14.6402819, "lon": -90.8833393}, {"type": "node", "id": 11096529035, "lat": 14.6403357, "lon": -90.8832508}, {"type": "node", "id": 11211043834, "lat": 14.6408304, "lon": -90.9289271}, {"type": "node", "id": 11211043835, "lat": 14.6409426, "lon": -90.9290261}, {"type": "node", "id": 11211043836, "lat": 14.6408498, "lon": -90.929102}, {"type": "node", "id": 11211075837, "lat": 14.6407632, "lon": -90.9290451}, {"type": "node", "id": 11211075838, "lat": 14.6407702, "lon": -90.9291101}, {"type": "node", "id": 11211075839, "lat": 14.6407749, "lon": -90.9291142}, {"type": "node", "id": 11211075843, "lat": 14.6409392, "lon": -90.9290302}, {"type": "node", "id": 11211075844, "lat": 14.6409823, "lon": -90.928979}, {"type": "node", "id": 11211075845, "lat": 14.640871, "lon": -90.9288788}, {"type": "node", "id": 11211075846, "lat": 14.6408279, "lon": -90.92893}, {"type": "node", "id": 11211075991, "lat": 14.6700499, "lon": -91.0034992}, {"type": "node", "id": 11211075992, "lat": 14.6699319, "lon": -91.0036018}, {"type": "node", "id": 11211075993, "lat": 14.6699687, "lon": -91.0036471}, {"type": "node", "id": 11211075994, "lat": 14.6700868, "lon": -91.0035445}, {"type": "node", "id": 11211076082, "lat": 14.6807256, "lon": -91.0122832}, {"type": "node", "id": 11211076083, "lat": 14.6806685, "lon": -91.0123489}, {"type": "node", "id": 11211076084, "lat": 14.6807277, "lon": -91.0124038}, {"type": "node", "id": 11211076085, "lat": 14.6807847, "lon": -91.0123381}, {"type": "node", "id": 11831788066, "lat": 14.6359733, "lon": -90.8999144}, {"type": "node", "id": 11831788067, "lat": 14.636035, "lon": -90.899948}, {"type": "node", "id": 11871991161, "lat": 14.6411449, "lon": -90.9285211}, {"type": "node", "id": 11871991162, "lat": 14.6410083, "lon": -90.9284036}, {"type": "node", "id": 12324485304, "lat": 14.7318408, "lon": -91.1092633, "tags": {"amenity": "fuel", "name": "Texaco"}}, {"type": "node", "id": 12670885602, "lat": 14.7251371, "lon": -90.8883458, "tags": {"amenity": "fuel", "brand": "Puma", "brand:wikidata": "Q7259769"}}, {"type": "node", "id": 12726961701, "lat": 14.6631307, "lon": -91.1097087, "tags": {"amenity": "fuel"}}, {"type": "node", "id": 13062649602, "lat": 14.7254409, "lon": -90.9624803, "tags": {"amenity": "fuel", "name": "Don Arturo Fuel"}}, {"type": "node", "id": 13170595140, "lat": 14.683247, "lon": -91.0162595, "tags": {"amenity": "bank", "email": "bantigua2022@gmail.com", "facebook": "https://www.facebook.com/BancodeAntiguaGuatemala", "name": "Banco de Antigua", "opening_hours": "Mo-Fr 09:00-17:30; Sa 09:00-12:30", "phone": "+502 2417 3960", "website": "https://www.bantigua.com.gt"}}, {"type": "node", "id": 13170595165, "lat": 14.6350909, "lon": -91.1425996, "tags": {"amenity": "bank", "email": "bantigua2022@gmail.com", "facebook": "https://www.facebook.com/BancodeAntiguaGuatemala", "name": "Banco de Antigua", "opening_hours": "Mo-Fr 09:00-17:30; Sa 09:00-12:30", "phone": "+502 2417 3948", "website": "https://www.bantigua.com.gt"}}, {"type": "way", "id": 389703913, "nodes": [3928740550, 3928740551, 3928740552, 3928740553, 3928740550], "tags": {"amenity": "townhall", "building": "yes", "source": "Reconocimiento cartogr\u00e1fico por KG 2016."}}, {"type": "way", "id": 404293996, "nodes": [4065669393, 4065669394, 11096487860, 4065669395, 4065669396, 11096487859, 4065669393], "tags": {"addr:street": "Carretera Panamericana", "amenity": "fuel", "brand": "Puma", "brand:wikidata": "Q7259769", "brand:wikipedia": "en:Puma Energy", "building": "roof", "name": "Puma", "source": "KG Ground Survey 2016"}}, {"type": "way", "id": 404293997, "nodes": [4065669397, 4065669398, 4065669399, 4065669400, 4065669397], "tags": {"addr:street": "Carretera Panamericana Interamericana", "amenity": "fuel", "brand": "Texaco", "building": "roof", "source": "KG Ground Survey 2016"}}, {"type": "way", "id": 404293998, "nodes": [4065669401, 4065669402, 11088937312, 4065669403, 4065669404, 11088937310, 4065669401], "tags": {"addr:street": "Carretera Panamericana Interamericana", "amenity": "fuel", "brand": "Texaco", "brand:wikidata": "Q775060", "building": "roof", "compressed_air": "yes", "name": "Texaco", "source": "KG Ground Survey 2016"}}, {"type": "way", "id": 404293999, "nodes": [4065669405, 11211075843, 11211043835, 11211075844, 11211075845, 11211043834, 11211075846, 4065669406, 11211075837, 4065669407, 11211075838, 11211075839, 4065669408, 11211043836, 4065669405], "tags": {"addr:street": "Carretera Panamericana Interamericana", "amenity": "fuel", "building": "roof", "name": "Puma", "source": "KG Ground Survey 2016"}}, {"type": "way", "id": 404294000, "nodes": [4065669409, 11871991161, 4065669410, 4065669411, 11871991162, 4065669412, 4065669409], "tags": {"addr:street": "Carretera Panamericana Interamericana", "amenity": "fuel", "building": "roof", "name": "Don Arturo", "source": "KG Ground Survey 2016"}}, {"type": "way", "id": 404294475, "nodes": [4065675525, 4065675526, 7129297456, 4065675527, 4065675528, 7129297457, 4065675525], "tags": {"addr:street": "Carretera Panamericana Interamericana", "amenity": "fuel", "building": "roof", "name": "Shell", "source": "KG Ground Survey 2016"}}, {"type": "way", "id": 404294781, "nodes": [4065677547, 4065677548, 11831788066, 4065677549, 4065677550, 11831788067, 4065677547], "tags": {"addr:street": "Carretera Panamericana Interamericana", "amenity": "fuel", "building": "roof", "name": "Don Arturo", "source": "KG Ground Survey 2016"}}, {"type": "way", "id": 404300184, "nodes": [4065739106, 4065739107, 11096529034, 4065739108, 4065739109, 11096529035, 4065739106], "tags": {"addr:street": "Carretera Panamericana Interamericana", "amenity": "fuel", "building": "roof", "name": "Puma", "source": "KG Ground Survey 2016"}}, {"type": "way", "id": 474736055, "nodes": [4686267497, 4686267268, 4686267457, 4686267037, 4686267497], "tags": {"amenity": "fuel", "building": "roof", "name": "Texaco"}}, {"type": "way", "id": 719519978, "nodes": [6754602314, 6754602315, 6754602316, 6754602317, 6754602318, 6754602319, 6754602320, 6754602321, 6754602322, 6754602323, 6754602324, 6754602325, 6754602326, 6754602327, 6754602328, 6754602329, 6754602330, 6754602331, 6754602332, 6754602333, 6754602334, 6754602335, 6754602336, 6754602337, 6754602338, 6754602314], "tags": {"amenity": "waste_transfer_station", "name": "Vertedero de basura"}}, {"type": "way", "id": 1123958042, "nodes": [10278580782, 10278580785, 10278580784, 10278580783, 10278580782], "tags": {"amenity": "townhall", "name": "Sal\u00f3n Municipal de Patz\u00fan"}}, {"type": "way", "id": 1210153496, "nodes": [11211075994, 11211075991, 11211075992, 11211075993, 11211075994], "tags": {"amenity": "fuel", "building": "roof", "name": "Villa Linda"}}, {"type": "way", "id": 1210153521, "nodes": [11211076085, 11211076082, 11211076083, 11211076084, 11211076085], "tags": {"amenity": "fuel", "building": "roof", "name": "San Bernardino"}}]}