{"version": 0.6, "generator": "Overpass API 0.7.62.8 e802775f", "osm3s": {"timestamp_osm_base": "2025-10-14T08:49:59Z", "copyright": "The data included in this document is from www.openstreetmap.org. The data is made available under ODbL."}, "elements": [{"type": "node", "id": 4758469439, "lat": -15.5926113, "lon": -71.9480728, "tags": {"amenity": "kindergarten", "isced:level": "0"}}, {"type": "node", "id": 4758469440, "lat": -15.592663, "lon": -71.9480567, "tags": {"amenity": "school"}}, {"type": "node", "id": 5574509183, "lat": -15.5611, "lon": -72.0472, "tags": {"addr:district": "Choco", "addr:full": "Plaza Principal", "addr:province": "Castilla", "addr:subdistrict": "Llanca", "amenity": "kindergarten", "ele": "3216", "fixme": "Ubicar el POI en el lugar que corresponde", "isced:level": "0", "name": "Instituci\u00f3n educativa inicial Llanca", "note": "Ubicacion_web (local)", "ref": "0723114", "source": "minedu.gob.pe"}}, {"type": "node", "id": 5574509184, "lat": -15.5621, "lon": -72.0471, "tags": {"addr:district": "Choco", "addr:full": "Plaza Principal", "addr:province": "Castilla", "addr:subdistrict": "Llanca", "amenity": "school", "ele": "3216", "fixme": "Ubicar el POI en el lugar que corresponde", "isced:level": "1", "name": "Instituci\u00f3n Educativa No. 40318", "note": "Gps_otras_fuentes (local)", "ref": "0311993", "source": "minedu.gob.pe"}}, {"type": "node", "id": 5574510711, "lat": -15.6979, "lon": -72.1003, "tags": {"addr:district": "Huambo", "addr:full": "Calle Majada S/n", "addr:province": "Caylloma", "addr:subdistrict": "Chinini", "amenity": "school", "ele": "3371", "fixme": "Ubicar el POI en el lugar que corresponde", "isced:level": "1", "name": "Instituci\u00f3n Educativa No. 40651", "note": "Med_gps (local)", "ref": "0844175", "source": "minedu.gob.pe"}}, {"type": "node", "id": 5574510737, "lat": -15.5517, "lon": -71.9872, "tags": {"addr:district": "Tapay", "addr:full": "Fure S/n", "addr:province": "Caylloma", "addr:subdistrict": "Fure", "amenity": "school", "ele": "2842", "fixme": "Ubicar el POI en el lugar que corresponde", "isced:level": "1", "name": "Instituci\u00f3n Educativa No. 40437", "note": "Med_gps (local)", "ref": "0313171", "source": "minedu.gob.pe"}}, {"type": "node", "id": 5574510975, "lat": -15.5772, "lon": -71.9399, "tags": {"addr:district": "Tapay", "addr:full": "Calle Garcilazo S/n", "addr:province": "Caylloma", "addr:subdistrict": "Tapay", "amenity": "kindergarten", "ele": "3001", "fixme": "Ubicar el POI en el lugar que corresponde", "isced:level": "0", "name": "Instituci\u00f3n educativa inicial Tapay", "note": "Ubicacion_web (local)", "ref": "1260181", "source": "minedu.gob.pe"}}, {"type": "node", "id": 5574510976, "lat": -15.5773934, "lon": -71.9393998, "tags": {"addr:district": "Tapay", "addr:full": "Calle Garcilazo S/n", "addr:province": "Caylloma", "addr:subdistrict": "Tapay", "amenity": "school", "ele": "3001", "isced:level": "1;2", "name": "Instituci\u00f3n Educativa No. 40418", "note": "Med_gps (local)", "ref": "0312983;1202605", "source": "minedu.gob.pe"}}, {"type": "node", "id": 5574511129, "lat": -15.7309, "lon": -72.1088, "tags": {"addr:district": "Huambo", "addr:full": "Calle Democracia S/n", "addr:province": "Caylloma", "addr:subdistrict": "Huambo", "amenity": "kindergarten", "ele": "3313", "fixme": "Ubicar el POI en el lugar que corresponde", "isced:level": "0", "name": "Instituci\u00f3n educativa inicial Huambo", "note": "Med_gps (local)", "ref": "0612531", "source": "minedu.gob.pe"}}, {"type": "node", "id": 5574511130, "lat": -15.7318, "lon": -72.1068, "tags": {"addr:district": "Huambo", "addr:full": "Calle Corbachov S/n", "addr:province": "Caylloma", "addr:subdistrict": "Huambo", "amenity": "school", "ele": "3313", "fixme": "Ubicar el POI en el lugar que corresponde", "isced:level": "2", "name": "Instituci\u00f3n Educativa Andres Avelino Caceres", "note": "Med_gps (local)", "ref": "0589838", "source": "minedu.gob.pe"}}, {"type": "node", "id": 5574511131, "lat": -15.7299, "lon": -72.108, "tags": {"addr:district": "Huambo", "addr:full": "Plaza De Armas", "addr:province": "Caylloma", "addr:subdistrict": "Huambo", "amenity": "school", "ele": "3313", "fixme": "Ubicar el POI en el lugar que corresponde", "isced:level": "1", "name": "Instituci\u00f3n Educativa 40383 Juan Pablo Ii", "note": "Med_gps (local)", "ref": "0312645", "source": "minedu.gob.pe"}}, {"type": "node", "id": 5574511236, "lat": -15.5403, "lon": -71.9723, "tags": {"addr:district": "Tapay", "addr:full": "Anexo Tocallo Mz B Lote 13", "addr:province": "Caylloma", "addr:subdistrict": "Tocallo", "amenity": "school", "ele": "3853", "fixme": "Ubicar el POI en el lugar que corresponde", "isced:level": "1", "name": "Instituci\u00f3n Educativa No. 40332", "note": "Gps_otras_fuentes (local)", "ref": "0518670", "source": "minedu.gob.pe"}}, {"type": "node", "id": 5574511628, "lat": -15.5926, "lon": -71.9481, "tags": {"addr:district": "Tapay", "addr:full": "San Juan De Chuccho", "addr:province": "Caylloma", "addr:subdistrict": "San Juan De Chuccho", "amenity": "school", "ele": "2442", "fixme": "Ubicar el POI en el lugar que corresponde", "isced:level": "1", "name": "Instituci\u00f3n Educativa No. 40419", "note": "Med_gps (local)", "ref": "0312991", "source": "minedu.gob.pe"}}, {"type": "node", "id": 5574511629, "lat": -15.5839, "lon": -71.9552, "tags": {"addr:district": "Tapay", "addr:full": "Calle Principal S/n", "addr:province": "Caylloma", "addr:subdistrict": "Cos\u00f1irhua", "amenity": "kindergarten", "ele": "2662", "fixme": "Ubicar el POI en el lugar que corresponde", "isced:level": "0", "name": "Instituci\u00f3n educativa inicial Cos\u00f1irhua", "note": "Med_gps (local)", "ref": "0796839", "source": "minedu.gob.pe"}}, {"type": "node", "id": 5574511630, "lat": -15.5839, "lon": -71.9555, "tags": {"addr:district": "Tapay", "addr:full": "Calle Principal S/n", "addr:province": "Caylloma", "addr:subdistrict": "Cos\u00f1irhua", "amenity": "school", "ele": "2662", "fixme": "Ubicar el POI en el lugar que corresponde", "isced:level": "1", "name": "Instituci\u00f3n Educativa No. 40394", "note": "Med_gps (local)", "ref": "0312744", "source": "minedu.gob.pe"}}, {"type": "node", "id": 5574512773, "lat": -15.6205, "lon": -71.9828, "tags": {"addr:district": "Cabanaconde", "addr:full": "Calle Simon Bolivar S/n", "addr:province": "Caylloma", "addr:subdistrict": "Cabanaconde", "amenity": "kindergarten", "ele": "3296", "fixme": "Ubicar el POI en el lugar que corresponde", "isced:level": "0", "name": "Instituci\u00f3n educativa inicial Cabanaconde", "note": "Med_gps (local)", "ref": "0477703", "source": "minedu.gob.pe"}}, {"type": "node", "id": 5574515428, "lat": -15.6203, "lon": -71.9806, "tags": {"addr:district": "Cabanaconde", "addr:full": "Calle Presbitero Salas S/n", "addr:province": "Caylloma", "addr:subdistrict": "Cabanaconde", "amenity": "school", "ele": "3296", "fixme": "Ubicar el POI en el lugar que corresponde", "isced:level": "1", "name": "Instituci\u00f3n Educativa 40600 Clotilde Francisca Odicio Zu\u00f1iga", "note": "Med_gps (local)", "ref": "0678920", "source": "minedu.gob.pe"}}, {"type": "node", "id": 5574515429, "lat": -15.6203, "lon": -71.9759, "tags": {"addr:district": "Cabanaconde", "addr:full": "Avenida Arequipa S/n", "addr:province": "Caylloma", "addr:subdistrict": "Cabanaconde", "amenity": "school", "ele": "3296", "fixme": "Ubicar el POI en el lugar que corresponde", "isced:level": "1", "name": "Instituci\u00f3n Educativa 40377 Jorge Aurelio Abril Flores", "note": "Med_gps (local)", "ref": "0312587", "source": "minedu.gob.pe"}}, {"type": "node", "id": 5574515430, "lat": -15.6224, "lon": -71.9797, "tags": {"addr:district": "Cabanaconde", "addr:full": "Calle Sanchez Cerro S/n", "addr:province": "Caylloma", "addr:subdistrict": "Cabanaconde", "amenity": "school", "ele": "3296", "fixme": "Ubicar el POI en el lugar que corresponde", "isced:level": "2", "name": "Instituci\u00f3n Educativa Hipolito Sanchez Trujillo", "note": "Med_gps (local)", "ref": "0309559", "source": "minedu.gob.pe"}}, {"type": "node", "id": 5574515431, "lat": -15.6203471, "lon": -71.9759013, "tags": {"addr:district": "Cabanaconde", "addr:full": "Avenida Arequipa S/n", "addr:province": "Caylloma", "addr:subdistrict": "Cabanaconde", "amenity": "kindergarten", "ele": "3296", "fixme": "Ubicar el POI en el lugar que corresponde", "isced:level": "0", "name": "Instituci\u00f3n educativa inicial 40377 Jorge Aurelio Abril Flores", "note": "Med_gps (local)", "ref": "1655091", "source": "minedu.gob.pe"}}, {"type": "node", "id": 5574515432, "lat": -15.6203239, "lon": -71.975898, "tags": {"addr:district": "Cabanaconde", "addr:full": "Avenida Arequipa S/n", "addr:province": "Caylloma", "addr:subdistrict": "Cabanaconde", "amenity": "school", "ele": "3296", "fixme": "Ubicar el POI en el lugar que corresponde", "isced:level": "1", "name": "Instituci\u00f3n Educativa Cabanaconde", "note": "Med_gps (local)", "ref": "0797092", "source": "minedu.gob.pe"}}, {"type": "node", "id": 6058658980, "lat": -15.7301381, "lon": -72.1081429}, {"type": "node", "id": 6058658981, "lat": -15.7294525, "lon": -72.1082674}, {"type": "node", "id": 6058658983, "lat": -15.7297777, "lon": -72.1078671}, {"type": "node", "id": 6058658984, "lat": -15.7301247, "lon": -72.1078209}, {"type": "node", "id": 6058661485, "lat": -15.7318309, "lon": -72.1068918}, {"type": "node", "id": 6058661486, "lat": -15.7330361, "lon": -72.1061173}, {"type": "node", "id": 6058661487, "lat": -15.7330342, "lon": -72.1060177}, {"type": "node", "id": 6058661488, "lat": -15.7325411, "lon": -72.1057636}, {"type": "node", "id": 6058661489, "lat": -15.7323298, "lon": -72.1056417}, {"type": "node", "id": 6058661490, "lat": -15.7321889, "lon": -72.1056051}, {"type": "node", "id": 6058661491, "lat": -15.7321361, "lon": -72.1056234}, {"type": "node", "id": 6058661492, "lat": -15.7321243, "lon": -72.1058002}, {"type": "node", "id": 6058661493, "lat": -15.7320989, "lon": -72.1060381}, {"type": "node", "id": 6058661494, "lat": -15.7320715, "lon": -72.1062921}, {"type": "node", "id": 6058661495, "lat": -15.732048, "lon": -72.1063938}, {"type": "node", "id": 6058661496, "lat": -15.7319287, "lon": -72.1066214}, {"type": "node", "id": 6058661497, "lat": -15.731777, "lon": -72.1068059}, {"type": "node", "id": 6087603193, "lat": -15.7297357, "lon": -72.1076472}, {"type": "node", "id": 6087603194, "lat": -15.7295531, "lon": -72.1077038}, {"type": "node", "id": 6087603195, "lat": -15.7294162, "lon": -72.1077726}, {"type": "node", "id": 6087603196, "lat": -15.7294518, "lon": -72.1081573}, {"type": "way", "id": 643945540, "nodes": [6058658980, 6058658981, 6087603196, 6087603195, 6087603194, 6087603193, 6058658983, 6058658984, 6058658980], "tags": {"amenity": "school", "name": "I.E. JUAN PABLO II 40383"}}, {"type": "way", "id": 643945541, "nodes": [6058661485, 6058661486, 6058661487, 6058661488, 6058661489, 6058661490, 6058661491, 6058661492, 6058661493, 6058661494, 6058661495, 6058661496, 6058661497, 6058661485], "tags": {"amenity": "school", "name": "I.E. ANDRES AVELINO CACERES"}}]}