{"version": 0.6, "generator": "Overpass API 0.7.62.8 e802775f", "osm3s": {"timestamp_osm_base": "2025-10-16T10:12:27Z", "copyright": "The data included in this document is from www.openstreetmap.org. The data is made available under ODbL."}, "elements": [{"type": "node", "id": 5002605150, "lat": 2.9378845, "lon": 98.5315222}, {"type": "node", "id": 5002605151, "lat": 2.9371692, "lon": 98.5307416}, {"type": "node", "id": 5002605152, "lat": 2.9366389, "lon": 98.5300577}, {"type": "node", "id": 5002605153, "lat": 2.9372309, "lon": 98.5297143}, {"type": "node", "id": 5002605154, "lat": 2.9374853, "lon": 98.5304171}, {"type": "node", "id": 5002605155, "lat": 2.9381925, "lon": 98.5311198}, {"type": "node", "id": 5103566753, "lat": 3.0554871, "lon": 98.5167982, "tags": {"amenity": "school", "name": "SD Negeri 040542 Suka"}}, {"type": "node", "id": 5103566757, "lat": 3.056134, "lon": 98.519813}, {"type": "node", "id": 5103566758, "lat": 3.0555193, "lon": 98.5199632}, {"type": "node", "id": 5103566759, "lat": 3.0549448, "lon": 98.5200477}, {"type": "node", "id": 5103566760, "lat": 3.0548832, "lon": 98.519302}, {"type": "node", "id": 5103566761, "lat": 3.0551363, "lon": 98.5192028}, {"type": "node", "id": 5103566762, "lat": 3.0551483, "lon": 98.5191451}, {"type": "node", "id": 5103566763, "lat": 3.0559277, "lon": 98.5189185}, {"type": "node", "id": 5117235971, "lat": 3.0838148, "lon": 98.5151767, "tags": {"addr:city": "karo", "addr:postcode": "22171", "addr:street": "Jalan Ke Pematang Siantar", "amenity": "school", "name": "SDN 044853 sp.Mulawari"}}, {"type": "node", "id": 5117238994, "lat": 3.0832898, "lon": 98.514769, "tags": {"addr:city": "karo", "addr:postcode": "22171", "addr:street": "Jalan Ke Pematang Siantar", "amenity": "school", "name": "SMAN 1 TIGAPANAH"}}, {"type": "node", "id": 9669802111, "lat": 2.9436471, "lon": 98.6133932}, {"type": "node", "id": 9669802112, "lat": 2.9427677, "lon": 98.6133932}, {"type": "node", "id": 9669802113, "lat": 2.9427965, "lon": 98.6146491}, {"type": "node", "id": 9669802114, "lat": 2.9436507, "lon": 98.614613}, {"type": "node", "id": 12390067700, "lat": 3.121917, "lon": 98.50772, "tags": {"addr:district": "Karo", "addr:province": "Sumatera Utara", "addr:street": "Jl. Jamin ginting sumber mufakat kabanjahe", "addr:subdistrict": "Kabanjahe", "addr:village": "Sumber mufakat", "amenity": "social_facility", "email": "pmikabupatenkaro@gmail.com", "name": "PMI Kabupaten Karo", "operator": "Palang Merah Indonesia", "operator:short": "PMI", "phone": "085183047675", "social_facility": "office"}}, {"type": "way", "id": 511416020, "nodes": [5002605155, 5002605154, 5002605153, 5002605152, 5002605151, 5002605150, 5002605155], "tags": {"amenity": "school", "name": "YAPIM Merek"}}, {"type": "way", "id": 524436269, "nodes": [5103566763, 5103566762, 5103566761, 5103566760, 5103566759, 5103566758, 5103566757, 5103566763], "tags": {"amenity": "school", "name": "SMP Negeri 2 Tigapanah"}}, {"type": "way", "id": 1052209716, "nodes": [9669802111, 9669802112, 9669802113, 9669802114, 9669802111], "tags": {"amenity": "school", "name": "SMA Negeri 1 Silimakuta"}}]}