{"version": 0.6, "generator": "Overpass API 0.7.62.8 e802775f", "osm3s": {"timestamp_osm_base": "2025-09-30T11:04:21Z", "copyright": "The data included in this document is from www.openstreetmap.org. The data is made available under ODbL."}, "elements": [{"type": "node", "id": 2153956382, "lat": -8.1253861, "lon": 113.8139391, "tags": {"amenity": "school", "name": "SMA 10 Nopember"}}, {"type": "node", "id": 2153956386, "lat": -8.1293584, "lon": 113.8093418, "tags": {"amenity": "bank", "atm": "yes", "brand": "Bank Central Asia", "brand:wikidata": "Q806626", "name": "Bank Central Asia"}}, {"type": "node", "id": 2153956393, "lat": -8.1257313, "lon": 113.8082314, "tags": {"amenity": "school", "name": "SDN Kalisat 1"}}, {"type": "node", "id": 2153956398, "lat": -8.1252188, "lon": 113.8147169, "tags": {"amenity": "school", "name": "SMAN Kalisat"}}, {"type": "node", "id": 2153956399, "lat": -8.1300859, "lon": 113.8084862, "tags": {"amenity": "school", "name": "SMPN 1 Kalisat"}}, {"type": "node", "id": 2153956403, "lat": -8.1257924, "lon": 113.8142315, "tags": {"amenity": "school", "name": "SMPN 1 Kalisat"}}, {"type": "node", "id": 2153962245, "lat": -8.1318782, "lon": 113.8155377, "tags": {"amenity": "townhall", "name": "Gedung Kartini"}}, {"type": "node", "id": 2153962246, "lat": -8.132011, "lon": 113.815468, "tags": {"amenity": "school", "name": "SDN Ajung 1"}}, {"type": "node", "id": 2153970428, "lat": -8.1283149, "lon": 113.8115144, "tags": {"amenity": "kindergarten", "name": "TK Bhayangkari"}}, {"type": "node", "id": 2153970430, "lat": -8.1278369, "lon": 113.8088644, "tags": {"amenity": "school", "name": "SMP Muhammadiyah 2"}}, {"type": "node", "id": 2153970431, "lat": -8.1281396, "lon": 113.8087517, "tags": {"amenity": "kindergarten", "name": "TK ABA"}}, {"type": "node", "id": 2153970433, "lat": -8.1331262, "lon": 113.8216317, "tags": {"amenity": "school", "name": "SDN Ajung 2"}}, {"type": "node", "id": 2153970434, "lat": -8.1285884, "lon": 113.8107821, "tags": {"amenity": "kindergarten", "name": "TK Pertiwi"}}, {"type": "node", "id": 6399847083, "lat": -8.2945578, "lon": 113.9885341}, {"type": "node", "id": 7550503961, "lat": -8.2959579, "lon": 113.9891348}, {"type": "node", "id": 9832056949, "lat": -8.2950575, "lon": 114.0309467, "tags": {"amenity": "school", "name": "SMA Negeri 1 Glenmore"}}, {"type": "node", "id": 9852915541, "lat": -8.1993113, "lon": 113.789238, "tags": {"addr:city": "Jember", "addr:housenumber": "1", "addr:postcode": "68182", "addr:street": "Jl. Mumbulsari", "amenity": "school", "grades": "7-9", "name": "SMPN 1 Mayang"}}, {"type": "node", "id": 9852930772, "lat": -8.1537161, "lon": 113.7962799, "tags": {"amenity": "school", "name": "SDN Jatian 01"}}, {"type": "node", "id": 10279238036, "lat": -8.2945161, "lon": 113.9884717}, {"type": "node", "id": 10279238037, "lat": -8.2946541, "lon": 113.9875114}, {"type": "node", "id": 10279238038, "lat": -8.2959493, "lon": 113.9875973}, {"type": "node", "id": 10279238039, "lat": -8.2959652, "lon": 113.9873183}, {"type": "node", "id": 10279238040, "lat": -8.2964695, "lon": 113.9873773}, {"type": "node", "id": 10279238041, "lat": -8.2962997, "lon": 113.9891583}, {"type": "node", "id": 10284614397, "lat": -8.3000026, "lon": 114.0270093, "tags": {"amenity": "social_facility", "name": "Panti Jompo Tresna Werdha", "social_facility": "group_home", "social_facility:for": "senior"}}, {"type": "node", "id": 10284626311, "lat": -8.2985312, "lon": 113.9905252, "tags": {"amenity": "townhall", "name": "Kantor Camat Kalibaru", "townhall:type": "city"}}, {"type": "node", "id": 10302555914, "lat": -8.3593027, "lon": 114.0347643}, {"type": "node", "id": 10302555915, "lat": -8.3593148, "lon": 114.035305}, {"type": "node", "id": 10302555916, "lat": -8.3595964, "lon": 114.0353172}, {"type": "node", "id": 10302555917, "lat": -8.359709, "lon": 114.0347643}, {"type": "node", "id": 12389950054, "lat": -8.3313735, "lon": 114.0511337}, {"type": "node", "id": 12389950055, "lat": -8.3313377, "lon": 114.0511351}, {"type": "node", "id": 12389950056, "lat": -8.3313389, "lon": 114.0511684}, {"type": "node", "id": 12389950057, "lat": -8.3313748, "lon": 114.0511671}, {"type": "node", "id": 12389950058, "lat": -8.3312951, "lon": 114.051389}, {"type": "node", "id": 12389950059, "lat": -8.3312951, "lon": 114.0515137}, {"type": "node", "id": 12389950060, "lat": -8.3313369, "lon": 114.0515137}, {"type": "node", "id": 12389950061, "lat": -8.3313369, "lon": 114.051389}, {"type": "way", "id": 1124039131, "nodes": [10279238036, 10279238037, 10279238038, 10279238039, 10279238040, 10279238041, 7550503961, 6399847083, 10279238036], "tags": {"addr:city": "Kalibaru Kulon", "addr:housenumber": "122", "addr:postcode": "68467", "addr:street": "Jember", "amenity": "school", "building": "yes", "grades": "7-12", "layer": "1", "name": "SMK Negeri Kalibaru", "operator": "Dinas Pendidikan Kabupaten Banyuwangi", "operator:type": "government", "website": "https://smknkalibaru.sch.id/"}}, {"type": "way", "id": 1126702292, "nodes": [10302555914, 10302555915, 10302555916, 10302555917, 10302555914], "tags": {"amenity": "school"}}, {"type": "way", "id": 1339440063, "nodes": [12389950057, 12389950054, 12389950055, 12389950056, 12389950057], "tags": {"amenity": "shelter", "shelter_type": "basic_hut"}}, {"type": "way", "id": 1339440064, "nodes": [12389950061, 12389950058, 12389950059, 12389950060, 12389950061], "tags": {"amenity": "shelter", "building": "roof", "shelter_type": "picnic_shelter"}}]}