{"version": 0.6, "generator": "Overpass API 0.7.62.8 e802775f", "osm3s": {"timestamp_osm_base": "2025-10-14T08:46:59Z", "copyright": "The data included in this document is from www.openstreetmap.org. The data is made available under ODbL."}, "elements": [{"type": "node", "id": 2145147111, "lat": 1.7508606, "lon": 127.9910192, "tags": {"amenity": "university"}}, {"type": "node", "id": 2149434163, "lat": 1.7226099, "lon": 128.0091957, "tags": {"amenity": "school"}}, {"type": "node", "id": 2149434173, "lat": 1.7250593, "lon": 128.0098424, "tags": {"amenity": "school"}}, {"type": "node", "id": 2149434180, "lat": 1.7300868, "lon": 128.0085277, "tags": {"amenity": "school"}}, {"type": "node", "id": 2149434188, "lat": 1.7320255, "lon": 128.005889, "tags": {"amenity": "school"}}, {"type": "node", "id": 2149434192, "lat": 1.7381486, "lon": 128.0058881, "tags": {"amenity": "school"}}, {"type": "node", "id": 3926231861, "lat": 1.7258287, "lon": 128.0045572, "tags": {"amenity": "school"}}, {"type": "node", "id": 7437820554, "lat": 1.734636, "lon": 127.9922488, "tags": {"amenity": "school", "name": "SMA Negeri 6 Halmahera Utara", "school:type_idn": "sma", "short_name": "SMAN 6 Halmahera Utara"}}, {"type": "node", "id": 7437862989, "lat": 1.7251802, "lon": 128.0071807, "tags": {"amenity": "school", "name": "SMA Negeri 1 Halmahera Utara", "school:type_idn": "sma", "short_name": "SMAN 1 Halmahera Utara"}}, {"type": "node", "id": 7437873561, "lat": 1.7630649, "lon": 127.9807475, "tags": {"amenity": "school", "name": "SMA Negeri 9 Halmahera Utara", "school:type_idn": "sma", "short_name": "SMAN 9 Halmahera Utara"}}, {"type": "node", "id": 12390350356, "lat": 1.72246, "lon": 128.006415, "tags": {"addr:district": "Halmahera Utara", "addr:province": "Maluku Utara", "addr:street": "Jl. PDAM Tobelo 006/004 Desa Gosoma", "addr:subdistrict": "Tobelo", "addr:village": "Gosoma", "amenity": "social_facility", "email": "pmihalut@gmail.com", "name": "PMI Kabupaten Halmahera Utara", "operator": "Palang Merah Indonesia", "operator:short": "PMI", "phone": "82267541481", "social_facility": "office"}}]}