{"version": 0.6, "generator": "Overpass API 0.7.62.8 e802775f", "osm3s": {"timestamp_osm_base": "2025-09-22T13:21:00Z", "copyright": "The data included in this document is from www.openstreetmap.org. The data is made available under ODbL."}, "elements": [{"type": "node", "id": 3674544972, "lat": 10.3862271, "lon": 123.2164595}, {"type": "node", "id": 3674544973, "lat": 10.3860048, "lon": 123.2165132}, {"type": "node", "id": 3674544974, "lat": 10.3859262, "lon": 123.216671}, {"type": "node", "id": 3915057348, "lat": 10.385499, "lon": 123.2196778}, {"type": "node", "id": 3915563001, "lat": 10.3670995, "lon": 123.1813004}, {"type": "node", "id": 3915563005, "lat": 10.3671886, "lon": 123.1813494}, {"type": "node", "id": 3915563015, "lat": 10.3672416, "lon": 123.1812497}, {"type": "node", "id": 3928693519, "lat": 10.3857287, "lon": 123.219273}, {"type": "node", "id": 3928693520, "lat": 10.3857812, "lon": 123.2196224}, {"type": "node", "id": 3928693521, "lat": 10.3854685, "lon": 123.2193143}, {"type": "node", "id": 3928717104, "lat": 10.3801419, "lon": 123.212101}, {"type": "node", "id": 3928717105, "lat": 10.3800864, "lon": 123.2122103}, {"type": "node", "id": 3928717106, "lat": 10.3800085, "lon": 123.2121694}, {"type": "node", "id": 3928717107, "lat": 10.380064, "lon": 123.2120601}, {"type": "node", "id": 3928735510, "lat": 10.3853686, "lon": 123.2177855, "tags": {"amenity": "fuel"}}, {"type": "node", "id": 3929805678, "lat": 10.4309803, "lon": 123.2101855}, {"type": "node", "id": 3929805679, "lat": 10.4309475, "lon": 123.210261}, {"type": "node", "id": 3929805681, "lat": 10.4308904, "lon": 123.2101452}, {"type": "node", "id": 3929823898, "lat": 10.3313958, "lon": 123.2111362}, {"type": "node", "id": 3929823899, "lat": 10.3313784, "lon": 123.2111955}, {"type": "node", "id": 3929823900, "lat": 10.3313154, "lon": 123.2111764}, {"type": "node", "id": 3929823901, "lat": 10.3313328, "lon": 123.2111171}, {"type": "node", "id": 7965430771, "lat": 10.4308576, "lon": 123.2102207}, {"type": "node", "id": 9786489903, "lat": 10.378111, "lon": 123.1999886}, {"type": "node", "id": 9786489904, "lat": 10.3780736, "lon": 123.2000222}, {"type": "node", "id": 9786489905, "lat": 10.3779966, "lon": 123.1999334}, {"type": "node", "id": 9786489906, "lat": 10.378034, "lon": 123.1998999}, {"type": "node", "id": 9786489907, "lat": 10.3671526, "lon": 123.1812007}, {"type": "node", "id": 11030309715, "lat": 10.3865026, "lon": 123.2163208}, {"type": "node", "id": 11030309716, "lat": 10.3862112, "lon": 123.2163911}, {"type": "node", "id": 11030309717, "lat": 10.3858896, "lon": 123.216514}, {"type": "node", "id": 11030309718, "lat": 10.3859988, "lon": 123.2164877}, {"type": "node", "id": 11030309719, "lat": 10.3865493, "lon": 123.2165209}, {"type": "node", "id": 11062728886, "lat": 10.4230147, "lon": 123.2059516}, {"type": "node", "id": 11062728887, "lat": 10.4229146, "lon": 123.2059519}, {"type": "node", "id": 11062728888, "lat": 10.4229148, "lon": 123.2060449}, {"type": "node", "id": 11062728889, "lat": 10.423015, "lon": 123.2060446}, {"type": "node", "id": 11976739136, "lat": 10.3606152, "lon": 123.1707147}, {"type": "node", "id": 11976739137, "lat": 10.3606057, "lon": 123.1707529}, {"type": "node", "id": 11976739138, "lat": 10.360576, "lon": 123.1707452}, {"type": "node", "id": 11976739139, "lat": 10.3605855, "lon": 123.170707}, {"type": "node", "id": 11977995848, "lat": 10.3791054, "lon": 123.2051177}, {"type": "node", "id": 11977995849, "lat": 10.3790335, "lon": 123.2052833}, {"type": "node", "id": 11977995850, "lat": 10.3791327, "lon": 123.2053278}, {"type": "node", "id": 11977995851, "lat": 10.3792046, "lon": 123.2051622}, {"type": "node", "id": 12086349281, "lat": 10.3700903, "lon": 123.0824047}, {"type": "node", "id": 12086349282, "lat": 10.3700581, "lon": 123.0824092}, {"type": "node", "id": 12086349283, "lat": 10.370003, "lon": 123.0823766}, {"type": "node", "id": 12086349284, "lat": 10.3700152, "lon": 123.0824671}, {"type": "node", "id": 12086349285, "lat": 10.3700971, "lon": 123.0824557}, {"type": "node", "id": 12086349286, "lat": 10.3700528, "lon": 123.0823697}, {"type": "node", "id": 12132493849, "lat": 10.461641, "lon": 123.0493059}, {"type": "node", "id": 12132493850, "lat": 10.4615101, "lon": 123.0492948}, {"type": "node", "id": 12132493851, "lat": 10.4615049, "lon": 123.0493575}, {"type": "node", "id": 12132493852, "lat": 10.4616358, "lon": 123.0493686}, {"type": "node", "id": 12134223673, "lat": 10.324173, "lon": 123.133173}, {"type": "node", "id": 12134223674, "lat": 10.3241747, "lon": 123.133202}, {"type": "node", "id": 12134223675, "lat": 10.3241404, "lon": 123.1332041}, {"type": "node", "id": 12134223676, "lat": 10.3241455, "lon": 123.1332917}, {"type": "node", "id": 12134223677, "lat": 10.324173, "lon": 123.1332901}, {"type": "node", "id": 12134223678, "lat": 10.3241756, "lon": 123.1333351}, {"type": "node", "id": 12134223679, "lat": 10.3242602, "lon": 123.13333}, {"type": "node", "id": 12134223680, "lat": 10.3242508, "lon": 123.1331684}, {"type": "node", "id": 12143426950, "lat": 10.3592928, "lon": 123.1698993}, {"type": "node", "id": 12143426951, "lat": 10.3592591, "lon": 123.1699543}, {"type": "node", "id": 12143426952, "lat": 10.3593513, "lon": 123.1700125}, {"type": "node", "id": 12143426953, "lat": 10.3593849, "lon": 123.1699575}, {"type": "node", "id": 12154002276, "lat": 10.3564819, "lon": 123.1512228}, {"type": "node", "id": 12154002277, "lat": 10.3563903, "lon": 123.1512099}, {"type": "node", "id": 12154002278, "lat": 10.3563804, "lon": 123.1512818}, {"type": "node", "id": 12154002279, "lat": 10.356472, "lon": 123.1512949}, {"type": "node", "id": 12155990682, "lat": 10.3629035, "lon": 123.1190773}, {"type": "node", "id": 12155990683, "lat": 10.3629854, "lon": 123.1190591}, {"type": "node", "id": 12155990684, "lat": 10.3630044, "lon": 123.1191473}, {"type": "node", "id": 12155990685, "lat": 10.3629225, "lon": 123.1191655}, {"type": "node", "id": 12370418678, "lat": 10.4199745, "lon": 123.0423512}, {"type": "node", "id": 12370418679, "lat": 10.4199086, "lon": 123.0423469}, {"type": "node", "id": 12370418680, "lat": 10.419903, "lon": 123.0424344}, {"type": "node", "id": 12370418681, "lat": 10.419969, "lon": 123.0424388}, {"type": "node", "id": 12466618901, "lat": 10.3564174, "lon": 123.1512138}, {"type": "node", "id": 12466618902, "lat": 10.356424, "lon": 123.1511661}, {"type": "node", "id": 12466618903, "lat": 10.3564567, "lon": 123.1511707}, {"type": "node", "id": 12466618904, "lat": 10.3564511, "lon": 123.1512183}, {"type": "way", "id": 363273081, "nodes": [3674544972, 3674544973, 11030309718, 11030309717, 3674544974, 11030309719, 11030309715, 11030309716, 3674544972], "tags": {"addr:city": "Canlaon City", "addr:postcode": "6223", "addr:street": "Lopez-Jaena Street", "amenity": "townhall", "building": "yes", "name": "Canlaon City Hall", "townhall:type": "city"}}, {"type": "way", "id": 388346700, "nodes": [3915563015, 3915563005, 3915563001, 9786489907, 3915563015], "tags": {"addr:city": "Canlaon", "addr:postcode": "6223", "addr:street": "Vallehermoso - Canlaon City - La Castellana Road", "addr:village": "Masulog", "admin_level": "10", "amenity": "townhall", "building": "civic", "building:levels": "2", "government": "administrative", "name": "Bahay Pamahalaan ng Barangay Masulog", "name:en": "Masulog Barangay Hall", "name:tl": "Bahay Pamahalaan ng Barangay Masulog", "operator": "Masulog Barangay Government", "townhall:type": "barangay"}}, {"type": "way", "id": 389699297, "nodes": [3928693519, 3928693520, 3915057348, 3928693521, 3928693519], "tags": {"amenity": "fuel", "brand": "Caltex", "brand:wikidata": "Q277470", "name": "Caltex"}}, {"type": "way", "id": 389701609, "nodes": [3928717104, 3928717105, 3928717106, 3928717107, 3928717104], "tags": {"addr:city": "Canlaon", "addr:postcode": "6223", "admin_level": "10", "amenity": "townhall", "building": "public", "government": "administrative", "name": "Mabigo Barangay Hall", "office": "government", "operator": "Mabigo Barangay Government", "townhall:type": "barangay"}}, {"type": "way", "id": 389823138, "nodes": [3929805678, 3929805679, 7965430771, 3929805681, 3929805678], "tags": {"addr:city": "Canlaon", "addr:postcode": "6223", "admin_level": "10", "amenity": "townhall", "building": "public", "government": "administrative", "name": "Lumapao Barangay Hall", "office": "government", "operator": "Lumapao Barangay Government", "townhall:type": "barangay"}}, {"type": "way", "id": 389824082, "nodes": [3929823898, 3929823899, 3929823900, 3929823901, 3929823898], "tags": {"addr:city": "Canlaon", "addr:place": "Budlasan", "addr:postcode": "6223", "admin_level": "10", "amenity": "townhall", "building": "public", "government": "administrative", "name": "Budlasan Barangay Hall", "office": "government", "operator": "Budlasan Barangay Government", "townhall:type": "barangay"}}, {"type": "way", "id": 1065672383, "nodes": [9786489903, 9786489904, 9786489905, 9786489906, 9786489903], "tags": {"addr:city": "Canlaon", "addr:postcode": "6223", "addr:street": "Vallehermoso - Canlaon City - La Castellana Road", "admin_level": "10", "amenity": "townhall", "building": "public", "building:levels": "2", "government": "administrative", "name": "Linothangan Barangay Hall", "office": "government", "operator": "Linothangan Barangay Government", "townhall:type": "barangay"}}, {"type": "way", "id": 1191533664, "nodes": [11062728886, 11062728887, 11062728888, 11062728889, 11062728886], "tags": {"addr:city": "Canlaon", "addr:district": "Malaiba", "addr:postcode": "6223", "addr:province": "Negros Oriental", "admin_level": "10", "amenity": "townhall", "building": "public", "building:levels": "1", "name": "Malaiba Barangay Hall", "operator": "Malaiba Barangay Government", "townhall:type": "barangay"}}, {"type": "way", "id": 1291929284, "nodes": [11976739139, 11976739136, 11976739137, 11976739138, 11976739139], "tags": {"amenity": "shelter", "shelter_type": "public_transport"}}, {"type": "way", "id": 1292051873, "nodes": [11977995851, 11977995850, 11977995849, 11977995848, 11977995851], "tags": {"addr:street": "Vallehermoso - Canlaon City - La Castellana Road", "amenity": "fuel", "fixme": "name", "note": "looks like a small service station from imagery, typical in rural areas"}}, {"type": "way", "id": 1304940283, "nodes": [12086349286, 12086349282, 12086349281, 12086349285, 12086349284, 12086349283, 12086349286], "tags": {"addr:city": "La Castellana", "addr:district": "Sag-ang", "addr:postcode": "6131", "addr:province": "Negros Occidental", "admin_level": "10", "amenity": "townhall", "building": "public", "name": "Sag-ang Barangay Hall", "operator": "Sag-ang BLGU", "townhall:type": "barangay"}}, {"type": "way", "id": 1310656599, "nodes": [12132493849, 12132493850, 12132493851, 12132493852, 12132493849], "tags": {"addr:city": "Bago", "addr:district": "Mailum", "addr:postcode": "6101", "addr:province": "Negros Occidental", "admin_level": "10", "amenity": "townhall", "building": "public", "building:levels": "2", "name": "Mailum Barangay Hall", "operator": "Mailum BLGU", "townhall:type": "barangay"}}, {"type": "way", "id": 1310887548, "nodes": [12134223673, 12134223674, 12134223675, 12134223676, 12134223677, 12134223678, 12134223679, 12134223680, 12134223673], "tags": {"addr:municipality": "La Castellana", "addr:place": "Cabacungan", "addr:postcode": "6131", "addr:province": "Negros Occidental", "admin_level": "10", "amenity": "townhall", "building": "civic", "building:levels": "1", "name": "Cabacungan Barangay Hall", "operator": "Cabacungan BLGU", "townhall:type": "barangay"}}, {"type": "way", "id": 1311920617, "nodes": [12143426953, 12143426952, 12143426951, 12143426950, 12143426953], "tags": {"addr:city": "La Castellana", "addr:district": "Masulog", "addr:postcode": "6131", "addr:province": "Negros Occidental", "addr:street": "Vallehermoso - Canlaon City - La Castellana Road", "admin_level": "10", "amenity": "townhall", "building": "public", "building:levels": "2", "name": "Masulog Barangay Hall", "operator": "Masulog BLGU", "townhall:type": "barangay"}}, {"type": "way", "id": 1313065236, "nodes": [12154002276, 12466618904, 12466618903, 12466618902, 12466618901, 12154002277, 12154002278, 12154002279, 12154002276], "tags": {"addr:city": "La Castellana", "addr:district": "Biaknabato", "addr:postcode": "6131", "addr:province": "Negros Occidental", "admin_level": "10", "amenity": "townhall", "building": "public", "building:levels": "1", "name": "Biaknabato Barangay Hall", "operator": "Biaknabato BLGU", "townhall:type": "barangay"}}, {"type": "way", "id": 1313304886, "nodes": [12155990682, 12155990683, 12155990684, 12155990685, 12155990682], "tags": {"addr:city": "La Castellana", "addr:district": "Cabagna-an", "addr:postcode": "6131", "addr:province": "Negros Occidental", "admin_level": "10", "amenity": "townhall", "building": "public", "name": "Cabagna-an Barangay Hall", "operator": "Cabagna-an BLGU", "townhall:type": "barangay"}}, {"type": "way", "id": 1337431219, "nodes": [12370418678, 12370418679, 12370418680, 12370418681, 12370418678], "tags": {"addr:city": "Sta. Catalina", "addr:district": "Ara-al", "addr:postcode": "6130", "addr:province": "Negros Occidental", "admin_level": "10", "amenity": "townhall", "building": "public", "name": "Ara-al Barangay Hall", "operator": "Ara-al BLGU", "townhall:type": "barangay"}}]}