{"version": 0.6, "generator": "Overpass API 0.7.62.8 e802775f", "osm3s": {"timestamp_osm_base": "2025-09-30T11:17:42Z", "copyright": "The data included in this document is from www.openstreetmap.org. The data is made available under ODbL."}, "elements": [{"type": "node", "id": 2407440039, "lat": -15.5924989, "lon": -71.9480082}, {"type": "node", "id": 2407440045, "lat": -15.5925312, "lon": -71.9480017}, {"type": "node", "id": 2432974875, "lat": -15.5931022, "lon": -71.9905147, "tags": {"amenity": "shelter", "name": "Mirador Apacheta", "tourism": "viewpoint"}}, {"type": "node", "id": 4425395516, "lat": -15.6097507, "lon": -71.9635463}, {"type": "node", "id": 4758469431, "lat": -15.592559, "lon": -71.9480041}, {"type": "node", "id": 4758469432, "lat": -15.5925952, "lon": -71.9479946}, {"type": "node", "id": 4758469433, "lat": -15.5925798, "lon": -71.9479315}, {"type": "node", "id": 4758469434, "lat": -15.5925437, "lon": -71.947941}, {"type": "node", "id": 4758469439, "lat": -15.5926113, "lon": -71.9480728, "tags": {"amenity": "kindergarten", "isced:level": "0"}}, {"type": "node", "id": 4758469440, "lat": -15.592663, "lon": -71.9480567, "tags": {"amenity": "school"}}, {"type": "node", "id": 4758469493, "lat": -15.5925072, "lon": -71.9480527}, {"type": "node", "id": 4758469494, "lat": -15.5925394, "lon": -71.9480462}, {"type": "node", "id": 5574509183, "lat": -15.5611, "lon": -72.0472, "tags": {"addr:district": "Choco", "addr:full": "Plaza Principal", "addr:province": "Castilla", "addr:subdistrict": "Llanca", "amenity": "kindergarten", "ele": "3216", "fixme": "Ubicar el POI en el lugar que corresponde", "isced:level": "0", "name": "Instituci\u00f3n educativa inicial Llanca", "note": "Ubicacion_web (local)", "ref": "0723114", "source": "minedu.gob.pe"}}, {"type": "node", "id": 5574509184, "lat": -15.5621, "lon": -72.0471, "tags": {"addr:district": "Choco", "addr:full": "Plaza Principal", "addr:province": "Castilla", "addr:subdistrict": "Llanca", "amenity": "school", "ele": "3216", "fixme": "Ubicar el POI en el lugar que corresponde", "isced:level": "1", "name": "Instituci\u00f3n Educativa No. 40318", "note": "Gps_otras_fuentes (local)", "ref": "0311993", "source": "minedu.gob.pe"}}, {"type": "node", "id": 5574510711, "lat": -15.6979, "lon": -72.1003, "tags": {"addr:district": "Huambo", "addr:full": "Calle Majada S/n", "addr:province": "Caylloma", "addr:subdistrict": "Chinini", "amenity": "school", "ele": "3371", "fixme": "Ubicar el POI en el lugar que corresponde", "isced:level": "1", "name": "Instituci\u00f3n Educativa No. 40651", "note": "Med_gps (local)", "ref": "0844175", "source": "minedu.gob.pe"}}, {"type": "node", "id": 5574510737, "lat": -15.5517, "lon": -71.9872, "tags": {"addr:district": "Tapay", "addr:full": "Fure S/n", "addr:province": "Caylloma", "addr:subdistrict": "Fure", "amenity": "school", "ele": "2842", "fixme": "Ubicar el POI en el lugar que corresponde", "isced:level": "1", "name": "Instituci\u00f3n Educativa No. 40437", "note": "Med_gps (local)", "ref": "0313171", "source": "minedu.gob.pe"}}, {"type": "node", "id": 5574510975, "lat": -15.5772, "lon": -71.9399, "tags": {"addr:district": "Tapay", "addr:full": "Calle Garcilazo S/n", "addr:province": "Caylloma", "addr:subdistrict": "Tapay", "amenity": "kindergarten", "ele": "3001", "fixme": "Ubicar el POI en el lugar que corresponde", "isced:level": "0", "name": "Instituci\u00f3n educativa inicial Tapay", "note": "Ubicacion_web (local)", "ref": "1260181", "source": "minedu.gob.pe"}}, {"type": "node", "id": 5574510976, "lat": -15.5773934, "lon": -71.9393998, "tags": {"addr:district": "Tapay", "addr:full": "Calle Garcilazo S/n", "addr:province": "Caylloma", "addr:subdistrict": "Tapay", "amenity": "school", "ele": "3001", "isced:level": "1;2", "name": "Instituci\u00f3n Educativa No. 40418", "note": "Med_gps (local)", "ref": "0312983;1202605", "source": "minedu.gob.pe"}}, {"type": "node", "id": 5574511129, "lat": -15.7309, "lon": -72.1088, "tags": {"addr:district": "Huambo", "addr:full": "Calle Democracia S/n", "addr:province": "Caylloma", "addr:subdistrict": "Huambo", "amenity": "kindergarten", "ele": "3313", "fixme": "Ubicar el POI en el lugar que corresponde", "isced:level": "0", "name": "Instituci\u00f3n educativa inicial Huambo", "note": "Med_gps (local)", "ref": "0612531", "source": "minedu.gob.pe"}}, {"type": "node", "id": 5574511130, "lat": -15.7318, "lon": -72.1068, "tags": {"addr:district": "Huambo", "addr:full": "Calle Corbachov S/n", "addr:province": "Caylloma", "addr:subdistrict": "Huambo", "amenity": "school", "ele": "3313", "fixme": "Ubicar el POI en el lugar que corresponde", "isced:level": "2", "name": "Instituci\u00f3n Educativa Andres Avelino Caceres", "note": "Med_gps (local)", "ref": "0589838", "source": "minedu.gob.pe"}}, {"type": "node", "id": 5574511131, "lat": -15.7299, "lon": -72.108, "tags": {"addr:district": "Huambo", "addr:full": "Plaza De Armas", "addr:province": "Caylloma", "addr:subdistrict": "Huambo", "amenity": "school", "ele": "3313", "fixme": "Ubicar el POI en el lugar que corresponde", "isced:level": "1", "name": "Instituci\u00f3n Educativa 40383 Juan Pablo Ii", "note": "Med_gps (local)", "ref": "0312645", "source": "minedu.gob.pe"}}, {"type": "node", "id": 5574511236, "lat": -15.5403, "lon": -71.9723, "tags": {"addr:district": "Tapay", "addr:full": "Anexo Tocallo Mz B Lote 13", "addr:province": "Caylloma", "addr:subdistrict": "Tocallo", "amenity": "school", "ele": "3853", "fixme": "Ubicar el POI en el lugar que corresponde", "isced:level": "1", "name": "Instituci\u00f3n Educativa No. 40332", "note": "Gps_otras_fuentes (local)", "ref": "0518670", "source": "minedu.gob.pe"}}, {"type": "node", "id": 5574511628, "lat": -15.5926, "lon": -71.9481, "tags": {"addr:district": "Tapay", "addr:full": "San Juan De Chuccho", "addr:province": "Caylloma", "addr:subdistrict": "San Juan De Chuccho", "amenity": "school", "ele": "2442", "fixme": "Ubicar el POI en el lugar que corresponde", "isced:level": "1", "name": "Instituci\u00f3n Educativa No. 40419", "note": "Med_gps (local)", "ref": "0312991", "source": "minedu.gob.pe"}}, {"type": "node", "id": 5574511629, "lat": -15.5839, "lon": -71.9552, "tags": {"addr:district": "Tapay", "addr:full": "Calle Principal S/n", "addr:province": "Caylloma", "addr:subdistrict": "Cos\u00f1irhua", "amenity": "kindergarten", "ele": "2662", "fixme": "Ubicar el POI en el lugar que corresponde", "isced:level": "0", "name": "Instituci\u00f3n educativa inicial Cos\u00f1irhua", "note": "Med_gps (local)", "ref": "0796839", "source": "minedu.gob.pe"}}, {"type": "node", "id": 5574511630, "lat": -15.5839, "lon": -71.9555, "tags": {"addr:district": "Tapay", "addr:full": "Calle Principal S/n", "addr:province": "Caylloma", "addr:subdistrict": "Cos\u00f1irhua", "amenity": "school", "ele": "2662", "fixme": "Ubicar el POI en el lugar que corresponde", "isced:level": "1", "name": "Instituci\u00f3n Educativa No. 40394", "note": "Med_gps (local)", "ref": "0312744", "source": "minedu.gob.pe"}}, {"type": "node", "id": 5574512773, "lat": -15.6205, "lon": -71.9828, "tags": {"addr:district": "Cabanaconde", "addr:full": "Calle Simon Bolivar S/n", "addr:province": "Caylloma", "addr:subdistrict": "Cabanaconde", "amenity": "kindergarten", "ele": "3296", "fixme": "Ubicar el POI en el lugar que corresponde", "isced:level": "0", "name": "Instituci\u00f3n educativa inicial Cabanaconde", "note": "Med_gps (local)", "ref": "0477703", "source": "minedu.gob.pe"}}, {"type": "node", "id": 5574515428, "lat": -15.6203, "lon": -71.9806, "tags": {"addr:district": "Cabanaconde", "addr:full": "Calle Presbitero Salas S/n", "addr:province": "Caylloma", "addr:subdistrict": "Cabanaconde", "amenity": "school", "ele": "3296", "fixme": "Ubicar el POI en el lugar que corresponde", "isced:level": "1", "name": "Instituci\u00f3n Educativa 40600 Clotilde Francisca Odicio Zu\u00f1iga", "note": "Med_gps (local)", "ref": "0678920", "source": "minedu.gob.pe"}}, {"type": "node", "id": 5574515429, "lat": -15.6203, "lon": -71.9759, "tags": {"addr:district": "Cabanaconde", "addr:full": "Avenida Arequipa S/n", "addr:province": "Caylloma", "addr:subdistrict": "Cabanaconde", "amenity": "school", "ele": "3296", "fixme": "Ubicar el POI en el lugar que corresponde", "isced:level": "1", "name": "Instituci\u00f3n Educativa 40377 Jorge Aurelio Abril Flores", "note": "Med_gps (local)", "ref": "0312587", "source": "minedu.gob.pe"}}, {"type": "node", "id": 5574515430, "lat": -15.6224, "lon": -71.9797, "tags": {"addr:district": "Cabanaconde", "addr:full": "Calle Sanchez Cerro S/n", "addr:province": "Caylloma", "addr:subdistrict": "Cabanaconde", "amenity": "school", "ele": "3296", "fixme": "Ubicar el POI en el lugar que corresponde", "isced:level": "2", "name": "Instituci\u00f3n Educativa Hipolito Sanchez Trujillo", "note": "Med_gps (local)", "ref": "0309559", "source": "minedu.gob.pe"}}, {"type": "node", "id": 5574515431, "lat": -15.6203471, "lon": -71.9759013, "tags": {"addr:district": "Cabanaconde", "addr:full": "Avenida Arequipa S/n", "addr:province": "Caylloma", "addr:subdistrict": "Cabanaconde", "amenity": "kindergarten", "ele": "3296", "fixme": "Ubicar el POI en el lugar que corresponde", "isced:level": "0", "name": "Instituci\u00f3n educativa inicial 40377 Jorge Aurelio Abril Flores", "note": "Med_gps (local)", "ref": "1655091", "source": "minedu.gob.pe"}}, {"type": "node", "id": 5574515432, "lat": -15.6203239, "lon": -71.975898, "tags": {"addr:district": "Cabanaconde", "addr:full": "Avenida Arequipa S/n", "addr:province": "Caylloma", "addr:subdistrict": "Cabanaconde", "amenity": "school", "ele": "3296", "fixme": "Ubicar el POI en el lugar que corresponde", "isced:level": "1", "name": "Instituci\u00f3n Educativa Cabanaconde", "note": "Med_gps (local)", "ref": "0797092", "source": "minedu.gob.pe"}}, {"type": "node", "id": 6058658972, "lat": -15.7317952, "lon": -72.1077506}, {"type": "node", "id": 6058658973, "lat": -15.7317973, "lon": -72.1075446}, {"type": "node", "id": 6058658974, "lat": -15.7319368, "lon": -72.107536}, {"type": "node", "id": 6058658975, "lat": -15.7319294, "lon": -72.1077586}, {"type": "node", "id": 6058658976, "lat": -15.7303339, "lon": -72.1086048}, {"type": "node", "id": 6058658979, "lat": -15.7305456, "lon": -72.108582}, {"type": "node", "id": 6058658980, "lat": -15.7301381, "lon": -72.1081429}, {"type": "node", "id": 6058658981, "lat": -15.7294525, "lon": -72.1082674}, {"type": "node", "id": 6058658983, "lat": -15.7297777, "lon": -72.1078671}, {"type": "node", "id": 6058658984, "lat": -15.7301247, "lon": -72.1078209}, {"type": "node", "id": 6058661485, "lat": -15.7318309, "lon": -72.1068918}, {"type": "node", "id": 6058661486, "lat": -15.7330361, "lon": -72.1061173}, {"type": "node", "id": 6058661487, "lat": -15.7330342, "lon": -72.1060177}, {"type": "node", "id": 6058661488, "lat": -15.7325411, "lon": -72.1057636}, {"type": "node", "id": 6058661489, "lat": -15.7323298, "lon": -72.1056417}, {"type": "node", "id": 6058661490, "lat": -15.7321889, "lon": -72.1056051}, {"type": "node", "id": 6058661491, "lat": -15.7321361, "lon": -72.1056234}, {"type": "node", "id": 6058661492, "lat": -15.7321243, "lon": -72.1058002}, {"type": "node", "id": 6058661493, "lat": -15.7320989, "lon": -72.1060381}, {"type": "node", "id": 6058661494, "lat": -15.7320715, "lon": -72.1062921}, {"type": "node", "id": 6058661495, "lat": -15.732048, "lon": -72.1063938}, {"type": "node", "id": 6058661496, "lat": -15.7319287, "lon": -72.1066214}, {"type": "node", "id": 6058661497, "lat": -15.731777, "lon": -72.1068059}, {"type": "node", "id": 6087603193, "lat": -15.7297357, "lon": -72.1076472}, {"type": "node", "id": 6087603194, "lat": -15.7295531, "lon": -72.1077038}, {"type": "node", "id": 6087603195, "lat": -15.7294162, "lon": -72.1077726}, {"type": "node", "id": 6087603196, "lat": -15.7294518, "lon": -72.1081573}, {"type": "node", "id": 6087603198, "lat": -15.7303203, "lon": -72.1084762}, {"type": "node", "id": 6087603199, "lat": -15.7305276, "lon": -72.1084361}, {"type": "node", "id": 6652403470, "lat": -15.6124459, "lon": -71.9047795, "tags": {"amenity": "shelter"}}, {"type": "node", "id": 7082620928, "lat": -15.5841374, "lon": -71.9571377, "tags": {"amenity": "doctors", "operator": "Gobierno Regional", "ref:category": "I-2", "ref:microred": "3", "ref:red": "3"}}, {"type": "node", "id": 7319100048, "lat": -15.583925, "lon": -71.9572206}, {"type": "node", "id": 7319100049, "lat": -15.583967, "lon": -71.9571891}, {"type": "node", "id": 7319100050, "lat": -15.583979, "lon": -71.9572064}, {"type": "node", "id": 7319100051, "lat": -15.583937, "lon": -71.9572379}, {"type": "node", "id": 7319100052, "lat": -15.5914734, "lon": -71.966614}, {"type": "node", "id": 7319100053, "lat": -15.5915219, "lon": -71.9665938}, {"type": "node", "id": 7319100054, "lat": -15.5915166, "lon": -71.9665801}, {"type": "node", "id": 7319100055, "lat": -15.5914681, "lon": -71.9666002}, {"type": "node", "id": 11298879023, "lat": -15.6097843, "lon": -71.9634498}, {"type": "node", "id": 11298879024, "lat": -15.6098348, "lon": -71.9634687}, {"type": "node", "id": 11298879025, "lat": -15.6098012, "lon": -71.9635653}, {"type": "node", "id": 12408386201, "lat": -15.6125952, "lon": -71.9778877, "tags": {"amenity": "shelter"}}, {"type": "way", "id": 483092133, "nodes": [4758469431, 4758469432, 4758469433, 4758469434, 4758469431], "tags": {"amenity": "shelter"}}, {"type": "way", "id": 483092144, "nodes": [2407440039, 4758469493, 4758469494, 2407440045, 2407440039], "tags": {"amenity": "shelter"}}, {"type": "way", "id": 643945538, "nodes": [6058658972, 6058658973, 6058658974, 6058658975, 6058658972], "tags": {"addr:full": "Calle Mariscal Castilla - Localidad Huambo", "amenity": "doctors", "name": "Puesto de Salud Huambo", "operator": "MINSA", "phone": "+51 54 776984", "ref:category": "I-2", "ref:microred": "3", "ref:red": "3"}}, {"type": "way", "id": 643945539, "nodes": [6058658976, 6087603198, 6087603199, 6058658979, 6058658976], "tags": {"addr:city": "Huambo", "amenity": "townhall", "building": "yes", "name": "MUNICIPALIDAD DISTRITAL DE HUAMBO"}}, {"type": "way", "id": 643945540, "nodes": [6058658980, 6058658981, 6087603196, 6087603195, 6087603194, 6087603193, 6058658983, 6058658984, 6058658980], "tags": {"amenity": "school", "name": "I.E. JUAN PABLO II 40383"}}, {"type": "way", "id": 643945541, "nodes": [6058661485, 6058661486, 6058661487, 6058661488, 6058661489, 6058661490, 6058661491, 6058661492, 6058661493, 6058661494, 6058661495, 6058661496, 6058661497, 6058661485], "tags": {"amenity": "school", "name": "I.E. ANDRES AVELINO CACERES"}}, {"type": "way", "id": 783604263, "nodes": [7319100051, 7319100048, 7319100049, 7319100050, 7319100051], "tags": {"amenity": "shelter", "building": "roof", "shelter_type": "public_transport", "source": "survey;GPX;Maxar Premium"}}, {"type": "way", "id": 783604264, "nodes": [7319100055, 7319100054, 7319100053, 7319100052, 7319100055], "tags": {"amenity": "shelter", "building": "roof", "shelter_type": "public_transport", "source": "survey;GPX;Maxar Premium"}}, {"type": "way", "id": 1219404731, "nodes": [11298879025, 4425395516, 11298879023, 11298879024, 11298879025], "tags": {"amenity": "shelter", "building": "yes"}}]}