{"version": 0.6, "generator": "Overpass API 0.7.62.8 e802775f", "osm3s": {"timestamp_osm_base": "2025-10-13T08:54:16Z", "copyright": "The data included in this document is from www.openstreetmap.org. The data is made available under ODbL."}, "elements": [{"type": "node", "id": 1767108510, "lat": -7.5059006, "lon": 110.2046821, "tags": {"amenity": "fuel", "name": "Pom Bensin Pakelan"}}, {"type": "node", "id": 1767114219, "lat": -7.5132294, "lon": 110.207418, "tags": {"amenity": "townhall"}}, {"type": "node", "id": 2060907458, "lat": -7.2736151, "lon": 110.3747202, "tags": {"amenity": "fuel", "name": "Fuel Station Gondoriyo"}}, {"type": "node", "id": 2638405863, "lat": -7.2904398, "lon": 110.4043954, "tags": {"amenity": "fuel"}}, {"type": "node", "id": 2638411593, "lat": -7.2995178, "lon": 110.4043247, "tags": {"amenity": "townhall", "name": "Proyek Farming"}}, {"type": "node", "id": 2657152189, "lat": -7.3586282, "lon": 110.2226436, "tags": {"amenity": "fuel"}}, {"type": "node", "id": 3445891374, "lat": -7.4021077, "lon": 110.2408454, "tags": {"amenity": "fuel", "name": "SPBU secang"}}, {"type": "node", "id": 3463010178, "lat": -7.4825279, "lon": 110.2333959, "tags": {"amenity": "fuel", "name": "SPBU"}}, {"type": "node", "id": 3463010179, "lat": -7.4608071, "lon": 110.2229724, "tags": {"amenity": "fuel", "name": "SPBU 41.561.01"}}, {"type": "node", "id": 3463010409, "lat": -7.5093658, "lon": 110.2254643, "tags": {"amenity": "fuel", "name": "SPBU 44.561.04"}}, {"type": "node", "id": 3463010410, "lat": -7.4880803, "lon": 110.2345584, "tags": {"amenity": "fuel", "name": "SPBU"}}, {"type": "node", "id": 3463010484, "lat": -7.3754916, "lon": 110.2201291, "tags": {"amenity": "fuel", "name": "SPBU"}}, {"type": "node", "id": 3463012255, "lat": -7.4335031, "lon": 110.2287429, "tags": {"amenity": "fuel", "name": "SPBU 44.561.03"}}, {"type": "node", "id": 3492703914, "lat": -7.3845145, "lon": 110.2380219, "tags": {"amenity": "fuel", "name": "SPBU 44.561.16"}}, {"type": "node", "id": 3693646876, "lat": -7.3288674, "lon": 110.1992652, "tags": {"amenity": "fuel"}}, {"type": "node", "id": 3693648567, "lat": -7.3264998, "lon": 110.1959715, "tags": {"amenity": "courthouse", "name": "Pengadilan Negeri Temanggung"}}, {"type": "node", "id": 5149499282, "lat": -7.4745945, "lon": 110.2177798}, {"type": "node", "id": 5149499283, "lat": -7.4747141, "lon": 110.2177865}, {"type": "node", "id": 5149499284, "lat": -7.4749894, "lon": 110.2178053}, {"type": "node", "id": 5149499285, "lat": -7.4751189, "lon": 110.2178161}, {"type": "node", "id": 5149499286, "lat": -7.4750964, "lon": 110.2184763}, {"type": "node", "id": 5149499287, "lat": -7.4750359, "lon": 110.2184839}, {"type": "node", "id": 5149499288, "lat": -7.4747102, "lon": 110.2183887}, {"type": "node", "id": 5149499289, "lat": -7.4745253, "lon": 110.2183337}, {"type": "node", "id": 5149499290, "lat": -7.4745213, "lon": 110.2181969}, {"type": "node", "id": 5149499291, "lat": -7.4745386, "lon": 110.2177973}, {"type": "node", "id": 5152287930, "lat": -7.5231501, "lon": 110.2271677}, {"type": "node", "id": 5152287931, "lat": -7.5231475, "lon": 110.2273028}, {"type": "node", "id": 5152287932, "lat": -7.523041, "lon": 110.2273072}, {"type": "node", "id": 5152287933, "lat": -7.5230409, "lon": 110.2272048}, {"type": "node", "id": 5152287934, "lat": -7.5229984, "lon": 110.2272046}, {"type": "node", "id": 5152287935, "lat": -7.5229984, "lon": 110.2271693}, {"type": "node", "id": 5160173221, "lat": -7.5375296, "lon": 110.2573977}, {"type": "node", "id": 5160173222, "lat": -7.5377389, "lon": 110.2573943}, {"type": "node", "id": 5160173223, "lat": -7.5377367, "lon": 110.2572555}, {"type": "node", "id": 5160173224, "lat": -7.5375275, "lon": 110.2572589}, {"type": "node", "id": 5160173225, "lat": -7.5323982, "lon": 110.2664653}, {"type": "node", "id": 5160173226, "lat": -7.5323995, "lon": 110.2665498}, {"type": "node", "id": 5160173227, "lat": -7.5322592, "lon": 110.2665521}, {"type": "node", "id": 5160173228, "lat": -7.5322579, "lon": 110.2664676}, {"type": "node", "id": 5164665105, "lat": -7.5296819, "lon": 110.3145937}, {"type": "node", "id": 5164665106, "lat": -7.529648, "lon": 110.3146776}, {"type": "node", "id": 5164665107, "lat": -7.5295503, "lon": 110.3146373}, {"type": "node", "id": 5164665108, "lat": -7.5295842, "lon": 110.3145535}, {"type": "node", "id": 5954682242, "lat": -7.4686524, "lon": 110.2515325}, {"type": "node", "id": 5954682243, "lat": -7.4684081, "lon": 110.2516565}, {"type": "node", "id": 5954682244, "lat": -7.4686595, "lon": 110.2516211}, {"type": "node", "id": 5954682245, "lat": -7.468401, "lon": 110.2515539}, {"type": "node", "id": 6212286521, "lat": -7.3388931, "lon": 110.4077522, "tags": {"amenity": "townhall", "name": "Kantor Desa Sepakung"}}, {"type": "node", "id": 6512690474, "lat": -7.4423866, "lon": 110.4302599, "tags": {"amenity": "shelter", "name": "Pos 2 (campground with water)"}}, {"type": "node", "id": 6649045695, "lat": -7.433763, "lon": 110.4211693, "tags": {"amenity": "shelter", "name": "Pos 1 Tegal Arum"}}, {"type": "node", "id": 6814152332, "lat": -7.3868304, "lon": 110.3790246, "tags": {"amenity": "shelter", "name": "Pos 1"}}, {"type": "node", "id": 6814152365, "lat": -7.3869759, "lon": 110.3768228, "tags": {"amenity": "shelter", "name": "Pos 2 Kendit"}}, {"type": "node", "id": 9789678141, "lat": -7.4588139, "lon": 110.2017874, "tags": {"amenity": "doctors", "healthcare": "doctor", "name": "Bidan Bu Erning"}}, {"type": "node", "id": 9792307100, "lat": -7.5270173, "lon": 110.1926391, "tags": {"amenity": "dentist", "healthcare": "dentist", "name": "Dokter Gigi Bondan"}}, {"type": "node", "id": 9894222371, "lat": -7.3685916, "lon": 110.4084858, "tags": {"amenity": "shelter", "name": "Pos 3 Gareng"}}, {"type": "node", "id": 9894222372, "lat": -7.3708588, "lon": 110.409196, "tags": {"amenity": "shelter", "name": "Pos 2 Petruk"}}, {"type": "node", "id": 9894222373, "lat": -7.3703208, "lon": 110.4074994, "tags": {"amenity": "shelter", "name": "Pos 1 Bagong"}}, {"type": "node", "id": 9894226174, "lat": -7.3897049, "lon": 110.3761075, "tags": {"amenity": "shelter", "name": "Pos 1 Kenongan"}}, {"type": "node", "id": 9894226175, "lat": -7.3911588, "lon": 110.3735516, "tags": {"amenity": "shelter", "name": "Pos 2 Watu Gambir"}}, {"type": "node", "id": 9894226176, "lat": -7.3915341, "lon": 110.374108, "tags": {"amenity": "shelter", "name": "Pos 1 Watu Pocong"}}, {"type": "node", "id": 9894226177, "lat": -7.393971, "lon": 110.3726732, "tags": {"amenity": "shelter", "name": "Pos 1 Kemuning"}}, {"type": "node", "id": 9894226178, "lat": -7.3930769, "lon": 110.3717349, "tags": {"amenity": "shelter", "name": "Pos 2 Dewandaru"}}, {"type": "node", "id": 9894226182, "lat": -7.3910969, "lon": 110.3710808, "tags": {"amenity": "shelter", "name": "Pos 3 Gambar Wayang"}}, {"type": "node", "id": 10151452824, "lat": -7.4765233, "lon": 110.2137901}, {"type": "node", "id": 10151452825, "lat": -7.476563, "lon": 110.2142347}, {"type": "node", "id": 10151452826, "lat": -7.4768681, "lon": 110.2142209}, {"type": "node", "id": 10151452827, "lat": -7.4768147, "lon": 110.2137563}, {"type": "node", "id": 10726381605, "lat": -7.3931658, "lon": 110.4235894, "tags": {"amenity": "fuel", "name": "PERTAMINA"}}, {"type": "node", "id": 10837163696, "lat": -7.4360888, "lon": 110.424113, "tags": {"amenity": "shelter", "name": "Pos Bayangan"}}, {"type": "node", "id": 10837163859, "lat": -7.4277623, "lon": 110.4324611, "tags": {"amenity": "shelter", "name": "Pos 2 Pareng Putih 2200mdpl"}}, {"type": "node", "id": 10837163880, "lat": -7.4213841, "lon": 110.4297463, "tags": {"amenity": "shelter", "name": "Pos 1 Pending"}}, {"type": "node", "id": 11031915781, "lat": -7.5306146, "lon": 110.4433478, "tags": {"amenity": "shelter", "name": "Watu Gelar"}}, {"type": "node", "id": 11031915782, "lat": -7.52988, "lon": 110.4385413, "tags": {"amenity": "shelter", "name": "Tegal Alang"}}, {"type": "node", "id": 11031915783, "lat": -7.5305235, "lon": 110.4324286, "tags": {"amenity": "shelter", "name": "Pematang Duwur"}}, {"type": "node", "id": 11031915784, "lat": -7.5292099, "lon": 110.4260979, "tags": {"amenity": "shelter", "name": "Patuk"}}, {"type": "node", "id": 11060257721, "lat": -7.4684635, "lon": 110.2517152, "tags": {"amenity": "fuel", "brand": "Pertamina", "brand:wikidata": "Q1641044", "name": "Pertamina 44.561.09 Purwosari", "self_service": "no"}}, {"type": "node", "id": 11862281130, "lat": -7.3910515, "lon": 110.3745282, "tags": {"amenity": "shelter", "name": "Pos 1 Mantenan"}}, {"type": "node", "id": 11964911643, "lat": -7.4664001, "lon": 110.1909669, "tags": {"addr:city": "Magelang", "addr:district": "Bandongan", "addr:province": "Jawa Tengah", "amenity": "fuel", "name": "SPBU Pertamina Bandongan"}}, {"type": "way", "id": 530271302, "nodes": [5149499291, 5149499290, 5149499289, 5149499288, 5149499287, 5149499286, 5149499285, 5149499284, 5149499283, 5149499282, 5149499291], "tags": {"addr:place": "Jalan Jendral Ahmad Yani", "amenity": "courthouse"}}, {"type": "way", "id": 530625705, "nodes": [5152287935, 5152287934, 5152287933, 5152287932, 5152287931, 5152287930, 5152287935], "tags": {"addr:city": "Magelang", "addr:place": "Jl. Pujotomo, Kec. Mertoyudan", "amenity": "townhall", "name": "Kantor Lurah Sumberrejo"}}, {"type": "way", "id": 531599696, "nodes": [5160173224, 5160173221, 5160173222, 5160173223, 5160173224], "tags": {"addr:full": "Treko 3", "amenity": "doctors", "building": "yes", "building:levels": "1", "building:roof": "tile", "building:structure": "confined_masonry", "building:walls": "brick", "name": "Rumah Bersalin"}}, {"type": "way", "id": 531599697, "nodes": [5160173228, 5160173227, 5160173226, 5160173225, 5160173228], "tags": {"addr:full": "Treko 5", "amenity": "doctors", "building": "yes", "building:levels": "2", "building:roof": "tile", "building:structure": "plastered", "building:walls": "brick", "name": "Rumah Bersalin"}}, {"type": "way", "id": 532159509, "nodes": [5164665108, 5164665107, 5164665106, 5164665105, 5164665108], "tags": {"addr:full": "Dusun Butuh Wetan", "amenity": "doctors", "building": "yes", "building:levels": "1", "building:roof": "tile", "building:structure": "plastered", "building:walls": "brick", "name": "PKD Butuh"}}, {"type": "way", "id": 630685563, "nodes": [5954682245, 5954682243, 5954682244, 5954682242, 5954682245], "tags": {"amenity": "fuel", "brand": "Pertamina", "brand:wikidata": "Q1641044", "building": "yes", "name": "Pertamina 44.561.09 Purwosari", "self_service": "no"}}, {"type": "way", "id": 1109624776, "nodes": [10151452824, 10151452825, 10151452826, 10151452827, 10151452824], "tags": {"addr:city": "Kota Magelang", "addr:housenumber": "8", "addr:postcode": "56121", "addr:street": "Jalan Diponegoro", "amenity": "fuel", "brand": "Pertamina", "fuel:diesel": "yes", "fuel:octane_90": "yes", "fuel:octane_95": "yes", "name": "SPBU 44.561.15 Cacaban"}}]}