{"version": 0.6, "generator": "Overpass API 0.7.62.8 e802775f", "osm3s": {"timestamp_osm_base": "2025-09-30T11:00:16Z", "copyright": "The data included in this document is from www.openstreetmap.org. The data is made available under ODbL."}, "elements": [{"type": "node", "id": 1767108510, "lat": -7.5059006, "lon": 110.2046821, "tags": {"amenity": "fuel", "name": "Pom Bensin Pakelan"}}, {"type": "node", "id": 1767114219, "lat": -7.5132294, "lon": 110.207418, "tags": {"amenity": "townhall"}}, {"type": "node", "id": 1767114260, "lat": -7.5170479, "lon": 110.2096442, "tags": {"amenity": "bank", "atm": "yes", "name": "BANK BRI Cabang AKMIL"}}, {"type": "node", "id": 2060907458, "lat": -7.2736151, "lon": 110.3747202, "tags": {"amenity": "fuel", "name": "Fuel Station Gondoriyo"}}, {"type": "node", "id": 2212758057, "lat": -7.4784156, "lon": 110.2170592}, {"type": "node", "id": 2212758058, "lat": -7.4784019, "lon": 110.2169758}, {"type": "node", "id": 2212758061, "lat": -7.4778536, "lon": 110.2157884}, {"type": "node", "id": 2212758101, "lat": -7.4780579, "lon": 110.2170332}, {"type": "node", "id": 2212991051, "lat": -7.4744279, "lon": 110.2162302}, {"type": "node", "id": 2212991061, "lat": -7.4742159, "lon": 110.2163596}, {"type": "node", "id": 2212991138, "lat": -7.4739359, "lon": 110.216378}, {"type": "node", "id": 2212991163, "lat": -7.4744217, "lon": 110.2163689}, {"type": "node", "id": 2212991165, "lat": -7.4742145, "lon": 110.2163906}, {"type": "node", "id": 2212991272, "lat": -7.4739434, "lon": 110.2162084}, {"type": "node", "id": 2638405863, "lat": -7.2904398, "lon": 110.4043954, "tags": {"amenity": "fuel"}}, {"type": "node", "id": 2638411593, "lat": -7.2995178, "lon": 110.4043247, "tags": {"amenity": "townhall", "name": "Proyek Farming"}}, {"type": "node", "id": 2657152189, "lat": -7.3586282, "lon": 110.2226436, "tags": {"amenity": "fuel"}}, {"type": "node", "id": 2751196994, "lat": -7.3167196, "lon": 110.1770077, "tags": {"amenity": "bank", "atm": "yes", "name": "BCA"}}, {"type": "node", "id": 2751301311, "lat": -7.3166519, "lon": 110.1767766}, {"type": "node", "id": 2751301312, "lat": -7.3166857, "lon": 110.1769392}, {"type": "node", "id": 2751301313, "lat": -7.316827, "lon": 110.1769076}, {"type": "node", "id": 2751301314, "lat": -7.3167929, "lon": 110.1767525}, {"type": "node", "id": 2751301746, "lat": -7.3166116, "lon": 110.1773726}, {"type": "node", "id": 2751301747, "lat": -7.3171327, "lon": 110.1772877}, {"type": "node", "id": 2751301748, "lat": -7.317166, "lon": 110.1774296}, {"type": "node", "id": 2751301749, "lat": -7.3166515, "lon": 110.1775523}, {"type": "node", "id": 3042648200, "lat": -7.4739939, "lon": 110.2144203}, {"type": "node", "id": 3042648201, "lat": -7.4740136, "lon": 110.2148533}, {"type": "node", "id": 3042648202, "lat": -7.4746077, "lon": 110.2148397}, {"type": "node", "id": 3042648203, "lat": -7.4745835, "lon": 110.2143825}, {"type": "node", "id": 3063058164, "lat": -7.4753369, "lon": 110.2150945}, {"type": "node", "id": 3063058165, "lat": -7.4753443, "lon": 110.2146763}, {"type": "node", "id": 3063058167, "lat": -7.4755368, "lon": 110.2146873}, {"type": "node", "id": 3063058169, "lat": -7.4758233, "lon": 110.2147037}, {"type": "node", "id": 3063058174, "lat": -7.4760723, "lon": 110.2147179}, {"type": "node", "id": 3063058180, "lat": -7.4761277, "lon": 110.2147211}, {"type": "node", "id": 3063058181, "lat": -7.4761539, "lon": 110.2151166}, {"type": "node", "id": 3445891374, "lat": -7.4021077, "lon": 110.2408454, "tags": {"amenity": "fuel", "name": "SPBU secang"}}, {"type": "node", "id": 3463010178, "lat": -7.4825279, "lon": 110.2333959, "tags": {"amenity": "fuel", "name": "SPBU"}}, {"type": "node", "id": 3463010179, "lat": -7.4608071, "lon": 110.2229724, "tags": {"amenity": "fuel", "name": "SPBU 41.561.01"}}, {"type": "node", "id": 3463010409, "lat": -7.5093658, "lon": 110.2254643, "tags": {"amenity": "fuel", "name": "SPBU 44.561.04"}}, {"type": "node", "id": 3463010410, "lat": -7.4880803, "lon": 110.2345584, "tags": {"amenity": "fuel", "name": "SPBU"}}, {"type": "node", "id": 3463010484, "lat": -7.3754916, "lon": 110.2201291, "tags": {"amenity": "fuel", "name": "SPBU"}}, {"type": "node", "id": 3463012255, "lat": -7.4335031, "lon": 110.2287429, "tags": {"amenity": "fuel", "name": "SPBU 44.561.03"}}, {"type": "node", "id": 3492703914, "lat": -7.3845145, "lon": 110.2380219, "tags": {"amenity": "fuel", "name": "SPBU 44.561.16"}}, {"type": "node", "id": 3693646876, "lat": -7.3288674, "lon": 110.1992652, "tags": {"amenity": "fuel"}}, {"type": "node", "id": 3693648567, "lat": -7.3264998, "lon": 110.1959715, "tags": {"amenity": "courthouse", "name": "Pengadilan Negeri Temanggung"}}, {"type": "node", "id": 5147024676, "lat": -7.47865, "lon": 110.2156554}, {"type": "node", "id": 5147024677, "lat": -7.4788682, "lon": 110.2169835}, {"type": "node", "id": 5147338674, "lat": -7.4779061, "lon": 110.2177642}, {"type": "node", "id": 5147338675, "lat": -7.478095, "lon": 110.2177468}, {"type": "node", "id": 5147338676, "lat": -7.4780765, "lon": 110.2175434}, {"type": "node", "id": 5147338677, "lat": -7.4778877, "lon": 110.2175608}, {"type": "node", "id": 5149499282, "lat": -7.4745945, "lon": 110.2177798}, {"type": "node", "id": 5149499283, "lat": -7.4747141, "lon": 110.2177865}, {"type": "node", "id": 5149499284, "lat": -7.4749894, "lon": 110.2178053}, {"type": "node", "id": 5149499285, "lat": -7.4751189, "lon": 110.2178161}, {"type": "node", "id": 5149499286, "lat": -7.4750964, "lon": 110.2184763}, {"type": "node", "id": 5149499287, "lat": -7.4750359, "lon": 110.2184839}, {"type": "node", "id": 5149499288, "lat": -7.4747102, "lon": 110.2183887}, {"type": "node", "id": 5149499289, "lat": -7.4745253, "lon": 110.2183337}, {"type": "node", "id": 5149499290, "lat": -7.4745213, "lon": 110.2181969}, {"type": "node", "id": 5149499291, "lat": -7.4745386, "lon": 110.2177973}, {"type": "node", "id": 5149499672, "lat": -7.4761811, "lon": 110.2183979}, {"type": "node", "id": 5149499673, "lat": -7.4758374, "lon": 110.2183776}, {"type": "node", "id": 5149499676, "lat": -7.4758233, "lon": 110.2186203}, {"type": "node", "id": 5149499680, "lat": -7.4760384, "lon": 110.218633}, {"type": "node", "id": 5149499681, "lat": -7.476172, "lon": 110.2185546}, {"type": "node", "id": 5149950664, "lat": -7.4642556, "lon": 110.2238157}, {"type": "node", "id": 5149950665, "lat": -7.4643035, "lon": 110.2239606}, {"type": "node", "id": 5149950666, "lat": -7.4642809, "lon": 110.2239874}, {"type": "node", "id": 5149950667, "lat": -7.4642051, "lon": 110.2240276}, {"type": "node", "id": 5149950668, "lat": -7.464128, "lon": 110.2240384}, {"type": "node", "id": 5149950669, "lat": -7.4640881, "lon": 110.2239056}, {"type": "node", "id": 5149950670, "lat": -7.4641147, "lon": 110.223868}, {"type": "node", "id": 5151873962, "lat": -7.4739778, "lon": 110.2149573}, {"type": "node", "id": 5151873963, "lat": -7.4739938, "lon": 110.2150861}, {"type": "node", "id": 5151873964, "lat": -7.4740036, "lon": 110.215171}, {"type": "node", "id": 5151873965, "lat": -7.4745656, "lon": 110.2151223}, {"type": "node", "id": 5151873966, "lat": -7.4745616, "lon": 110.2150954}, {"type": "node", "id": 5151873967, "lat": -7.4745656, "lon": 110.2149399}, {"type": "node", "id": 5151873968, "lat": -7.4745363, "lon": 110.2148795}, {"type": "node", "id": 5151873969, "lat": -7.4744579, "lon": 110.2148836}, {"type": "node", "id": 5151873970, "lat": -7.4743967, "lon": 110.2148782}, {"type": "node", "id": 5151873971, "lat": -7.4741919, "lon": 110.2148849}, {"type": "node", "id": 5151873972, "lat": -7.4740523, "lon": 110.2148916}, {"type": "node", "id": 5151873973, "lat": -7.4739725, "lon": 110.2148943}, {"type": "node", "id": 5152287930, "lat": -7.5231501, "lon": 110.2271677}, {"type": "node", "id": 5152287931, "lat": -7.5231475, "lon": 110.2273028}, {"type": "node", "id": 5152287932, "lat": -7.523041, "lon": 110.2273072}, {"type": "node", "id": 5152287933, "lat": -7.5230409, "lon": 110.2272048}, {"type": "node", "id": 5152287934, "lat": -7.5229984, "lon": 110.2272046}, {"type": "node", "id": 5152287935, "lat": -7.5229984, "lon": 110.2271693}, {"type": "node", "id": 5160173221, "lat": -7.5375296, "lon": 110.2573977}, {"type": "node", "id": 5160173222, "lat": -7.5377389, "lon": 110.2573943}, {"type": "node", "id": 5160173223, "lat": -7.5377367, "lon": 110.2572555}, {"type": "node", "id": 5160173224, "lat": -7.5375275, "lon": 110.2572589}, {"type": "node", "id": 5160173225, "lat": -7.5323982, "lon": 110.2664653}, {"type": "node", "id": 5160173226, "lat": -7.5323995, "lon": 110.2665498}, {"type": "node", "id": 5160173227, "lat": -7.5322592, "lon": 110.2665521}, {"type": "node", "id": 5160173228, "lat": -7.5322579, "lon": 110.2664676}, {"type": "node", "id": 5164665105, "lat": -7.5296819, "lon": 110.3145937}, {"type": "node", "id": 5164665106, "lat": -7.529648, "lon": 110.3146776}, {"type": "node", "id": 5164665107, "lat": -7.5295503, "lon": 110.3146373}, {"type": "node", "id": 5164665108, "lat": -7.5295842, "lon": 110.3145535}, {"type": "node", "id": 5305701914, "lat": -7.3189805, "lon": 110.1851454, "tags": {"amenity": "bank", "name": "BRI"}}, {"type": "node", "id": 5954682242, "lat": -7.4686524, "lon": 110.2515325}, {"type": "node", "id": 5954682243, "lat": -7.4684081, "lon": 110.2516565}, {"type": "node", "id": 5954682244, "lat": -7.4686595, "lon": 110.2516211}, {"type": "node", "id": 5954682245, "lat": -7.468401, "lon": 110.2515539}, {"type": "node", "id": 6212286521, "lat": -7.3388931, "lon": 110.4077522, "tags": {"amenity": "townhall", "name": "Kantor Desa Sepakung"}}, {"type": "node", "id": 6512690474, "lat": -7.4423866, "lon": 110.4302599, "tags": {"amenity": "shelter", "name": "Pos 2 (campground with water)"}}, {"type": "node", "id": 6649045695, "lat": -7.433763, "lon": 110.4211693, "tags": {"amenity": "shelter", "name": "Pos 1 Tegal Arum"}}, {"type": "node", "id": 6814152332, "lat": -7.3868304, "lon": 110.3790246, "tags": {"amenity": "shelter", "name": "Pos 1"}}, {"type": "node", "id": 6814152365, "lat": -7.3869759, "lon": 110.3768228, "tags": {"amenity": "shelter", "name": "Pos 2 Kendit"}}, {"type": "node", "id": 7790698520, "lat": -7.3169409, "lon": 110.177319}, {"type": "node", "id": 7790708789, "lat": -7.3167427, "lon": 110.1773512}, {"type": "node", "id": 7790708790, "lat": -7.3168549, "lon": 110.177333}, {"type": "node", "id": 7790731636, "lat": -7.3171611, "lon": 110.1774086}, {"type": "node", "id": 9785826732, "lat": -7.4485824, "lon": 110.2246237, "tags": {"amenity": "bank", "brand": "Bank Mandiri", "brand:wikidata": "Q806639", "name": "Bank Mandiri"}}, {"type": "node", "id": 9789555839, "lat": -7.46522, "lon": 110.1876029, "tags": {"amenity": "bank", "brand": "BRI", "brand:wikidata": "Q623042", "name": "BRI", "official_name": "Bank Rakyat Indonesia"}}, {"type": "node", "id": 9789555857, "lat": -7.4663301, "lon": 110.1906462, "tags": {"amenity": "bank", "name": "Bank JATENG"}}, {"type": "node", "id": 9789678141, "lat": -7.4588139, "lon": 110.2017874, "tags": {"amenity": "doctors", "healthcare": "doctor", "name": "Bidan Bu Erning"}}, {"type": "node", "id": 9791809191, "lat": -7.5271581, "lon": 110.1842689, "tags": {"amenity": "bank", "brand": "BNI", "brand:wikidata": "Q2882611", "name": "BNI", "official_name": "Bank Negara Indonesia"}}, {"type": "node", "id": 9792307090, "lat": -7.5097044, "lon": 110.2092295, "tags": {"amenity": "bank", "brand": "BRI", "brand:wikidata": "Q623042", "name": "BRI", "official_name": "Bank Rakyat Indonesia"}}, {"type": "node", "id": 9792307100, "lat": -7.5270173, "lon": 110.1926391, "tags": {"amenity": "dentist", "healthcare": "dentist", "name": "Dokter Gigi Bondan"}}, {"type": "node", "id": 9792307108, "lat": -7.5262582, "lon": 110.1888278, "tags": {"amenity": "bank", "brand": "BRI", "brand:wikidata": "Q623042", "name": "BRI", "official_name": "Bank Rakyat Indonesia"}}, {"type": "node", "id": 9794726573, "lat": -7.3915367, "lon": 110.2466232, "tags": {"amenity": "bank", "brand": "BRI", "brand:wikidata": "Q623042", "name": "BRI", "official_name": "Bank Rakyat Indonesia"}}, {"type": "node", "id": 9794726588, "lat": -7.3948295, "lon": 110.2460921, "tags": {"amenity": "bank", "name": "Bank Bapas 69"}}, {"type": "node", "id": 9794766256, "lat": -7.416782, "lon": 110.2561271, "tags": {"amenity": "bank", "brand": "BRI", "brand:wikidata": "Q623042", "name": "BRI", "official_name": "Bank Rakyat Indonesia"}}, {"type": "node", "id": 9796315167, "lat": -7.3722693, "lon": 110.3252725, "tags": {"amenity": "bank", "brand": "BCA", "brand:wikidata": "Q806626", "name": "BCA", "official_name": "Bank Central Asia"}}, {"type": "node", "id": 9796315169, "lat": -7.3712132, "lon": 110.3229658, "tags": {"amenity": "bank", "brand": "BNI", "brand:wikidata": "Q2882611", "name": "BNI", "official_name": "Bank Negara Indonesia"}}, {"type": "node", "id": 9797876549, "lat": -7.4035173, "lon": 110.4001023, "tags": {"amenity": "bank", "brand": "BRI", "brand:wikidata": "Q623042", "name": "BRI", "official_name": "Bank Rakyat Indonesia"}}, {"type": "node", "id": 9800537624, "lat": -7.4934106, "lon": 110.2717613, "tags": {"amenity": "bank", "brand": "BRI", "brand:wikidata": "Q623042", "name": "BRI", "official_name": "Bank Rakyat Indonesia"}}, {"type": "node", "id": 9801187955, "lat": -7.5377163, "lon": 110.3132224, "tags": {"amenity": "bank", "brand": "BRI", "brand:wikidata": "Q623042", "name": "BRI", "official_name": "Bank Rakyat Indonesia"}}, {"type": "node", "id": 9894222371, "lat": -7.3685916, "lon": 110.4084858, "tags": {"amenity": "shelter", "name": "Pos 3 Gareng"}}, {"type": "node", "id": 9894222372, "lat": -7.3708588, "lon": 110.409196, "tags": {"amenity": "shelter", "name": "Pos 2 Petruk"}}, {"type": "node", "id": 9894222373, "lat": -7.3703208, "lon": 110.4074994, "tags": {"amenity": "shelter", "name": "Pos 1 Bagong"}}, {"type": "node", "id": 9894226174, "lat": -7.3897049, "lon": 110.3761075, "tags": {"amenity": "shelter", "name": "Pos 1 Kenongan"}}, {"type": "node", "id": 9894226175, "lat": -7.3911588, "lon": 110.3735516, "tags": {"amenity": "shelter", "name": "Pos 2 Watu Gambir"}}, {"type": "node", "id": 9894226176, "lat": -7.3915341, "lon": 110.374108, "tags": {"amenity": "shelter", "name": "Pos 1 Watu Pocong"}}, {"type": "node", "id": 9894226177, "lat": -7.393971, "lon": 110.3726732, "tags": {"amenity": "shelter", "name": "Pos 1 Kemuning"}}, {"type": "node", "id": 9894226178, "lat": -7.3930769, "lon": 110.3717349, "tags": {"amenity": "shelter", "name": "Pos 2 Dewandaru"}}, {"type": "node", "id": 9894226182, "lat": -7.3910969, "lon": 110.3710808, "tags": {"amenity": "shelter", "name": "Pos 3 Gambar Wayang"}}, {"type": "node", "id": 10151452824, "lat": -7.4765233, "lon": 110.2137901}, {"type": "node", "id": 10151452825, "lat": -7.476563, "lon": 110.2142347}, {"type": "node", "id": 10151452826, "lat": -7.4768681, "lon": 110.2142209}, {"type": "node", "id": 10151452827, "lat": -7.4768147, "lon": 110.2137563}, {"type": "node", "id": 10213333408, "lat": -7.4613909, "lon": 110.2715224, "tags": {"amenity": "bank", "brand": "BRI", "brand:wikidata": "Q623042", "drive_through": "yes", "name": "BRI", "official_name": "Bank Rakyat Indonesia"}}, {"type": "node", "id": 10281801914, "lat": -7.4759266, "lon": 110.2151105}, {"type": "node", "id": 10726381605, "lat": -7.3931658, "lon": 110.4235894, "tags": {"amenity": "fuel", "name": "PERTAMINA"}}, {"type": "node", "id": 10837163696, "lat": -7.4360888, "lon": 110.424113, "tags": {"amenity": "shelter", "name": "Pos Bayangan"}}, {"type": "node", "id": 10837163859, "lat": -7.4277623, "lon": 110.4324611, "tags": {"amenity": "shelter", "name": "Pos 2 Pareng Putih 2200mdpl"}}, {"type": "node", "id": 10837163880, "lat": -7.4213841, "lon": 110.4297463, "tags": {"amenity": "shelter", "name": "Pos 1 Pending"}}, {"type": "node", "id": 11031915781, "lat": -7.5306146, "lon": 110.4433478, "tags": {"amenity": "shelter", "name": "Watu Gelar"}}, {"type": "node", "id": 11031915782, "lat": -7.52988, "lon": 110.4385413, "tags": {"amenity": "shelter", "name": "Tegal Alang"}}, {"type": "node", "id": 11031915783, "lat": -7.5305235, "lon": 110.4324286, "tags": {"amenity": "shelter", "name": "Pematang Duwur"}}, {"type": "node", "id": 11031915784, "lat": -7.5292099, "lon": 110.4260979, "tags": {"amenity": "shelter", "name": "Patuk"}}, {"type": "node", "id": 11060213098, "lat": -7.5197764, "lon": 110.2273327, "tags": {"amenity": "bank", "name": "Bank Jateng"}}, {"type": "node", "id": 11060257721, "lat": -7.4684635, "lon": 110.2517152, "tags": {"amenity": "fuel", "brand": "Pertamina", "brand:wikidata": "Q1641044", "name": "Pertamina 44.561.09 Purwosari", "self_service": "no"}}, {"type": "node", "id": 11862281130, "lat": -7.3910515, "lon": 110.3745282, "tags": {"amenity": "shelter", "name": "Pos 1 Mantenan"}}, {"type": "node", "id": 11964911643, "lat": -7.4664001, "lon": 110.1909669, "tags": {"addr:city": "Magelang", "addr:district": "Bandongan", "addr:province": "Jawa Tengah", "amenity": "fuel", "name": "SPBU Pertamina Bandongan"}}, {"type": "node", "id": 12397897303, "lat": -7.464315, "lon": 110.220665, "tags": {"addr:district": "Kota Magelang", "addr:province": "Jawa Tengah", "addr:street": "jl. pahlawan no 84 kota magelang", "addr:subdistrict": "Magelang Utara", "addr:village": "potrobangsan", "amenity": "social_facility", "email": "kota_magelang@pmi.or.id", "name": "PMI Kota Magelang", "operator": "Palang Merah Indonesia", "operator:short": "PMI", "phone": "89629949457", "social_facility": "office"}}, {"type": "way", "id": 211254169, "nodes": [2212758061, 2212758101, 2212758058, 2212758057, 5147024677, 5147024676, 2212758061], "tags": {"addr:city": "Magelang", "amenity": "prison", "name": "Lapas Tingkat II Magelang"}}, {"type": "way", "id": 211275277, "nodes": [2212991138, 2212991165, 2212991061, 2212991163, 2212991051, 2212991272, 2212991138], "tags": {"addr:full": "Jalan Veterab", "amenity": "bank", "brand": "BNI", "brand:wikidata": "Q2882611", "building": "yes", "name": "BNI", "official_name": "Bank Negara Indonesia"}}, {"type": "way", "id": 270034598, "nodes": [2751301311, 2751301312, 2751301313, 2751301314, 2751301311], "tags": {"amenity": "bank", "building": "yes", "name": "BCA"}}, {"type": "way", "id": 270034659, "nodes": [2751301746, 7790708789, 7790708790, 7790698520, 2751301747, 7790731636, 2751301748, 2751301749, 2751301746], "tags": {"amenity": "bank", "building": "yes", "name": "BNI"}}, {"type": "way", "id": 300165974, "nodes": [3042648200, 3042648201, 3042648202, 3042648203, 3042648200], "tags": {"amenity": "bank", "atm": "yes", "name": "Bank BTPN"}}, {"type": "way", "id": 302063824, "nodes": [3063058165, 3063058164, 10281801914, 3063058181, 3063058180, 3063058174, 3063058169, 3063058167, 3063058165], "tags": {"addr:full": "Jalan Alun-alun Utara", "amenity": "bank", "name": "Bank BCA"}}, {"type": "way", "id": 529962378, "nodes": [5147338677, 5147338674, 5147338675, 5147338676, 5147338677], "tags": {"addr:city": "Jalan Alun-Alun Selatan", "amenity": "bank", "building": "yes", "name": "Bank Jateng"}}, {"type": "way", "id": 530271302, "nodes": [5149499291, 5149499290, 5149499289, 5149499288, 5149499287, 5149499286, 5149499285, 5149499284, 5149499283, 5149499282, 5149499291], "tags": {"addr:place": "Jalan Jendral Ahmad Yani", "amenity": "courthouse"}}, {"type": "way", "id": 530271318, "nodes": [5149499681, 5149499680, 5149499676, 5149499673, 5149499672, 5149499681], "tags": {"addr:city": "Magelang", "amenity": "bank", "brand": "BCA", "brand:wikidata": "Q806626", "brand:wikipedia": "id:Bank Central Asia", "building": "yes", "name": "BCA", "official_name": "Bank Central Asia"}}, {"type": "way", "id": 530331772, "nodes": [5149950670, 5149950669, 5149950668, 5149950667, 5149950666, 5149950665, 5149950664, 5149950670], "tags": {"addr:city": "Magelang", "addr:place": "Jl. Jenderal Urip Sumohajo No.11A Kebonpolo", "amenity": "bank", "name": "CS Finance"}}, {"type": "way", "id": 530564252, "nodes": [5151873973, 5151873972, 5151873971, 5151873970, 5151873969, 5151873968, 5151873967, 5151873966, 5151873965, 5151873964, 5151873963, 5151873962, 5151873973], "tags": {"addr:full": "Jalan Veteran", "amenity": "bank", "name": "Bank BRI"}}, {"type": "way", "id": 530625705, "nodes": [5152287935, 5152287934, 5152287933, 5152287932, 5152287931, 5152287930, 5152287935], "tags": {"addr:city": "Magelang", "addr:place": "Jl. Pujotomo, Kec. Mertoyudan", "amenity": "townhall", "name": "Kantor Lurah Sumberrejo"}}, {"type": "way", "id": 531599696, "nodes": [5160173224, 5160173221, 5160173222, 5160173223, 5160173224], "tags": {"addr:full": "Treko 3", "amenity": "doctors", "building": "yes", "building:levels": "1", "building:roof": "tile", "building:structure": "confined_masonry", "building:walls": "brick", "name": "Rumah Bersalin"}}, {"type": "way", "id": 531599697, "nodes": [5160173228, 5160173227, 5160173226, 5160173225, 5160173228], "tags": {"addr:full": "Treko 5", "amenity": "doctors", "building": "yes", "building:levels": "2", "building:roof": "tile", "building:structure": "plastered", "building:walls": "brick", "name": "Rumah Bersalin"}}, {"type": "way", "id": 532159509, "nodes": [5164665108, 5164665107, 5164665106, 5164665105, 5164665108], "tags": {"addr:full": "Dusun Butuh Wetan", "amenity": "doctors", "building": "yes", "building:levels": "1", "building:roof": "tile", "building:structure": "plastered", "building:walls": "brick", "name": "PKD Butuh"}}, {"type": "way", "id": 630685563, "nodes": [5954682245, 5954682243, 5954682244, 5954682242, 5954682245], "tags": {"amenity": "fuel", "brand": "Pertamina", "brand:wikidata": "Q1641044", "building": "yes", "name": "Pertamina 44.561.09 Purwosari", "self_service": "no"}}, {"type": "way", "id": 1109624776, "nodes": [10151452824, 10151452825, 10151452826, 10151452827, 10151452824], "tags": {"addr:city": "Kota Magelang", "addr:housenumber": "8", "addr:postcode": "56121", "addr:street": "Jalan Diponegoro", "amenity": "fuel", "brand": "Pertamina", "fuel:diesel": "yes", "fuel:octane_90": "yes", "fuel:octane_95": "yes", "name": "SPBU 44.561.15 Cacaban"}}]}