{"version": 0.6, "generator": "Overpass API 0.7.62.8 e802775f", "osm3s": {"timestamp_osm_base": "2025-09-30T11:03:15Z", "copyright": "The data included in this document is from www.openstreetmap.org. The data is made available under ODbL."}, "elements": [{"type": "node", "id": 452888089, "lat": -8.2989571, "lon": 113.9949414, "tags": {"amenity": "fuel", "brand": "Pertamina", "brand:wikidata": "Q1641044", "brand:wikipedia": "en:Pertamina", "name": "Pertamina"}}, {"type": "node", "id": 1716662294, "lat": -8.1329166, "lon": 113.8068402, "tags": {"amenity": "fuel", "brand": "Pertamina", "brand:wikidata": "Q1641044", "name": "Pertamina"}}, {"type": "node", "id": 1716662399, "lat": -8.1711714, "lon": 113.7933379, "tags": {"amenity": "fuel"}}, {"type": "node", "id": 2153956386, "lat": -8.1293584, "lon": 113.8093418, "tags": {"amenity": "bank", "atm": "yes", "brand": "Bank Central Asia", "brand:wikidata": "Q806626", "name": "Bank Central Asia"}}, {"type": "node", "id": 2153962245, "lat": -8.1318782, "lon": 113.8155377, "tags": {"amenity": "townhall", "name": "Gedung Kartini"}}, {"type": "node", "id": 10284614396, "lat": -8.3011097, "lon": 114.0293936, "tags": {"amenity": "fuel", "brand": "Pertamina", "brand:wikidata": "Q1641044", "name": "Pertamina"}}, {"type": "node", "id": 10284614397, "lat": -8.3000026, "lon": 114.0270093, "tags": {"amenity": "social_facility", "name": "Panti Jompo Tresna Werdha", "social_facility": "group_home", "social_facility:for": "senior"}}, {"type": "node", "id": 10284626311, "lat": -8.2985312, "lon": 113.9905252, "tags": {"amenity": "townhall", "name": "Kantor Camat Kalibaru", "townhall:type": "city"}}, {"type": "node", "id": 12389950054, "lat": -8.3313735, "lon": 114.0511337}, {"type": "node", "id": 12389950055, "lat": -8.3313377, "lon": 114.0511351}, {"type": "node", "id": 12389950056, "lat": -8.3313389, "lon": 114.0511684}, {"type": "node", "id": 12389950057, "lat": -8.3313748, "lon": 114.0511671}, {"type": "node", "id": 12389950058, "lat": -8.3312951, "lon": 114.051389}, {"type": "node", "id": 12389950059, "lat": -8.3312951, "lon": 114.0515137}, {"type": "node", "id": 12389950060, "lat": -8.3313369, "lon": 114.0515137}, {"type": "node", "id": 12389950061, "lat": -8.3313369, "lon": 114.051389}, {"type": "way", "id": 1339440063, "nodes": [12389950057, 12389950054, 12389950055, 12389950056, 12389950057], "tags": {"amenity": "shelter", "shelter_type": "basic_hut"}}, {"type": "way", "id": 1339440064, "nodes": [12389950061, 12389950058, 12389950059, 12389950060, 12389950061], "tags": {"amenity": "shelter", "building": "roof", "shelter_type": "picnic_shelter"}}]}