{"version": 0.6, "generator": "Overpass API 0.7.62.8 e802775f", "osm3s": {"timestamp_osm_base": "2025-10-14T08:46:59Z", "copyright": "The data included in this document is from www.openstreetmap.org. The data is made available under ODbL."}, "elements": [{"type": "node", "id": 410401141, "lat": 10.488026, "lon": 123.3961847, "tags": {"addr:place": "Urban Relocation", "amenity": "townhall", "government": "administrative", "name": "Rizal Barangay Hall", "source": "San Carlos City (http://www.sancarloscity.gov.ph/)", "townhall:type": "village"}}, {"type": "node", "id": 410401249, "lat": 10.583088, "lon": 123.397673, "tags": {"addr:place": "Bagonbon", "amenity": "townhall", "name": "Bagonbon Barangay Hall", "source": "San Carlos City (http://www.sancarloscity.gov.ph/)", "townhall:type": "barangay"}}, {"type": "node", "id": 410401277, "lat": 10.454358, "lon": 123.366464, "tags": {"amenity": "townhall", "building": "office", "government": "administrative", "name": "Barangay Hall", "office": "government", "opening_hours": "24/7", "source": "San Carlos City (http://www.sancarloscity.gov.ph/)", "townhall:type": "village"}}, {"type": "node", "id": 3929805678, "lat": 10.4309803, "lon": 123.2101855}, {"type": "node", "id": 3929805679, "lat": 10.4309475, "lon": 123.210261}, {"type": "node", "id": 3929805681, "lat": 10.4308904, "lon": 123.2101452}, {"type": "node", "id": 4421901791, "lat": 10.5777691, "lon": 123.2205125}, {"type": "node", "id": 4926486906, "lat": 10.4967821, "lon": 123.3053598}, {"type": "node", "id": 4926486907, "lat": 10.4966041, "lon": 123.3054303}, {"type": "node", "id": 4926486908, "lat": 10.4965752, "lon": 123.3053548}, {"type": "node", "id": 4926486909, "lat": 10.4967532, "lon": 123.3052844}, {"type": "node", "id": 5828360859, "lat": 10.5775509, "lon": 123.2205713}, {"type": "node", "id": 5828360860, "lat": 10.5776148, "lon": 123.2208168}, {"type": "node", "id": 5828360861, "lat": 10.5778331, "lon": 123.2207579}, {"type": "node", "id": 7965430771, "lat": 10.4308576, "lon": 123.2102207}, {"type": "node", "id": 9321485159, "lat": 10.5707607, "lon": 123.209596}, {"type": "node", "id": 9321485160, "lat": 10.5707739, "lon": 123.2096523}, {"type": "node", "id": 9321485161, "lat": 10.5707344, "lon": 123.2096925}, {"type": "node", "id": 9321485162, "lat": 10.5706764, "lon": 123.2096898}, {"type": "node", "id": 9321485163, "lat": 10.5706579, "lon": 123.2096362}, {"type": "node", "id": 9321485164, "lat": 10.5706922, "lon": 123.2095799}, {"type": "node", "id": 9321485165, "lat": 10.5707265, "lon": 123.2095879}, {"type": "node", "id": 9787620938, "lat": 10.4123034, "lon": 123.2264517}, {"type": "node", "id": 9787620939, "lat": 10.4122351, "lon": 123.2264526}, {"type": "node", "id": 9787620940, "lat": 10.4122363, "lon": 123.2265563}, {"type": "node", "id": 9787620941, "lat": 10.4123046, "lon": 123.2265554}, {"type": "node", "id": 11062728886, "lat": 10.4230147, "lon": 123.2059516}, {"type": "node", "id": 11062728887, "lat": 10.4229146, "lon": 123.2059519}, {"type": "node", "id": 11062728888, "lat": 10.4229148, "lon": 123.2060449}, {"type": "node", "id": 11062728889, "lat": 10.423015, "lon": 123.2060446}, {"type": "node", "id": 12000754230, "lat": 10.5404513, "lon": 123.2504175}, {"type": "node", "id": 12000754231, "lat": 10.5403294, "lon": 123.2504118}, {"type": "node", "id": 12000754232, "lat": 10.5403352, "lon": 123.2502871}, {"type": "node", "id": 12000754233, "lat": 10.540457, "lon": 123.2502929}, {"type": "node", "id": 12005826330, "lat": 10.54287, "lon": 123.2503128}, {"type": "node", "id": 12005826331, "lat": 10.5429402, "lon": 123.2503577}, {"type": "node", "id": 12005826332, "lat": 10.5429731, "lon": 123.2503045}, {"type": "node", "id": 12005826333, "lat": 10.5429029, "lon": 123.2502596}, {"type": "node", "id": 12009156337, "lat": 10.558064, "lon": 123.1954996}, {"type": "node", "id": 12009156338, "lat": 10.5579914, "lon": 123.1954715}, {"type": "node", "id": 12009156339, "lat": 10.5580266, "lon": 123.1953776}, {"type": "node", "id": 12009156340, "lat": 10.5580991, "lon": 123.1954057}, {"type": "node", "id": 12026666721, "lat": 10.6148843, "lon": 123.2940324}, {"type": "node", "id": 12026666722, "lat": 10.6148107, "lon": 123.2940119}, {"type": "node", "id": 12026666723, "lat": 10.6148023, "lon": 123.2940431}, {"type": "node", "id": 12026666724, "lat": 10.6147788, "lon": 123.2940365}, {"type": "node", "id": 12026666725, "lat": 10.614765, "lon": 123.2940878}, {"type": "node", "id": 12026666726, "lat": 10.6148621, "lon": 123.2941148}, {"type": "node", "id": 12027276007, "lat": 10.5603152, "lon": 123.1393247}, {"type": "node", "id": 12027276008, "lat": 10.5603083, "lon": 123.1394282}, {"type": "node", "id": 12027276009, "lat": 10.5602155, "lon": 123.1394218}, {"type": "node", "id": 12027276010, "lat": 10.5602225, "lon": 123.1393182}, {"type": "node", "id": 12122200799, "lat": 10.5812742, "lon": 123.1421842}, {"type": "node", "id": 12122200800, "lat": 10.5812563, "lon": 123.1422462}, {"type": "node", "id": 12122232501, "lat": 10.5812167, "lon": 123.1422343}, {"type": "node", "id": 12122232502, "lat": 10.5812009, "lon": 123.1422888}, {"type": "node", "id": 12122232503, "lat": 10.5811194, "lon": 123.1422644}, {"type": "node", "id": 12122232504, "lat": 10.5811531, "lon": 123.142148}, {"type": "node", "id": 12440390938, "lat": 10.6081318, "lon": 123.1365882}, {"type": "node", "id": 12440390939, "lat": 10.6080786, "lon": 123.1365754}, {"type": "node", "id": 12440390940, "lat": 10.6080974, "lon": 123.1364944}, {"type": "node", "id": 12440390941, "lat": 10.6081506, "lon": 123.1365072}, {"type": "way", "id": 389823138, "nodes": [3929805678, 3929805679, 7965430771, 3929805681, 3929805678], "tags": {"addr:city": "Canlaon", "addr:postcode": "6223", "admin_level": "10", "amenity": "townhall", "building": "public", "government": "administrative", "name": "Lumapao Barangay Hall", "office": "government", "operator": "Lumapao Barangay Government", "townhall:type": "barangay"}}, {"type": "way", "id": 502057436, "nodes": [4926486909, 4926486906, 4926486907, 4926486908, 4926486909], "tags": {"addr:city": "San Carlos", "addr:place": "Nataban", "admin_level": "10", "amenity": "townhall", "building": "civic", "name": "Bahay Pamahalaan ng Barangay Nataban", "name:en": "Nataban Barangay Hall", "name:fil": "Bahay Pamahalaan ng Barangay Nataban", "townhall:type": "barangay"}}, {"type": "way", "id": 616463480, "nodes": [4421901791, 5828360861, 5828360860, 5828360859, 4421901791], "tags": {"addr:municipality": "Don Salvador Benedicto", "addr:postcode": "6117", "addr:province": "Negros Occidental", "addr:village": "Igmaya-an", "amenity": "townhall", "building": "civic", "government": "administrative", "name": "Don Salvador Benedicto Municipal Hall", "name:en": "Municipality of Don Salvador Benedicto", "office": "government", "opening_hours": "24/7", "operator": "Don Salvador Benedicto LGU", "townhall:type": "town"}}, {"type": "way", "id": 1010269326, "nodes": [9321485159, 9321485160, 9321485161, 9321485162, 9321485163, 9321485164, 9321485165, 9321485159], "tags": {"amenity": "shelter", "bin": "yes", "building": "yes", "lit": "yes", "name": "Tourism (Inhale.Exhale Shed) Feel the Air", "operator": "D.O.T.", "shelter_type": "picnic_shelter"}}, {"type": "way", "id": 1065809845, "nodes": [9787620938, 9787620939, 9787620940, 9787620941, 9787620938], "tags": {"addr:city": "Canlaon", "addr:place": "Bayog", "addr:postcode": "6223", "admin_level": "10", "amenity": "townhall", "building": "civic", "building:levels": "1", "name": "Bayog Barangay Hall", "operator": "Bayog Barangay Government", "townhall:type": "barangay"}}, {"type": "way", "id": 1191533664, "nodes": [11062728886, 11062728887, 11062728888, 11062728889, 11062728886], "tags": {"addr:city": "Canlaon", "addr:district": "Malaiba", "addr:postcode": "6223", "addr:province": "Negros Oriental", "admin_level": "10", "amenity": "townhall", "building": "public", "building:levels": "1", "name": "Malaiba Barangay Hall", "operator": "Malaiba Barangay Government", "townhall:type": "barangay"}}, {"type": "way", "id": 1294968467, "nodes": [12000754233, 12000754230, 12000754231, 12000754232, 12000754233], "tags": {"addr:city": "Don Salvador Benedicto", "addr:district": "Bunga", "addr:postcode": "6117", "addr:province": "Negros Occidental", "admin_level": "10", "amenity": "townhall", "building": "public", "building:levels": "1", "name": "Bunga Barangay Hall", "operator": "Bunga BLGU", "townhall:type": "barangay"}}, {"type": "way", "id": 1295625717, "nodes": [12005826333, 12005826332, 12005826331, 12005826330, 12005826333], "tags": {"addr:place": "Bunga", "amenity": "fuel", "brand": "Phoenix", "brand:wikidata": "Q7186949", "bubbleid": "298113570", "building": "yes", "name": "Phoenix"}}, {"type": "way", "id": 1295998966, "nodes": [12009156340, 12009156337, 12009156338, 12009156339, 12009156340], "tags": {"addr:municipality": "Don Salvador Benedicto", "addr:place": "Igmaya-an", "admin_level": "10", "amenity": "townhall", "building": "civic", "name": "Bahay Pamahalaan ng Barangay Igmaya-an", "name:en": "Igmaya-an Barangay Hall", "name:fil": "Bahay Pamahalaan ng Barangay Igmaya-an", "townhall:type": "barangay"}}, {"type": "way", "id": 1298181970, "nodes": [12026666721, 12026666722, 12026666723, 12026666724, 12026666725, 12026666726, 12026666721], "tags": {"addr:city": "Don Salvador Benedicto", "addr:district": "Bagong Silang", "addr:postcode": "6117", "addr:province": "Negros Occidental", "admin_level": "10", "amenity": "townhall", "building": "public", "building:levels": "1", "name": "Bagong Silang Barangay Hall", "operator": "Bagong Silang BLGU", "townhall:type": "barangay"}}, {"type": "way", "id": 1298249944, "nodes": [12027276007, 12027276008, 12027276009, 12027276010, 12027276007], "tags": {"addr:city": "Murcia", "addr:district": "Pandanon Silos", "addr:postcode": "6129", "addr:province": "Negros Occidental", "admin_level": "10", "amenity": "townhall", "building": "public", "building:levels": "2", "name": "Pandanon Silos Barangay Hall", "operator": "Pandanon Silos BLGU", "townhall:type": "barangay"}}, {"type": "way", "id": 1309036922, "nodes": [12122200799, 12122200800, 12122232501, 12122232502, 12122232503, 12122232504, 12122200799], "tags": {"addr:city": "Murcia", "addr:district": "Amayco", "addr:postcode": "6129", "addr:province": "Negros Occidental", "admin_level": "10", "amenity": "townhall", "building": "public", "building:levels": "2", "name": "Amayco Barangay Hall", "operator": "Amayco BLGU", "townhall:type": "barangay"}}, {"type": "way", "id": 1344693449, "nodes": [12440390938, 12440390939, 12440390940, 12440390941, 12440390938], "tags": {"addr:city": "Murcia", "addr:district": "Canlandog", "addr:postcode": "6129", "addr:province": "Negros Occidental", "admin_level": "10", "amenity": "townhall", "building": "public", "building:levels": "2", "name": "Canlandog Barangay Hall", "operator": "Canlandog BLGU", "townhall:type": "barangay"}}]}