{"version": 0.6, "generator": "Overpass API 0.7.62.8 e802775f", "osm3s": {"timestamp_osm_base": "2025-10-13T13:46:35Z", "copyright": "The data included in this document is from www.openstreetmap.org. The data is made available under ODbL."}, "elements": [{"type": "node", "id": 4177458514, "lat": -2.2118074, "lon": -78.1650936, "tags": {"addr:street": "6 de Septiembre", "amenity": "school", "name": "Colegio Procer Jos\u00e9 Cuero y Caicedo", "opening_hours": "Mo-Fr 06:00-15:00"}}, {"type": "node", "id": 4190905990, "lat": -2.2130221, "lon": -78.163126, "tags": {"addr:street": "Barrio La Primavera", "amenity": "kindergarten", "name": "CIBV Los Traviesitos", "opening_hours": "Mo-Fr 07:00-16:00"}}, {"type": "node", "id": 4190907892, "lat": -2.2153284, "lon": -78.1653772, "tags": {"amenity": "school", "name": "Escuela Fiscomisional Dr. Jose Ricardo Mart\u00ednez Cobo"}}, {"type": "node", "id": 4190916489, "lat": -2.2118244, "lon": -78.1650174, "tags": {"addr:street": "6 de Septiembre", "amenity": "school", "name": "Colegio Procer Cuero y Caicedo", "opening_hours": "Mo-Fr 07:00-15:00"}}, {"type": "node", "id": 4190919489, "lat": -2.215969, "lon": -78.1658666, "tags": {"addr:street": "Barrio Occidental", "amenity": "kindergarten", "name": "CEI  Pulgarcitos", "opening_hours": "Mo-Fr 07:00-16:00"}}, {"type": "node", "id": 9958560917, "lat": -2.1509233, "lon": -78.0841419, "tags": {"amenity": "school", "grades": "1-7", "name": "CENTRO EDUCATIVO COMUNITARIO INTERCULTURAL BILING\u00dcE RIO UPANO"}}]}