{"version": 0.6, "generator": "Overpass API 0.7.62.8 e802775f", "osm3s": {"timestamp_osm_base": "2025-10-16T10:29:37Z", "copyright": "The data included in this document is from www.openstreetmap.org. The data is made available under ODbL."}, "elements": [{"type": "node", "id": 448090120, "lat": -7.421571, "lon": 109.97183, "tags": {"amenity": "fuel"}}, {"type": "node", "id": 448090121, "lat": -7.379492, "lon": 109.9514661, "tags": {"addr:city": "Wonosobo", "addr:street": "Jalan Raya Kertek", "amenity": "fuel", "name": "SPBU Siyono Kertek"}}, {"type": "node", "id": 448090122, "lat": -7.322641, "lon": 109.912522, "tags": {"amenity": "fuel"}}, {"type": "node", "id": 2537043389, "lat": -7.3572908, "lon": 109.9036108}, {"type": "node", "id": 2537043390, "lat": -7.3573246, "lon": 109.9036874}, {"type": "node", "id": 2537043392, "lat": -7.3572598, "lon": 109.9037165}, {"type": "node", "id": 2537043393, "lat": -7.3572858, "lon": 109.9037754}, {"type": "node", "id": 2537043394, "lat": -7.3570994, "lon": 109.9038589}, {"type": "node", "id": 2537043395, "lat": -7.3570747, "lon": 109.9038027}, {"type": "node", "id": 2537043396, "lat": -7.3570303, "lon": 109.9038226}, {"type": "node", "id": 2537043397, "lat": -7.3570542, "lon": 109.9038769}, {"type": "node", "id": 2537043398, "lat": -7.3567992, "lon": 109.9039912}, {"type": "node", "id": 2537043399, "lat": -7.3566918, "lon": 109.9037478}, {"type": "node", "id": 2537043400, "lat": -7.3568811, "lon": 109.9036629}, {"type": "node", "id": 2537043402, "lat": -7.3569128, "lon": 109.9037349}, {"type": "node", "id": 2537043403, "lat": -7.3570351, "lon": 109.9036801}, {"type": "node", "id": 2537043404, "lat": -7.3570126, "lon": 109.903629}, {"type": "node", "id": 2537043405, "lat": -7.3571982, "lon": 109.9035458}, {"type": "node", "id": 2537043406, "lat": -7.3572374, "lon": 109.9036347}, {"type": "node", "id": 2602421831, "lat": -7.3345238, "lon": 110.0374264, "tags": {"amenity": "fuel"}}, {"type": "node", "id": 2751366043, "lat": -7.2707419, "lon": 110.0908129}, {"type": "node", "id": 2751366044, "lat": -7.2705391, "lon": 110.0910993}, {"type": "node", "id": 2751366045, "lat": -7.270827, "lon": 110.0913064}, {"type": "node", "id": 2751366047, "lat": -7.2710319, "lon": 110.091037}, {"type": "node", "id": 3458636578, "lat": -7.3643672, "lon": 109.9176694, "tags": {"amenity": "fuel", "name": "POM Bensin Ngasinan"}}, {"type": "node", "id": 3458636580, "lat": -7.3758697, "lon": 109.8995628, "tags": {"amenity": "fuel", "name": "POM Bensin Singkir"}}, {"type": "node", "id": 3463005668, "lat": -7.2259754, "lon": 110.058686, "tags": {"amenity": "fuel", "name": "SPBU"}}, {"type": "node", "id": 3679964108, "lat": -7.220174, "lon": 109.9056488}, {"type": "node", "id": 3679964115, "lat": -7.2206123, "lon": 109.9057054, "tags": {"amenity": "shelter"}}, {"type": "node", "id": 3743880746, "lat": -7.2201327, "lon": 109.9056655}, {"type": "node", "id": 3743880749, "lat": -7.220191, "lon": 109.905691}, {"type": "node", "id": 3752406052, "lat": -7.2027365, "lon": 109.9024141}, {"type": "node", "id": 3752406056, "lat": -7.2027625, "lon": 109.9025074}, {"type": "node", "id": 3752406069, "lat": -7.2029051, "lon": 109.9023664}, {"type": "node", "id": 3752406070, "lat": -7.2029311, "lon": 109.9024597}, {"type": "node", "id": 4063417075, "lat": -7.2037036, "lon": 109.9113049, "tags": {"amenity": "doctors", "name": "Public health centre", "opening_hours": "Mo-Su 07:30-14:00"}}, {"type": "node", "id": 4346677689, "lat": -7.2015158, "lon": 109.9131294, "tags": {"amenity": "shelter", "name": "Basecamp Dieng"}}, {"type": "node", "id": 5026611695, "lat": -7.2837521, "lon": 110.1114567}, {"type": "node", "id": 5026611696, "lat": -7.2840309, "lon": 110.1116323}, {"type": "node", "id": 5026611697, "lat": -7.2841654, "lon": 110.111392}, {"type": "node", "id": 5026611698, "lat": -7.2839937, "lon": 110.1110201}, {"type": "node", "id": 5263191516, "lat": -7.3385284, "lon": 109.9154189, "tags": {"amenity": "shelter", "name": "Perumahan Permata Hijau"}}, {"type": "node", "id": 5263243856, "lat": -7.4009355, "lon": 109.8892315, "tags": {"amenity": "fuel", "name": "SPBU"}}, {"type": "node", "id": 5263243857, "lat": -7.3998796, "lon": 109.8903821, "tags": {"amenity": "shelter"}}, {"type": "node", "id": 5570247622, "lat": -7.3622868, "lon": 110.0493878, "tags": {"amenity": "shelter", "name:en": "Pos 1 (basic shelter)"}}, {"type": "node", "id": 5968057481, "lat": -7.3619357, "lon": 109.9120878, "tags": {"amenity": "fuel", "name": "SPBU"}}, {"type": "node", "id": 6376848038, "lat": -7.2915211, "lon": 109.9935128}, {"type": "node", "id": 6376848039, "lat": -7.2915603, "lon": 109.9935511}, {"type": "node", "id": 6376848040, "lat": -7.2915883, "lon": 109.9935219}, {"type": "node", "id": 6376848041, "lat": -7.291549, "lon": 109.9934837}, {"type": "node", "id": 6394573875, "lat": -7.310721, "lon": 110.0073232, "tags": {"amenity": "shelter", "name": "Pos 3"}}, {"type": "node", "id": 6407188447, "lat": -7.220174, "lon": 109.9056487}, {"type": "node", "id": 6407188448, "lat": -7.2201497, "lon": 109.9057078}, {"type": "node", "id": 6417367448, "lat": -7.2391061, "lon": 109.9246918}, {"type": "node", "id": 6417367449, "lat": -7.2391334, "lon": 109.9246925}, {"type": "node", "id": 6417367450, "lat": -7.2391338, "lon": 109.9246763}, {"type": "node", "id": 6417367451, "lat": -7.2391065, "lon": 109.9246757}, {"type": "node", "id": 6417367452, "lat": -7.239072, "lon": 109.9247361}, {"type": "node", "id": 6417367453, "lat": -7.2391039, "lon": 109.9247375}, {"type": "node", "id": 6417367454, "lat": -7.2391052, "lon": 109.9247065}, {"type": "node", "id": 6417367455, "lat": -7.2390733, "lon": 109.9247052}, {"type": "node", "id": 6866243886, "lat": -7.2097765, "lon": 109.9242343, "tags": {"amenity": "fuel", "name:en": "Gas"}}, {"type": "node", "id": 9002680601, "lat": -7.3585527, "lon": 109.9056956, "tags": {"addr:city": "Wonosobo", "addr:postcode": "56314", "addr:street": "Jalan Sabuk Alu", "amenity": "dentist", "healthcare": "dentist", "name": "Dokter Gigi Ety N"}}, {"type": "node", "id": 9002705135, "lat": -7.3579969, "lon": 109.9058103}, {"type": "node", "id": 9002705136, "lat": -7.3581013, "lon": 109.9057915}, {"type": "node", "id": 9002705137, "lat": -7.3581399, "lon": 109.9059317}, {"type": "node", "id": 9002705138, "lat": -7.3580381, "lon": 109.9059565}, {"type": "node", "id": 9002705139, "lat": -7.3580248, "lon": 109.9059585}, {"type": "node", "id": 9002705140, "lat": -7.3579989, "lon": 109.9058284}, {"type": "node", "id": 9002705141, "lat": -7.3580581, "lon": 109.9058626, "tags": {"addr:city": "Wonosobo", "addr:postcode": "56314", "addr:street": "Jalan Sabuk Alu", "amenity": "dentist", "healthcare": "dentist", "name": "Dokter Gigi Purnomo Hadi"}}, {"type": "node", "id": 10807958422, "lat": -7.2036851, "lon": 109.9324368, "tags": {"amenity": "shelter", "name": "Pos 3 Cacingan"}}, {"type": "node", "id": 10807958423, "lat": -7.2068284, "lon": 109.9299404, "tags": {"amenity": "shelter", "name": "Pos 2 Cangal Walangan"}}, {"type": "node", "id": 10807958424, "lat": -7.2096, "lon": 109.9293557, "tags": {"amenity": "shelter", "name": "Pos 1 Sikut Dewo"}}, {"type": "node", "id": 10865871197, "lat": -7.2123706, "lon": 109.9406517, "tags": {"amenity": "shelter", "name": "Pos 2 Bukit Cendani"}}, {"type": "node", "id": 10865871198, "lat": -7.2235331, "lon": 109.9517797, "tags": {"amenity": "shelter", "name": "Basecamp Igirmranak"}}, {"type": "node", "id": 10865871199, "lat": -7.2253571, "lon": 109.9596511, "tags": {"amenity": "shelter", "name": "Basecamp Wates"}}, {"type": "node", "id": 10865871200, "lat": -7.216423, "lon": 109.9456779, "tags": {"amenity": "shelter", "name": "Pos 1 Curung Gamelan"}}, {"type": "node", "id": 10865871201, "lat": -7.2097585, "lon": 109.9409833, "tags": {"amenity": "shelter", "name": "Pos 3 Roto Dowo"}}, {"type": "node", "id": 10865871202, "lat": -7.210301, "lon": 109.9448421, "tags": {"amenity": "shelter", "name": "Pos 3 Sudung Dewo"}}, {"type": "node", "id": 10865871203, "lat": -7.2111852, "lon": 109.9491781, "tags": {"amenity": "shelter", "name": "Pos 2 Cemaran"}}, {"type": "node", "id": 10865871204, "lat": -7.2146267, "lon": 109.9520913, "tags": {"amenity": "shelter", "name": "Pos 1 Blumbang Kodok"}}, {"type": "node", "id": 11048971805, "lat": -7.2336358, "lon": 109.8910676, "tags": {"amenity": "shelter", "name": "Pos 1 Tunggal Negara"}}, {"type": "node", "id": 11048971806, "lat": -7.2349646, "lon": 109.8892343, "tags": {"amenity": "shelter", "name": "Pos 2 Padmahariwangsa"}}, {"type": "node", "id": 11048971807, "lat": -7.2366585, "lon": 109.8899243, "tags": {"amenity": "shelter", "name": "Pos 2 Padmahariwangsa"}}, {"type": "node", "id": 11048971809, "lat": -7.2390719, "lon": 109.8888078, "tags": {"amenity": "shelter", "name": "Puncak Indraprasta", "natural": "peak"}}, {"type": "node", "id": 11048971810, "lat": -7.2437124, "lon": 109.8875324, "tags": {"amenity": "shelter", "name": "Simpang Pulosari"}}, {"type": "node", "id": 11048971812, "lat": -7.2499852, "lon": 109.890216, "tags": {"amenity": "shelter", "name": "Pos 4 Swetaria"}}, {"type": "node", "id": 11048971813, "lat": -7.2528289, "lon": 109.8890814, "tags": {"amenity": "shelter", "name": "Pos 3 Sigandul"}}, {"type": "node", "id": 11048971814, "lat": -7.2570654, "lon": 109.8873648, "tags": {"amenity": "shelter", "name": "Pos 2 Gangga Putra"}}, {"type": "node", "id": 11048971815, "lat": -7.2632489, "lon": 109.8866004, "tags": {"amenity": "shelter", "name": "Pos 1 Giriposong"}}, {"type": "node", "id": 11056227100, "lat": -7.3043626, "lon": 110.0013131, "tags": {"amenity": "shelter", "name": "Pos 4"}}, {"type": "node", "id": 11056227101, "lat": -7.3079768, "lon": 110.0025482, "tags": {"amenity": "shelter", "name": "Pos 4"}}, {"type": "node", "id": 11056227102, "lat": -7.3104962, "lon": 110.0059721, "tags": {"amenity": "shelter"}}, {"type": "node", "id": 11056227103, "lat": -7.3119262, "lon": 110.0060955, "tags": {"amenity": "shelter", "name": "Pos 3"}}, {"type": "node", "id": 11056227104, "lat": -7.3120752, "lon": 110.0111514, "tags": {"amenity": "shelter", "name": "Watu Longko"}}, {"type": "node", "id": 11056237905, "lat": -7.3159793, "lon": 110.0092886, "tags": {"amenity": "shelter", "name": "Pos 2"}}, {"type": "node", "id": 11056237906, "lat": -7.3190733, "lon": 110.0155207, "tags": {"amenity": "shelter", "name": "Pos 1.5"}}, {"type": "node", "id": 11056237907, "lat": -7.3212268, "lon": 110.0118273, "tags": {"amenity": "shelter", "name": "Pos 1"}}, {"type": "node", "id": 11056237908, "lat": -7.323971, "lon": 110.0206733, "tags": {"amenity": "shelter", "name": "Pos 1"}}, {"type": "node", "id": 11056237909, "lat": -7.2997773, "lon": 109.9990225, "tags": {"amenity": "shelter"}}, {"type": "node", "id": 11056237910, "lat": -7.2990976, "lon": 110.0054008, "tags": {"amenity": "shelter"}}, {"type": "node", "id": 11056237911, "lat": -7.2967723, "lon": 110.0099216, "tags": {"amenity": "shelter"}}, {"type": "node", "id": 11056237912, "lat": -7.2939921, "lon": 110.0140563, "tags": {"amenity": "shelter", "name": "Pos 3 Tunggangan"}}, {"type": "node", "id": 11056237913, "lat": -7.2930795, "lon": 110.0195729, "tags": {"amenity": "shelter", "name": "Pos 2 Turunan"}}, {"type": "node", "id": 11056237914, "lat": -7.2897392, "lon": 110.0270382, "tags": {"amenity": "shelter", "name": "Pos 1"}}, {"type": "node", "id": 11056238586, "lat": -7.2953875, "lon": 109.9889508, "tags": {"amenity": "shelter", "name": "Pos 3 Aradana"}}, {"type": "node", "id": 11056238587, "lat": -7.2930622, "lon": 109.9841872, "tags": {"amenity": "shelter", "name": "Pos 2 Dewi Ayu"}}, {"type": "node", "id": 11056238588, "lat": -7.2901357, "lon": 109.980526, "tags": {"amenity": "shelter", "name": "Pos Bayangan"}}, {"type": "node", "id": 11056238589, "lat": -7.2866025, "lon": 109.9761191, "tags": {"amenity": "shelter", "name": "Pos Kayon Ombo"}}, {"type": "node", "id": 11056238591, "lat": -7.2982648, "lon": 109.9913547, "tags": {"amenity": "shelter", "name": "Pos 4 Ngoro Mahawira"}}, {"type": "node", "id": 11056238592, "lat": -7.2979077, "lon": 109.98859, "tags": {"amenity": "shelter", "name": "Tanjakan Mertua"}}, {"type": "node", "id": 11056238593, "lat": -7.2974294, "lon": 109.9870893, "tags": {"amenity": "shelter", "name": "Pos 3 Watu Putih"}}, {"type": "node", "id": 11056238594, "lat": -7.297903, "lon": 109.9776775, "tags": {"amenity": "shelter", "name": "Pos 2"}}, {"type": "node", "id": 11056238595, "lat": -7.2976542, "lon": 109.9705971, "tags": {"amenity": "shelter", "name": "Pos 1"}}, {"type": "node", "id": 11056238835, "lat": -7.2968225, "lon": 109.9938307, "tags": {"amenity": "shelter", "name": "Padang Batu"}}, {"type": "node", "id": 11056238836, "lat": -7.2954274, "lon": 109.9937171, "tags": {"amenity": "shelter", "name": "Gardu Pandang"}}, {"type": "node", "id": 11056238837, "lat": -7.2933642, "lon": 109.9941885, "tags": {"amenity": "shelter", "name": "Pos 4"}}, {"type": "node", "id": 11056238838, "lat": -7.2898936, "lon": 109.9929875, "tags": {"amenity": "shelter", "name": "Pos 3"}}, {"type": "node", "id": 11056238839, "lat": -7.2806561, "lon": 109.9883801, "tags": {"amenity": "shelter", "name": "Pos 2"}}, {"type": "node", "id": 11056238840, "lat": -7.2741995, "lon": 109.9876305, "tags": {"amenity": "shelter", "name": "Pos 1"}}, {"type": "node", "id": 11056238841, "lat": -7.2718442, "lon": 109.9858676, "tags": {"amenity": "shelter", "name": "Basecamp Sigedang"}}, {"type": "node", "id": 11057159883, "lat": -7.3054467, "lon": 109.9937707, "tags": {"amenity": "shelter", "name": "Pos 4"}}, {"type": "node", "id": 11057159884, "lat": -7.3096449, "lon": 109.9939558, "tags": {"amenity": "shelter", "name": "Sunrise Area"}}, {"type": "node", "id": 11057159885, "lat": -7.312159, "lon": 109.9928963, "tags": {"amenity": "shelter", "name": "Camp Site"}}, {"type": "node", "id": 11057159886, "lat": -7.3137126, "lon": 109.9918932, "tags": {"amenity": "shelter", "name": "Pos 3"}}, {"type": "node", "id": 11057159887, "lat": -7.3166058, "lon": 109.9890541, "tags": {"amenity": "shelter", "name": "Pos 2"}}, {"type": "node", "id": 11057159888, "lat": -7.3207599, "lon": 109.9896052, "tags": {"amenity": "shelter", "name": "Sabana 1"}}, {"type": "node", "id": 11057159889, "lat": -7.3250544, "lon": 109.9897333, "tags": {"amenity": "shelter", "name": "Pos 1"}}, {"type": "node", "id": 11057159890, "lat": -7.3276954, "lon": 109.9877894, "tags": {"amenity": "shelter", "name": "Pintu Rimba"}}, {"type": "node", "id": 11067420896, "lat": -7.3841734, "lon": 110.0652469, "tags": {"amenity": "shelter", "name": "Camp Kandang Kidang", "tourism": "camp_site"}}, {"type": "node", "id": 11067420897, "lat": -7.3844387, "lon": 110.0613302, "tags": {"amenity": "shelter", "name": "Pos 3 Gajah Muingkur"}}, {"type": "node", "id": 11067420898, "lat": -7.38286, "lon": 110.0544691, "tags": {"amenity": "shelter", "name": "Pos 2 Kayu Sawa"}}, {"type": "node", "id": 11067420899, "lat": -7.3837099, "lon": 110.0448601, "tags": {"amenity": "shelter", "name": "Pos 1 Sengaran"}}, {"type": "node", "id": 11067478289, "lat": -7.3992199, "lon": 110.0858245, "tags": {"amenity": "shelter", "name": "Pos 2 Siruwet Gunung"}}, {"type": "node", "id": 11067478290, "lat": -7.4039012, "lon": 110.0887558, "tags": {"amenity": "shelter", "name": "Pos Bayangan"}}, {"type": "node", "id": 11067478291, "lat": -7.4071974, "lon": 110.0940384, "tags": {"amenity": "shelter", "name": "Pos 1 Kongsen"}}, {"type": "node", "id": 11067478292, "lat": -7.4014754, "lon": 110.0951743, "tags": {"amenity": "shelter", "name": "Pos 1 Hutan Cemara"}}, {"type": "node", "id": 11067478293, "lat": -7.392475, "lon": 110.0916506, "tags": {"amenity": "shelter", "name": "Watumeja"}}, {"type": "node", "id": 11067478294, "lat": -7.3759613, "lon": 110.0921381, "tags": {"amenity": "shelter", "name": "Pos"}}, {"type": "node", "id": 11067478295, "lat": -7.3709152, "lon": 110.1015097, "tags": {"amenity": "shelter", "name": "Pos Sikeleteng"}}, {"type": "node", "id": 11067478296, "lat": -7.3842824, "lon": 110.0832968, "tags": {"amenity": "shelter", "name": "Pos 4 Pohon Tunggal"}}, {"type": "node", "id": 11067478297, "lat": -7.391687, "lon": 110.0846373, "tags": {"amenity": "shelter", "name": "Pos 3"}}, {"type": "node", "id": 11067478298, "lat": -7.4001628, "lon": 110.0766577, "tags": {"amenity": "shelter", "name": "Pos 2"}}, {"type": "node", "id": 11067478299, "lat": -7.4074348, "lon": 110.0776675, "tags": {"amenity": "shelter", "name": "Pos 1"}}, {"type": "node", "id": 11067478300, "lat": -7.3741858, "lon": 110.0660864, "tags": {"amenity": "shelter", "name": "Pasar Watu"}}, {"type": "node", "id": 11067478301, "lat": -7.371797, "lon": 110.0618653, "tags": {"amenity": "shelter", "name": "Pos Pestan"}}, {"type": "node", "id": 11067478302, "lat": -7.3533879, "lon": 110.0832519, "tags": {"amenity": "shelter", "name": "Aula Pendaki Cepit"}}, {"type": "node", "id": 12098088485, "lat": -7.3345554, "lon": 110.0376427}, {"type": "node", "id": 12098088486, "lat": -7.3348082, "lon": 110.0374282}, {"type": "node", "id": 12098088487, "lat": -7.3345731, "lon": 110.0370449}, {"type": "node", "id": 12098088488, "lat": -7.3342349, "lon": 110.0372424}, {"type": "node", "id": 12098088489, "lat": -7.3348328, "lon": 110.0374035}, {"type": "way", "id": 246698252, "nodes": [2537043389, 2537043390, 2537043392, 2537043393, 2537043394, 2537043395, 2537043396, 2537043397, 2537043398, 2537043399, 2537043400, 2537043402, 2537043403, 2537043404, 2537043405, 2537043406, 2537043389], "tags": {"addr:city": "Wonosobo", "addr:postcode": "56311", "amenity": "townhall", "building": "yes", "building:levels": "1", "name": "Pendopo Kabupaten Wonosobo"}}, {"type": "way", "id": 270039324, "nodes": [2751366043, 2751366044, 2751366045, 2751366047, 2751366043], "tags": {"amenity": "fuel", "building": "yes", "name": "SPBU"}}, {"type": "way", "id": 370692341, "nodes": [3743880749, 3679964108, 6407188447, 3743880746, 6407188448, 3743880749], "tags": {"amenity": "shelter", "building": "yes"}}, {"type": "way", "id": 371681790, "nodes": [3752406052, 3752406056, 3752406070, 3752406069, 3752406052], "tags": {"amenity": "fuel", "brand": "Pertamina", "brand:wikidata": "Q1641044", "brand:wikipedia": "en:Pertamina", "name": "Pertamina"}}, {"type": "way", "id": 514534381, "nodes": [5026611695, 5026611696, 5026611697, 5026611698, 5026611695], "tags": {"amenity": "fuel", "name": "SPBU 44-56205", "operator": "Pertamina"}}, {"type": "way", "id": 680988653, "nodes": [6376848041, 6376848038, 6376848039, 6376848040, 6376848041], "tags": {"amenity": "shelter", "building": "hut", "name": "Pos Pendakian", "shelter_type": "lean_to"}}, {"type": "way", "id": 684911691, "nodes": [6417367451, 6417367448, 6417367449, 6417367450, 6417367451], "tags": {"amenity": "shelter", "building": "yes"}}, {"type": "way", "id": 684911692, "nodes": [6417367455, 6417367452, 6417367453, 6417367454, 6417367455], "tags": {"amenity": "shelter", "building": "yes", "name": "Gardu Pandang Sikunir", "tourism": "attraction"}}, {"type": "way", "id": 972718246, "nodes": [9002705135, 9002705136, 9002705137, 9002705138, 9002705139, 9002705140, 9002705135], "tags": {"amenity": "dentist", "building": "yes", "healthcare": "dentist"}}, {"type": "way", "id": 1306275790, "nodes": [12098088486, 12098088485, 12098088488, 12098088487, 12098088489, 12098088486], "tags": {"amenity": "fuel", "brand": "SPBU Pertamina", "name": "SPBU Pertamina 44.562.11 Kledung", "opening_hours": "24/7"}}]}