{"version": 0.6, "generator": "Overpass API 0.7.62.8 e802775f", "osm3s": {"timestamp_osm_base": "2025-09-30T10:58:12Z", "copyright": "The data included in this document is from www.openstreetmap.org. The data is made available under ODbL."}, "elements": [{"type": "node", "id": 3753846325, "lat": -4.0540516, "lon": 103.2937587}, {"type": "node", "id": 3753846326, "lat": -4.054064, "lon": 103.2938738}, {"type": "node", "id": 3753846327, "lat": -4.0543517, "lon": 103.2938425}, {"type": "node", "id": 3753846328, "lat": -4.0543367, "lon": 103.2937243}, {"type": "node", "id": 7645370359, "lat": -4.0541692, "lon": 103.2938624}, {"type": "node", "id": 7645370360, "lat": -4.0541566, "lon": 103.293746}, {"type": "node", "id": 7654826969, "lat": -4.0242317, "lon": 103.2551725, "tags": {"addr:street": "jl kombes haji umar", "amenity": "bank", "description": "office of Bank rakyat indonesia pagar alam", "name": "Bank Bri", "opening_hours": "Mo, Fr 08:00-17:00"}}, {"type": "node", "id": 7654852635, "lat": -4.0171398, "lon": 103.2500203, "tags": {"amenity": "bank", "description": "bank pagar alam", "name": "Bank sumsel babel"}}, {"type": "node", "id": 7656060634, "lat": -4.0253049, "lon": 103.2392145, "tags": {"amenity": "townhall", "name": "Balai kota"}}, {"type": "node", "id": 7658089881, "lat": -4.0205671, "lon": 103.2506564, "tags": {"amenity": "bank", "name": "Bank BNI Ranting Pagar Alam", "opening_hours": "Mo, Fr 08:00-17:00"}}, {"type": "node", "id": 7658114765, "lat": -4.0206345, "lon": 103.2530013, "tags": {"amenity": "bank", "name": "Bank BCA Pagar alam", "opening_hours": "Mo, Fr 08:00-17:00"}}, {"type": "node", "id": 7687475601, "lat": -4.0295272, "lon": 103.2358242, "tags": {"amenity": "fuel", "description": "Pagar Alam", "name": "Pom Spbu Pertamina Air Perikan"}}, {"type": "node", "id": 9791511384, "lat": -4.0199916, "lon": 103.2527037, "tags": {"amenity": "bank", "brand": "BRI", "brand:wikidata": "Q623042", "name": "BRI", "official_name": "Bank Rakyat Indonesia"}}, {"type": "node", "id": 9791514825, "lat": -4.0338403, "lon": 103.2640984, "tags": {"amenity": "fuel", "name": "SPBU Simpang Manna"}}, {"type": "node", "id": 9791531857, "lat": -4.0175212, "lon": 103.2503175, "tags": {"amenity": "bank", "name": "Bank Sumsel"}}, {"type": "node", "id": 9791534423, "lat": -4.0201447, "lon": 103.2527555, "tags": {"amenity": "bank", "brand": "Bank Mandiri", "brand:wikidata": "Q806639", "name": "Bank Mandiri"}}, {"type": "node", "id": 9791538524, "lat": -4.0173731, "lon": 103.2509031, "tags": {"amenity": "bank", "name": "Bank BTPN"}}, {"type": "way", "id": 371840458, "nodes": [3753846325, 3753846326, 7645370359, 3753846327, 3753846328, 7645370360, 3753846325], "tags": {"amenity": "fuel", "brand": "Pertamina", "brand:wikidata": "Q1641044", "name": "SPBU Karang Dalo", "ref": "24.315.144"}}]}