{"version": 0.6, "generator": "Overpass API 0.7.62.8 e802775f", "osm3s": {"timestamp_osm_base": "2025-10-16T10:30:38Z", "copyright": "The data included in this document is from www.openstreetmap.org. The data is made available under ODbL."}, "elements": [{"type": "node", "id": 3552985587, "lat": -6.9497049, "lon": 110.1069518, "tags": {"addr:city": "kendal", "addr:postcode": "51356", "addr:street": "Jl. Raya Batang-Kendal", "amenity": "school", "name": "MTS NU 9 Gemuh"}}, {"type": "node", "id": 5163272123, "lat": -6.9329467, "lon": 110.0501575, "tags": {"addr:postcode": "53154", "addr:street": "Jalan Bahari Rt 01 Rw 03", "amenity": "school", "email": "lkp.daewon@gmail.com", "name:en": "LKP DAEWON", "name:ko": "\ub300\uc6d0 \ud559\uc6d0", "opening_hours": "24/7", "phone": "08112626656"}}, {"type": "node", "id": 5500154121, "lat": -7.0229254, "lon": 109.944288, "tags": {"addr:city": "Batang", "addr:postcode": "51271", "addr:street": "amongrogo", "amenity": "school", "name": "SMP N 3 Limpung", "operator": "Imania Jefri", "religion": "muslim"}}, {"type": "node", "id": 5951727151, "lat": -6.9683285, "lon": 110.0760446}, {"type": "node", "id": 5951727152, "lat": -6.9684195, "lon": 110.0762937}, {"type": "node", "id": 5951727153, "lat": -6.9685184, "lon": 110.076257}, {"type": "node", "id": 5951727154, "lat": -6.9684274, "lon": 110.0760079}, {"type": "node", "id": 5951727155, "lat": -6.9685563, "lon": 110.0762568}, {"type": "node", "id": 5951727156, "lat": -6.9686361, "lon": 110.0762264}, {"type": "node", "id": 5951727157, "lat": -6.9685551, "lon": 110.0760091}, {"type": "node", "id": 5951727158, "lat": -6.9684726, "lon": 110.0760408}, {"type": "node", "id": 5951727159, "lat": -6.9682341, "lon": 110.075794}, {"type": "node", "id": 5951727160, "lat": -6.9683281, "lon": 110.0760417}, {"type": "node", "id": 5951727161, "lat": -6.9684082, "lon": 110.0760108}, {"type": "node", "id": 5951727162, "lat": -6.9683142, "lon": 110.0757632}, {"type": "node", "id": 5951727163, "lat": -6.9684558, "lon": 110.0756783}, {"type": "node", "id": 5951727164, "lat": -6.9682623, "lon": 110.0757526}, {"type": "node", "id": 5951727165, "lat": -6.9682272, "lon": 110.0756597}, {"type": "node", "id": 5951727166, "lat": -6.9684207, "lon": 110.0755855}, {"type": "node", "id": 5953857769, "lat": -6.9566739, "lon": 110.0623321}, {"type": "node", "id": 5953857770, "lat": -6.9564862, "lon": 110.0623736}, {"type": "node", "id": 5953857771, "lat": -6.9564643, "lon": 110.0622623}, {"type": "node", "id": 5953857772, "lat": -6.9566481, "lon": 110.0622234}, {"type": "node", "id": 5953857773, "lat": -6.9566678, "lon": 110.0621379}, {"type": "node", "id": 5953857774, "lat": -6.9566971, "lon": 110.0623028}, {"type": "node", "id": 5953857775, "lat": -6.9567585, "lon": 110.0622918}, {"type": "node", "id": 5953857776, "lat": -6.9567293, "lon": 110.0621268}, {"type": "node", "id": 5953857777, "lat": -6.9564364, "lon": 110.0620458}, {"type": "node", "id": 5953857778, "lat": -6.9566787, "lon": 110.0620203}, {"type": "node", "id": 5953857779, "lat": -6.9566893, "lon": 110.0621228}, {"type": "node", "id": 5953857780, "lat": -6.956447, "lon": 110.0621483}, {"type": "node", "id": 6493296509, "lat": -7.0230146, "lon": 109.9443148, "tags": {"addr:city": "Batang", "addr:postcode": "51271", "addr:street": "amongrogo", "amenity": "school", "name": "SMP N 3 Limpung", "operator": "Imania Jefri", "religion": "muslim"}}, {"type": "node", "id": 6793615747, "lat": -7.2003003, "lon": 110.0247576}, {"type": "node", "id": 6793615748, "lat": -7.2000448, "lon": 110.0254013}, {"type": "node", "id": 6793615749, "lat": -7.2002098, "lon": 110.0254415}, {"type": "node", "id": 6793615750, "lat": -7.2004333, "lon": 110.0247978}, {"type": "node", "id": 8158518490, "lat": -7.0818083, "lon": 110.0424058, "tags": {"amenity": "school", "name": "SDN 1 KEBUMEN"}}, {"type": "node", "id": 8162975388, "lat": -7.0866137, "lon": 110.0394021, "tags": {"amenity": "school", "name": "SMK MUHAMMADIYAH 4"}}, {"type": "node", "id": 8163035754, "lat": -7.0817107, "lon": 110.0399849, "tags": {"amenity": "school", "name": "SDN 2 KEBUMEN"}}, {"type": "node", "id": 12452878652, "lat": -6.9757675, "lon": 109.8944764}, {"type": "node", "id": 12452878653, "lat": -6.9757707, "lon": 109.8953969}, {"type": "node", "id": 12452878654, "lat": -6.9766052, "lon": 109.8954343}, {"type": "node", "id": 12452878655, "lat": -6.9765455, "lon": 109.8944829}, {"type": "node", "id": 12452879661, "lat": -6.9760869, "lon": 109.8880192}, {"type": "node", "id": 12452879662, "lat": -6.9751107, "lon": 109.8884309}, {"type": "node", "id": 12452879663, "lat": -6.9752624, "lon": 109.8888326}, {"type": "node", "id": 12452879664, "lat": -6.9750886, "lon": 109.8890988}, {"type": "node", "id": 12452879665, "lat": -6.9750275, "lon": 109.8893059}, {"type": "node", "id": 12452879666, "lat": -6.9750935, "lon": 109.8894735}, {"type": "node", "id": 12452879667, "lat": -6.9751865, "lon": 109.8895795}, {"type": "node", "id": 12452879668, "lat": -6.9753749, "lon": 109.8896978}, {"type": "node", "id": 12452879669, "lat": -6.9763535, "lon": 109.8892615}, {"type": "node", "id": 12452879670, "lat": -6.9764343, "lon": 109.8893774}, {"type": "node", "id": 12452879671, "lat": -6.9768306, "lon": 109.8892048}, {"type": "node", "id": 12452879672, "lat": -6.9761627, "lon": 109.8879872}, {"type": "node", "id": 12452879673, "lat": -6.9765472, "lon": 109.8883839}, {"type": "node", "id": 12452879674, "lat": -6.9763211, "lon": 109.8884597}, {"type": "node", "id": 12468569167, "lat": -6.9738241, "lon": 109.881381}, {"type": "node", "id": 12468569168, "lat": -6.9744077, "lon": 109.8822436}, {"type": "node", "id": 12468569169, "lat": -6.9747101, "lon": 109.8821557}, {"type": "node", "id": 12468569170, "lat": -6.974265, "lon": 109.8812437}, {"type": "node", "id": 12483524826, "lat": -6.9926146, "lon": 109.9032845}, {"type": "node", "id": 12483524827, "lat": -6.9930193, "lon": 109.903806}, {"type": "node", "id": 12483524828, "lat": -6.9931961, "lon": 109.9037566}, {"type": "node", "id": 12483524829, "lat": -6.9931513, "lon": 109.9035721}, {"type": "node", "id": 12483524830, "lat": -6.9933387, "lon": 109.903527}, {"type": "node", "id": 12483524831, "lat": -6.9932301, "lon": 109.9031064}, {"type": "node", "id": 12588851070, "lat": -6.9781801, "lon": 109.9907072, "tags": {"amenity": "school", "grades": "1-6", "name": "SD Negeri Surodadi", "name:jv": "\ua9b1\ua9a2\ua9a4\ua9bc\ua992\ua9bc\ua9ab\ua9b6\ua9b1\ua9b8\ua9ab\ua9ba\ua9b4\ua9a2\ua9a2\ua9b6"}}, {"type": "node", "id": 12588851707, "lat": -6.9794474, "lon": 109.9919571, "tags": {"amenity": "school", "grades": "7-9", "name": "SMP Negeri 2 Gringsing", "name:jv": "\ua9b1\ua9a9\ua9a5\ua9a4\ua9bc\ua992\ua9bc\ua9ab\ua9b6\ua9c7\ua9d2\ua9c7\ua992\ua9bf\ua9b6\ua981\ua9b1\ua9b6\ua981"}}, {"type": "node", "id": 12761749322, "lat": -6.9746805, "lon": 109.9267001, "tags": {"amenity": "school", "grades": "10-12", "name": "SMK Diponegoro Banyuputih", "name:jv": "\ua9b1\ua9a9\ua98f\ua9a2\ua9b6\ua9a5\ua9ba\ua9b4\ua9a4\ua9bc\ua992\ua9ba\ua9b4\ua9ab\ua9ba\ua9b4\ua9a7\ua99a\ua9b8\ua9a5\ua9b8\ua9a0\ua9b6\ua983"}}, {"type": "way", "id": 630269513, "nodes": [5951727154, 5951727151, 5951727152, 5951727153, 5951727154], "tags": {"amenity": "school", "building": "yes", "name": "SD Negeri 3 Weleri"}}, {"type": "way", "id": 630269514, "nodes": [5951727158, 5951727155, 5951727156, 5951727157, 5951727158], "tags": {"amenity": "school", "building": "yes", "name": "SD Negeri 3 Weleri"}}, {"type": "way", "id": 630269515, "nodes": [5951727162, 5951727159, 5951727160, 5951727161, 5951727162], "tags": {"amenity": "school", "building": "yes", "name": "SD Negeri 3 Weleri"}}, {"type": "way", "id": 630269516, "nodes": [5951727166, 5951727165, 5951727164, 5951727163, 5951727166], "tags": {"amenity": "school", "building": "yes", "name": "SD Negeri 3 Weleri"}}, {"type": "way", "id": 630520797, "nodes": [5953857772, 5953857771, 5953857770, 5953857769, 5953857772], "tags": {"amenity": "school", "building": "school", "name": "SDN Pucuksari"}}, {"type": "way", "id": 630520798, "nodes": [5953857776, 5953857773, 5953857774, 5953857775, 5953857776], "tags": {"amenity": "school", "building": "school", "name": "SDN Pucuksari"}}, {"type": "way", "id": 630520799, "nodes": [5953857780, 5953857779, 5953857778, 5953857777, 5953857780], "tags": {"amenity": "school", "building": "school", "name": "SDN Pucuksari"}}, {"type": "way", "id": 724400011, "nodes": [6793615747, 6793615748, 6793615749, 6793615750, 6793615747], "tags": {"amenity": "school"}}, {"type": "way", "id": 1346358135, "nodes": [12452879661, 12452879662, 12452879663, 12452879664, 12452879665, 12452879666, 12452879667, 12452879668, 12452879669, 12452879670, 12452879671, 12452879673, 12452879674, 12452879672, 12452879661], "tags": {"amenity": "school", "name": "SMA N 1 Subah"}}, {"type": "way", "id": 1346358834, "nodes": [12452878652, 12452878653, 12452878654, 12452878655, 12452878652], "tags": {"addr:city": "Batang", "addr:district": "Subah", "addr:postcode": "51262", "addr:province": "Central Java", "addr:subdistrict": "Kalimanggis", "amenity": "school", "name": "SMP N 2 Subah"}}, {"type": "way", "id": 1347949605, "nodes": [12468569167, 12468569168, 12468569169, 12468569170, 12468569167], "tags": {"addr:city": "Batang", "addr:district": "Subah", "addr:postcode": "51262", "addr:province": "Central Java", "addr:subdistrict": "Jatisari", "amenity": "school", "name": "SMP N 1 Subah"}}, {"type": "way", "id": 1349464865, "nodes": [12483524826, 12483524827, 12483524828, 12483524829, 12483524830, 12483524831, 12483524826], "tags": {"addr:city": "Batang", "addr:district": "Subah", "addr:postcode": "51262", "addr:province": "Central Java", "addr:subdistrict": "Karangtengah", "amenity": "school", "name": "SMP N 3 Subah"}}]}