{"version": 0.6, "generator": "Overpass API 0.7.62.8 e802775f", "osm3s": {"timestamp_osm_base": "2025-10-14T08:49:59Z", "copyright": "The data included in this document is from www.openstreetmap.org. The data is made available under ODbL."}, "elements": [{"type": "node", "id": 5576307213, "lat": -16.0359, "lon": -71.8182, "tags": {"addr:district": "Huanca", "addr:full": "Anexo Tocroyo", "addr:province": "Caylloma", "addr:subdistrict": "Trocoyo", "amenity": "school", "ele": "3287", "fixme": "Ubicar el POI en el lugar que corresponde", "isced:level": "1", "name": "Instituci\u00f3n Educativa 40385 Divino Ni\u00f1o Salvador", "note": "Ubicacion_web (local)", "ref": "0216366", "source": "minedu.gob.pe"}}, {"type": "node", "id": 5576313745, "lat": -15.9476, "lon": -71.6351, "tags": {"addr:district": "Achoma", "addr:full": "Pachachaca", "addr:province": "Caylloma", "addr:subdistrict": "Pachachaca", "amenity": "school", "ele": "3577", "fixme": "Ubicar el POI en el lugar que corresponde", "isced:level": "1", "name": "Instituci\u00f3n Educativa No. 40624", "note": "Gps_otras_fuentes (local)", "ref": "0844134", "source": "minedu.gob.pe"}}, {"type": "node", "id": 5576314961, "lat": -15.8035, "lon": -71.6074, "tags": {"addr:district": "Yanque", "addr:full": "Ampi", "addr:province": "Caylloma", "addr:subdistrict": "Ampi", "amenity": "school", "ele": "4412", "fixme": "Ubicar el POI en el lugar que corresponde", "isced:level": "1", "name": "Instituci\u00f3n Educativa No. 40611", "note": "Ubicacion_web (local)", "ref": "0723155", "source": "minedu.gob.pe"}}]}