{"version": 0.6, "generator": "Overpass API 0.7.62.8 e802775f", "osm3s": {"timestamp_osm_base": "2025-10-13T13:47:35Z", "copyright": "The data included in this document is from www.openstreetmap.org. The data is made available under ODbL."}, "elements": [{"type": "node", "id": 5574787593, "lat": -16.0460371, "lon": -71.9027029, "tags": {"addr:district": "Huanca", "addr:full": "San Basilio S/n", "addr:province": "Caylloma", "addr:subdistrict": "San Basilio", "amenity": "school", "ele": "3052", "isced:level": "1", "name": "Instituci\u00f3n Educativa 40408 San Basilio Magno", "note": "Med_gps (local)", "ref": "0312884", "source": "minedu.gob.pe"}}, {"type": "node", "id": 5574787594, "lat": -16.0461647, "lon": -71.9028785, "tags": {"addr:district": "Huanca", "addr:full": "San Basilio S/n", "addr:province": "Caylloma", "addr:subdistrict": "San Basilio", "amenity": "kindergarten", "ele": "3052", "isced:level": "0", "name": "Instituci\u00f3n educativa inicial 40408 San Basilio Magno", "note": "Med_gps (local)", "ref": "1365147", "source": "minedu.gob.pe"}}, {"type": "node", "id": 5574789534, "lat": -16.0339026, "lon": -71.8795954, "tags": {"addr:district": "Huanca", "addr:full": "Pampa Bernedo", "addr:province": "Caylloma", "addr:subdistrict": "Huanca", "amenity": "kindergarten", "ele": "3069", "isced:level": "0", "name": "Instituci\u00f3n educativa inicial Huanca", "note": "Ubicacion_web (local)", "ref": "0477711", "source": "minedu.gob.pe"}}, {"type": "node", "id": 5574789535, "lat": -16.0335835, "lon": -71.8793578, "tags": {"addr:district": "Huanca", "addr:full": "Calle Pampa Bernedo S/n", "addr:province": "Caylloma", "addr:subdistrict": "Huanca", "amenity": "school", "ele": "3069", "isced:level": "1", "name": "Instituci\u00f3n Educativa 40384 Sonccoy Quilla", "note": "Med_gps (local)", "ref": "0312652", "source": "minedu.gob.pe"}}, {"type": "node", "id": 5574789536, "lat": -16.0333927, "lon": -71.8778107, "tags": {"addr:district": "Huanca", "addr:full": "Plaza De Armas", "addr:province": "Caylloma", "addr:subdistrict": "Huanca", "amenity": "school", "ele": "3069", "isced:level": "t\u00e9cnicoproductiva-cetpro", "name": "Beata Maria Asunta", "note": "Med_gps (local)", "ref": "0898148", "source": "minedu.gob.pe"}}, {"type": "node", "id": 5574789537, "lat": -16.0335499, "lon": -71.8775141, "tags": {"addr:district": "Huanca", "addr:full": "Plaza De Armas", "addr:province": "Caylloma", "addr:subdistrict": "Huanca", "amenity": "school", "ele": "3069", "isced:level": "2", "name": "Instituci\u00f3n Educativa Carlos La Fuente Larrauri", "note": "Med_gps (local)", "ref": "0500736", "source": "minedu.gob.pe"}}, {"type": "node", "id": 5574790537, "lat": -16.0131219, "lon": -71.8798169, "tags": {"addr:district": "Huanca", "addr:full": "Calle Puccro S/n", "addr:province": "Caylloma", "addr:subdistrict": "Pucro", "amenity": "school", "ele": "3412", "isced:level": "1", "name": "Instituci\u00f3n Educativa 40169 San Isidro Labrador De Puccro", "note": "Med_gps (local)", "ref": "0219766", "source": "minedu.gob.pe"}}, {"type": "node", "id": 5576309558, "lat": -16.0328, "lon": -71.9436, "tags": {"addr:district": "Lluta", "addr:full": "Carretera Hatumpata S/n", "addr:province": "Caylloma", "addr:subdistrict": "Hatumpata", "amenity": "school", "ele": "3482", "fixme": "Ubicar el POI en el lugar que corresponde", "isced:level": "1", "name": "Instituci\u00f3n Educativa No. 40663", "note": "Med_gps (local)", "ref": "0897850", "source": "minedu.gob.pe"}}, {"type": "node", "id": 5576309742, "lat": -16.0193794, "lon": -71.9305, "tags": {"addr:district": "Lluta", "addr:full": "Taya", "addr:province": "Caylloma", "addr:subdistrict": "Taya", "amenity": "school", "ele": "3361", "isced:level": "1;2", "name": "Instituci\u00f3n Educativa 40389 Miguel Linares Malaga", "note": "Med_gps (local)", "ref": "0312694;0796920", "source": "minedu.gob.pe"}}, {"type": "node", "id": 5576309743, "lat": -16.0194, "lon": -71.9305, "tags": {"addr:district": "Lluta", "addr:full": "Taya", "addr:province": "Caylloma", "addr:subdistrict": "Taya", "amenity": "kindergarten", "ele": "3361", "fixme": "Ubicar el POI en el lugar que corresponde", "isced:level": "0", "name": "Instituci\u00f3n educativa inicial 40389 Miguel Linares Malaga", "note": "Med_gps (local)", "ref": "1351626", "source": "minedu.gob.pe"}}, {"type": "node", "id": 5576310711, "lat": -16.0151258, "lon": -72.012398, "tags": {"addr:district": "Lluta", "addr:full": "Calle Calvario S/n", "addr:province": "Caylloma", "addr:subdistrict": "Lluta", "amenity": "school", "ele": "3017", "isced:level": "1;2", "name": "Instituci\u00f3n Educativa 40388 Corazon Sagrado De Jesus De Lluta", "note": "Med_gps (local)", "ref": "0312686;0498972", "source": "minedu.gob.pe"}}, {"type": "node", "id": 5576310712, "lat": -16.01508, "lon": -72.0123987, "tags": {"addr:district": "Lluta", "addr:full": "Calle Calvario S/n", "addr:province": "Caylloma", "addr:subdistrict": "Lluta", "amenity": "kindergarten", "ele": "3017", "fixme": "Ubicar el POI en el lugar que corresponde", "isced:level": "0", "name": "Instituci\u00f3n educativa inicial 40388 Corazon Sagrado De Jesus De Lluta", "note": "Med_gps (local)", "ref": "0477729", "source": "minedu.gob.pe"}}, {"type": "node", "id": 5576310713, "lat": -16.0126, "lon": -72.0214, "tags": {"addr:district": "Lluta", "addr:full": "Ccasao S/n", "addr:province": "Caylloma", "addr:subdistrict": "Ccasau", "amenity": "school", "ele": "3133", "fixme": "Ubicar el POI en el lugar que corresponde", "isced:level": "1", "name": "Instituci\u00f3n Educativa 40591 San Francisco De Ccasao", "note": "Med_gps (local)", "ref": "0656157", "source": "minedu.gob.pe"}}, {"type": "node", "id": 5576311427, "lat": -15.9735, "lon": -71.9855, "tags": {"addr:district": "Lluta", "addr:full": "Toroy", "addr:province": "Caylloma", "addr:subdistrict": "Toroy", "amenity": "school", "ele": "3333", "fixme": "Ubicar el POI en el lugar que corresponde", "isced:level": "1", "name": "Instituci\u00f3n Educativa No. 40413", "note": "Ubicacion_web (local)", "ref": "0312934", "source": "minedu.gob.pe"}}, {"type": "node", "id": 5576312615, "lat": -15.9313, "lon": -72.0573, "tags": {"addr:district": "Lluta", "addr:full": "Calle Principal S/n", "addr:province": "Caylloma", "addr:subdistrict": "San Pedro De Querque", "amenity": "school", "ele": "3437", "fixme": "Ubicar el POI en el lugar que corresponde", "isced:level": "1", "name": "Instituci\u00f3n Educativa 40412 Arquitecto Fernando Belaunde Terry", "note": "Med_gps (local)", "ref": "0312926", "source": "minedu.gob.pe"}}]}