{"version": 0.6, "generator": "Overpass API 0.7.62.8 e802775f", "osm3s": {"timestamp_osm_base": "2025-09-30T11:11:28Z", "copyright": "The data included in this document is from www.openstreetmap.org. The data is made available under ODbL."}, "elements": [{"type": "node", "id": 2273085905, "lat": 14.5043638, "lon": -90.9491906, "tags": {"amenity": "college", "name": "Instituto Nacional San Carlos"}}, {"type": "node", "id": 2273085928, "lat": 14.5040747, "lon": -90.9505953}, {"type": "node", "id": 2277281686, "lat": 14.5014651, "lon": -90.9525428, "tags": {"amenity": "kindergarten", "name": "Escuela de P\u00e1rvulos Integral Belice"}}, {"type": "node", "id": 2277281701, "lat": 14.5010688, "lon": -90.9547139, "tags": {"amenity": "townhall", "name": "RENAP"}}, {"type": "node", "id": 2489645900, "lat": 14.6802906, "lon": -91.0081329, "tags": {"amenity": "college", "name": "Centro Educativo 20 de Mayo"}}, {"type": "node", "id": 2489652494, "lat": 14.6793139, "lon": -91.0088988, "tags": {"amenity": "college", "name": "Felipe R. Lopez"}}, {"type": "node", "id": 2489698160, "lat": 14.6829351, "lon": -91.0142316, "tags": {"amenity": "townhall", "name": "Municipalidad de Patz\u00fan"}}, {"type": "node", "id": 2489705861, "lat": 14.6817704, "lon": -91.0131929, "tags": {"amenity": "school", "name": "Centro Educativo Cultura y Arte"}}, {"type": "node", "id": 3928740549, "lat": 14.633581, "lon": -91.1425386, "tags": {"amenity": "townhall", "name": "Municipalidad de San Lucas Tolim\u00e1n", "phone": "7961-5258", "source": "Reconocimiento cartogr\u00e1fico por KG 2016."}}, {"type": "node", "id": 3928740550, "lat": 14.633736, "lon": -91.1424803}, {"type": "node", "id": 3928740551, "lat": 14.6333, "lon": -91.1427378}, {"type": "node", "id": 3928740552, "lat": 14.6332572, "lon": -91.1426547}, {"type": "node", "id": 3928740553, "lat": 14.6336919, "lon": -91.1423972}, {"type": "node", "id": 3928740554, "lat": 14.6336501, "lon": -91.1430811, "tags": {"addr:city": "San Lucas Tolim\u00e1n", "addr:street": "6a Avenida", "amenity": "bank", "atm": "yes", "name": "Banrural", "source": "Reconocimiento cartogr\u00e1fico por KG 2016."}}, {"type": "node", "id": 4076052532, "lat": 14.6285126, "lon": -91.1434345, "tags": {"amenity": "school", "name": "Escuela Oficial Urbana Mixta Mariano G\u00e1lvez J. M. No. 1", "source": "Reconocimiento cartogr\u00e1fico por KG 2016."}}, {"type": "node", "id": 4082274802, "lat": 14.6362555, "lon": -91.1412173}, {"type": "node", "id": 4082274803, "lat": 14.6359683, "lon": -91.1413376}, {"type": "node", "id": 4082274804, "lat": 14.6359966, "lon": -91.1415745}, {"type": "node", "id": 4082274805, "lat": 14.636337, "lon": -91.1414355}, {"type": "node", "id": 4082351329, "lat": 14.6287828, "lon": -91.1434125}, {"type": "node", "id": 4082351330, "lat": 14.6287246, "lon": -91.143187}, {"type": "node", "id": 4082351331, "lat": 14.6281805, "lon": -91.1433367}, {"type": "node", "id": 4082351332, "lat": 14.6282387, "lon": -91.1435623}, {"type": "node", "id": 4082351608, "lat": 14.6340164, "lon": -91.1425342, "tags": {"addr:city": "San Lucas Tolim\u00e1n", "addr:street": "3a Calle C", "amenity": "bank", "atm": "yes", "contact:email": "Mercadeo.BAM@bam.com.gt", "contact:facebook": "https://www.facebook.com/bamguatemala", "contact:instagram": "https://instagram.com/bam.guatemala", "contact:linkedin": "https://gt.linkedin.com/company/bam-gt", "contact:phone": "+502 2338 6565", "contact:twitter": "https://twitter.com/BAMguatemala", "contact:website": "https://www.bam.com", "contact:youtube": "https://www.youtube.com/user/bamguatemala", "name": "BAM", "opening_hours": "Mo-Fr 09:00-17:00; Sa 09:00-13:00", "source": "Reconocimiento cartogr\u00e1fico por KG 2016."}}, {"type": "node", "id": 4082459676, "lat": 14.6355805, "lon": -91.14356, "tags": {"addr:city": "San Lucas Tolim\u00e1n", "addr:street": "5a Avenida", "amenity": "dentist", "name": "Cl\u00ednica Dental", "source": "Reconocimiento cartogr\u00e1fico por KG 2016."}}, {"type": "node", "id": 4083148972, "lat": 14.6329365, "lon": -91.1426424, "tags": {"amenity": "bank", "name": "Caja Rural", "source": "Reconocimiento cartogr\u00e1fico por KG 2016."}}, {"type": "node", "id": 4083391487, "lat": 14.6329114, "lon": -91.1430829}, {"type": "node", "id": 4083391488, "lat": 14.6328388, "lon": -91.1428824}, {"type": "node", "id": 4083404189, "lat": 14.6332053, "lon": -91.1427081}, {"type": "node", "id": 4083404190, "lat": 14.6332994, "lon": -91.1428878}, {"type": "node", "id": 4083404205, "lat": 14.6344275, "lon": -91.1427434, "tags": {"addr:city": "San Lucas Tolim\u00e1n", "addr:street": "6a Avenida", "amenity": "college", "name": "Centro de Estudios Avanzados", "source": "Reconocimiento cartogr\u00e1fico por KG 2016."}}, {"type": "node", "id": 4083404217, "lat": 14.6347337, "lon": -91.1426811, "tags": {"addr:city": "San Lucas Tolim\u00e1n", "addr:street": "6a Avenida", "amenity": "social_facility", "level": "2", "name": "Grupo AA - 21 de Septiembre", "operator": "Alcoh\u00f3licos An\u00f3nimos", "source": "Reconocimiento cartogr\u00e1fico por KG 2016.", "wheelchair": "no"}}, {"type": "node", "id": 4083404261, "lat": 14.6360502, "lon": -91.1417187}, {"type": "node", "id": 4083404262, "lat": 14.6361487, "lon": -91.1419776}, {"type": "node", "id": 4083404263, "lat": 14.6363814, "lon": -91.1419027}, {"type": "node", "id": 4083404264, "lat": 14.6363096, "lon": -91.1416364}, {"type": "node", "id": 4083404265, "lat": 14.6362547, "lon": -91.1414644}, {"type": "node", "id": 4677469490, "lat": 14.632875, "lon": -91.1437452, "tags": {"addr:city": "San Lucas Tolim\u00e1n", "addr:street": "5a Calle", "amenity": "bank", "name": "Banco Azteca", "name:es": "Banco Azteca"}}, {"type": "node", "id": 5001973685, "lat": 14.6332315, "lon": -91.1427582, "tags": {"entrance": "yes"}}, {"type": "node", "id": 5682153245, "lat": 14.5040379, "lon": -90.9505533}, {"type": "node", "id": 5682153258, "lat": 14.5040566, "lon": -90.9506123}, {"type": "node", "id": 5682153259, "lat": 14.5040823, "lon": -90.9505117}, {"type": "node", "id": 5682153260, "lat": 14.504143, "lon": -90.9505807}, {"type": "node", "id": 5682153261, "lat": 14.5040804, "lon": -90.9506394}, {"type": "node", "id": 6130844799, "lat": 14.7325866, "lon": -90.8827428, "tags": {"amenity": "school", "email": "volunteer@lwhome.org", "name": "Centro", "name:en": "Long Way Home", "name:es": "Centro Educativo Tenico Chixot", "website": "https://www.lwhome.org/"}}, {"type": "node", "id": 6166779585, "lat": 14.514639, "lon": -90.8799572, "tags": {"amenity": "shelter"}}, {"type": "node", "id": 6754602314, "lat": 14.7372388, "lon": -90.9915124}, {"type": "node", "id": 6754602315, "lat": 14.7372116, "lon": -90.9913583}, {"type": "node", "id": 6754602316, "lat": 14.7372952, "lon": -90.9911508}, {"type": "node", "id": 6754602317, "lat": 14.7374323, "lon": -90.9909711}, {"type": "node", "id": 6754602318, "lat": 14.7375092, "lon": -90.9908466}, {"type": "node", "id": 6754602319, "lat": 14.7374256, "lon": -90.9906634}, {"type": "node", "id": 6754602320, "lat": 14.7373287, "lon": -90.9905355}, {"type": "node", "id": 6754602321, "lat": 14.7372351, "lon": -90.9904422}, {"type": "node", "id": 6754602322, "lat": 14.7370813, "lon": -90.9903868}, {"type": "node", "id": 6754602323, "lat": 14.7369442, "lon": -90.9903523}, {"type": "node", "id": 6754602324, "lat": 14.7368372, "lon": -90.9903073}, {"type": "node", "id": 6754602325, "lat": 14.7366531, "lon": -90.9903133}, {"type": "node", "id": 6754602326, "lat": 14.7364113, "lon": -90.9904042}, {"type": "node", "id": 6754602327, "lat": 14.7361695, "lon": -90.9905349}, {"type": "node", "id": 6754602328, "lat": 14.7359881, "lon": -90.990677}, {"type": "node", "id": 6754602329, "lat": 14.7357793, "lon": -90.9907736}, {"type": "node", "id": 6754602330, "lat": 14.7356199, "lon": -90.9909498}, {"type": "node", "id": 6754602331, "lat": 14.7355594, "lon": -90.9913021}, {"type": "node", "id": 6754602332, "lat": 14.7355649, "lon": -90.9914499}, {"type": "node", "id": 6754602333, "lat": 14.7357408, "lon": -90.9915579}, {"type": "node", "id": 6754602334, "lat": 14.7359716, "lon": -90.9916431}, {"type": "node", "id": 6754602335, "lat": 14.7361805, "lon": -90.991717}, {"type": "node", "id": 6754602336, "lat": 14.7364718, "lon": -90.9917511}, {"type": "node", "id": 6754602337, "lat": 14.736763, "lon": -90.9917852}, {"type": "node", "id": 6754602338, "lat": 14.7371203, "lon": -90.9916488}, {"type": "node", "id": 6897072694, "lat": 14.6504325, "lon": -90.8904583, "tags": {"addr:street": "2 Avenida", "amenity": "school", "name": "Escuela Oficial Urbana Mixta Dr Mariano G\u00e1lvez Zaragoza"}}, {"type": "node", "id": 6910158988, "lat": 14.6501115, "lon": -90.8915841, "tags": {"addr:street": "1 Calle", "amenity": "bank", "name": "Intercop"}}, {"type": "node", "id": 6914019786, "lat": 14.6532268, "lon": -90.8922892, "tags": {"addr:street": "4 Calle", "amenity": "school", "name": "Escuela de m\u00fasica"}}, {"type": "node", "id": 6914019888, "lat": 14.6496809, "lon": -90.8924554, "tags": {"addr:street": "2 Avenida", "amenity": "college", "name": "Colegio san Antonio"}}, {"type": "node", "id": 6914019986, "lat": 14.6524163, "lon": -90.8919182, "tags": {"addr:street": "1 Avenida", "amenity": "college", "name": "Colegio Mixto Biling\u00fce New Concept"}}, {"type": "node", "id": 6914053485, "lat": 14.6522296, "lon": -90.8920319, "tags": {"addr:street": "3 Calle", "amenity": "college", "name": "Colegio Mixto Biling\u00fce New Concept"}}, {"type": "node", "id": 6933065294, "lat": 14.6497212, "lon": -90.8898633, "tags": {"addr:street": "2 Calle", "amenity": "dentist", "name": "Laboratorio Dental White Dent"}}, {"type": "node", "id": 6933300089, "lat": 14.6499173, "lon": -90.8913831, "tags": {"addr:street": "1 Avenida", "amenity": "bank", "name": "Banrural"}}, {"type": "node", "id": 6933300197, "lat": 14.6478909, "lon": -90.8908631, "tags": {"addr:street": "1 Avenida", "amenity": "bank", "name": "Micoope"}}, {"type": "node", "id": 6935652285, "lat": 14.6481717, "lon": -90.8908954, "tags": {"addr:street": "1 Avenida", "amenity": "doctors"}}, {"type": "node", "id": 6935652685, "lat": 14.6446267, "lon": -90.8901843, "tags": {"addr:street": "1 Avenida", "amenity": "dentist"}}, {"type": "node", "id": 6935652785, "lat": 14.6433822, "lon": -90.8900752, "tags": {"addr:street": "1 Avenida", "amenity": "college", "name": "Instituto De Educaci\u00f3n B\u00e1sica y Escuela De Ciencias Comerciales Por Cooperativa De Ense\u00f1anza Lic. Carlos Abilio Giron Noriega"}}, {"type": "node", "id": 6935806495, "lat": 14.6422717, "lon": -90.8874747, "tags": {"addr:street": "3 Avenida", "amenity": "school", "name": "Instituto Nacional De Educaci\u00f3n B\u00e1sica Ineb J.M"}}, {"type": "node", "id": 6935818490, "lat": 14.6500983, "lon": -90.8869897, "tags": {"addr:street": "5 Avenida", "amenity": "dentist", "name": "Centr\u00f3 Dental San Juan"}}, {"type": "node", "id": 6936078985, "lat": 14.6559695, "lon": -90.8915293, "tags": {"amenity": "school", "name": "Instituto Nacional De Educaci\u00f3n B\u00e1sica Cantonal"}}, {"type": "node", "id": 6936078998, "lat": 14.6496764, "lon": -90.8927888, "tags": {"addr:street": "1 Calle", "amenity": "dentist"}}, {"type": "node", "id": 6936079001, "lat": 14.6491528, "lon": -90.8916557, "tags": {"addr:street": "2 Calle", "amenity": "college", "name": "T\u00e9cnico Industrial Zaragoza De Heredia"}}, {"type": "node", "id": 7100291691, "lat": 14.7318314, "lon": -90.8870329, "tags": {"addr:street": "Carretera a San Ju\u00e1n Comalapa", "amenity": "school", "name": "Escuela Oficial Urbana Mixta Rafael \u00c1lvarez Ovalle"}}, {"type": "node", "id": 7100294486, "lat": 14.7294513, "lon": -90.8871637, "tags": {"addr:street": "Carretera a San Ju\u00e1n Comalapa", "amenity": "college", "check_date": "2025-04-21", "name": "Colegi\u00f3 Biling\u00fce Ican"}}, {"type": "node", "id": 7278627145, "lat": 14.6306277, "lon": -90.9187986}, {"type": "node", "id": 7278627146, "lat": 14.6306848, "lon": -90.9187181}, {"type": "node", "id": 7278627147, "lat": 14.6304123, "lon": -90.9184955}, {"type": "node", "id": 7278627148, "lat": 14.6303708, "lon": -90.9185921}, {"type": "node", "id": 8735428356, "lat": 14.7304405, "lon": -90.9695659}, {"type": "node", "id": 8735428357, "lat": 14.7304223, "lon": -90.9693245}, {"type": "node", "id": 8735428358, "lat": 14.7303692, "lon": -90.9689423}, {"type": "node", "id": 8735428359, "lat": 14.7298542, "lon": -90.9689396}, {"type": "node", "id": 8735428360, "lat": 14.7299165, "lon": -90.9692548}, {"type": "node", "id": 8735428361, "lat": 14.72991, "lon": -90.96957}, {"type": "node", "id": 10273335834, "lat": 14.7231111, "lon": -90.9918971}, {"type": "node", "id": 10273335835, "lat": 14.7232374, "lon": -90.9921843}, {"type": "node", "id": 10273335836, "lat": 14.722941, "lon": -90.992302}, {"type": "node", "id": 10273335837, "lat": 14.7228307, "lon": -90.9920188}, {"type": "node", "id": 10273384685, "lat": 14.6319672, "lon": -90.9083015}, {"type": "node", "id": 10273384686, "lat": 14.6316116, "lon": -90.9084555}, {"type": "node", "id": 10273384687, "lat": 14.6317872, "lon": -90.9081275}, {"type": "node", "id": 10273384688, "lat": 14.6318837, "lon": -90.9084176}, {"type": "node", "id": 10273384689, "lat": 14.6316526, "lon": -90.9082692}, {"type": "node", "id": 10273384690, "lat": 14.6316974, "lon": -90.9082285}, {"type": "node", "id": 10273384691, "lat": 14.6318075, "lon": -90.9085248}, {"type": "node", "id": 10278580782, "lat": 14.6836368, "lon": -91.0145459}, {"type": "node", "id": 10278580783, "lat": 14.6833604, "lon": -91.0142825}, {"type": "node", "id": 10278580784, "lat": 14.6835864, "lon": -91.0140781}, {"type": "node", "id": 10278580785, "lat": 14.6838513, "lon": -91.0143339}, {"type": "node", "id": 10279101149, "lat": 14.7127998, "lon": -91.0084942}, {"type": "node", "id": 10279101150, "lat": 14.7129062, "lon": -91.0082501}, {"type": "node", "id": 10279101151, "lat": 14.7129217, "lon": -91.0081026}, {"type": "node", "id": 10279101152, "lat": 14.7129088, "lon": -91.007931}, {"type": "node", "id": 10279101153, "lat": 14.7130566, "lon": -91.0079926}, {"type": "node", "id": 10279101154, "lat": 14.7131993, "lon": -91.008116}, {"type": "node", "id": 10279101155, "lat": 14.7134691, "lon": -91.0081911}, {"type": "node", "id": 10279101156, "lat": 14.7132927, "lon": -91.0085747}, {"type": "node", "id": 10279101157, "lat": 14.7131656, "lon": -91.008741}, {"type": "node", "id": 10283098039, "lat": 14.6797691, "lon": -90.8953905}, {"type": "node", "id": 10283098040, "lat": 14.6800806, "lon": -90.8957415}, {"type": "node", "id": 10283098041, "lat": 14.6799188, "lon": -90.8952679}, {"type": "node", "id": 10283098042, "lat": 14.679901, "lon": -90.89588}, {"type": "node", "id": 10283108114, "lat": 14.6793743, "lon": -90.8956753}, {"type": "node", "id": 10283108115, "lat": 14.6794584, "lon": -90.8961947}, {"type": "node", "id": 10283108116, "lat": 14.6797569, "lon": -90.8953924}, {"type": "node", "id": 10283108117, "lat": 14.6798837, "lon": -90.895895}, {"type": "node", "id": 10904139943, "lat": 14.6651076, "lon": -91.0157565}, {"type": "node", "id": 10904139944, "lat": 14.6652645, "lon": -91.0152068}, {"type": "node", "id": 10904139945, "lat": 14.6649426, "lon": -91.015428}, {"type": "node", "id": 10904139946, "lat": 14.665253, "lon": -91.0156138}, {"type": "node", "id": 10904139947, "lat": 14.6654134, "lon": -91.0154266}, {"type": "node", "id": 12329911366, "lat": 14.7038707, "lon": -91.0897841}, {"type": "node", "id": 12329911367, "lat": 14.7043218, "lon": -91.0899135}, {"type": "node", "id": 12329911368, "lat": 14.7041924, "lon": -91.0900413}, {"type": "node", "id": 12329911369, "lat": 14.7041167, "lon": -91.0896153}, {"type": "node", "id": 12671181324, "lat": 14.6745321, "lon": -90.8975941, "tags": {"amenity": "school", "name": "Escuela Rural Mixta"}}, {"type": "node", "id": 13170595140, "lat": 14.683247, "lon": -91.0162595, "tags": {"amenity": "bank", "email": "bantigua2022@gmail.com", "facebook": "https://www.facebook.com/BancodeAntiguaGuatemala", "name": "Banco de Antigua", "opening_hours": "Mo-Fr 09:00-17:30; Sa 09:00-12:30", "phone": "+502 2417 3960", "website": "https://www.bantigua.com.gt"}}, {"type": "node", "id": 13170595165, "lat": 14.6350909, "lon": -91.1425996, "tags": {"amenity": "bank", "email": "bantigua2022@gmail.com", "facebook": "https://www.facebook.com/BancodeAntiguaGuatemala", "name": "Banco de Antigua", "opening_hours": "Mo-Fr 09:00-17:30; Sa 09:00-12:30", "phone": "+502 2417 3948", "website": "https://www.bantigua.com.gt"}}, {"type": "way", "id": 389703913, "nodes": [3928740550, 3928740551, 3928740552, 3928740553, 3928740550], "tags": {"amenity": "townhall", "building": "yes", "source": "Reconocimiento cartogr\u00e1fico por KG 2016."}}, {"type": "way", "id": 406118115, "nodes": [4082274802, 4082274803, 4082274804, 4083404261, 4083404262, 4083404263, 4083404264, 4083404265, 4082274805, 4082274802], "tags": {"addr:city": "San Lucas Tolim\u00e1n", "addr:street": "7a Avenida", "amenity": "school", "source": "Reconocimiento cartogr\u00e1fico por KG 2016."}}, {"type": "way", "id": 406127501, "nodes": [4082351329, 4082351330, 4082351331, 4082351332, 4082351329], "tags": {"amenity": "school", "source": "Reconocimiento cartogr\u00e1fico por KG 2016."}}, {"type": "way", "id": 406243350, "nodes": [4083391487, 4083391488, 4083404189, 5001973685, 4083404190, 4083391487], "tags": {"addr:city": "San Lucas Tolim\u00e1n", "addr:street": "4a Calle A", "amenity": "school", "name": "Centro Educativo Bethel", "source": "Reconocimiento cartogr\u00e1fico por KG 2016."}}, {"type": "way", "id": 596498829, "nodes": [5682153261, 5682153260, 5682153259, 5682153245, 2273085928, 5682153258, 5682153261], "tags": {"amenity": "school", "building": "yes", "name": "Liceo Cristiano Torre Fuerte"}}, {"type": "way", "id": 719519978, "nodes": [6754602314, 6754602315, 6754602316, 6754602317, 6754602318, 6754602319, 6754602320, 6754602321, 6754602322, 6754602323, 6754602324, 6754602325, 6754602326, 6754602327, 6754602328, 6754602329, 6754602330, 6754602331, 6754602332, 6754602333, 6754602334, 6754602335, 6754602336, 6754602337, 6754602338, 6754602314], "tags": {"amenity": "waste_transfer_station", "name": "Vertedero de basura"}}, {"type": "way", "id": 779455976, "nodes": [7278627145, 7278627146, 7278627147, 7278627148, 7278627145], "tags": {"amenity": "school", "name": "Instituto de Educacion Basica por Cooperativa"}}, {"type": "way", "id": 943431569, "nodes": [8735428356, 8735428357, 8735428358, 8735428359, 8735428360, 8735428361, 8735428356], "tags": {"amenity": "school"}}, {"type": "way", "id": 1123346854, "nodes": [10273384691, 10273384688, 10273384685, 10273384687, 10273384690, 10273384689, 10273384686, 10273384691], "tags": {"amenity": "school", "name": "Ecuela Oficial Rural Mixta Lic. Leonel Estrada Furl\u00e1n, El Sit\u00e1n"}}, {"type": "way", "id": 1123347587, "nodes": [10273335836, 10273335835, 10273335834, 10273335837, 10273335836], "tags": {"amenity": "school", "name": "Escuela Oficial Rural Mixta Cruz de Santiago"}}, {"type": "way", "id": 1123958042, "nodes": [10278580782, 10278580785, 10278580784, 10278580783, 10278580782], "tags": {"amenity": "townhall", "name": "Sal\u00f3n Municipal de Patz\u00fan"}}, {"type": "way", "id": 1124030563, "nodes": [10279101149, 10279101150, 10279101151, 10279101152, 10279101153, 10279101154, 10279101155, 10279101156, 10279101157, 10279101149], "tags": {"amenity": "school", "name": "Escuela Oficial Rural Mixta Caser\u00edo Los Pinos, Patz\u00fan , Chimaltenango"}}, {"type": "way", "id": 1124514301, "nodes": [10283098042, 10283098039, 10283098041, 10283098040, 10283098042], "tags": {"amenity": "school", "name": "Instituto Nacional de Educaci\u00f3n B\u00e1sica de Telesecundaria - INEBT"}}, {"type": "way", "id": 1124514384, "nodes": [10283108115, 10283108117, 10283108116, 10283108114, 10283108115], "tags": {"amenity": "school", "name": "Escuela Oficial Rural Mixta Rinc\u00f3n Grande"}}, {"type": "way", "id": 1173554580, "nodes": [10904139943, 10904139946, 10904139947, 10904139944, 10904139945, 10904139943], "tags": {"amenity": "kindergarten", "name": "Juegos Infantiles"}}, {"type": "way", "id": 1332748544, "nodes": [12329911368, 12329911367, 12329911369, 12329911366, 12329911368], "tags": {"amenity": "school", "isced:level": "1", "name": "Escuela Oficial Rural Mixta Caser\u00edo Los Robles, San Andr\u00e9s Semetabaj"}}]}