{"version": 0.6, "generator": "Overpass API 0.7.62.8 e802775f", "osm3s": {"timestamp_osm_base": "2025-10-13T13:47:35Z", "copyright": "The data included in this document is from www.openstreetmap.org. The data is made available under ODbL."}, "elements": [{"type": "node", "id": 5574546236, "lat": -15.6155, "lon": -71.8387, "tags": {"addr:district": "Cabanaconde", "addr:full": "Avenida Jose Olaya S/n", "addr:province": "Caylloma", "addr:subdistrict": "Pinchollo", "amenity": "school", "ele": "3618", "fixme": "Ubicar el POI en el lugar que corresponde", "isced:level": "1", "name": "Instituci\u00f3n Educativa No. 40379", "note": "Med_gps (local)", "ref": "0312603", "source": "minedu.gob.pe"}}, {"type": "node", "id": 5574546237, "lat": -15.616462, "lon": -71.8398195, "tags": {"addr:district": "Cabanaconde", "addr:full": "Calle Tupac Amaru S/n", "addr:province": "Caylloma", "addr:street": "Carretera al Colca", "addr:subdistrict": "Pinchollo", "amenity": "kindergarten", "ele": "3618", "fixme": "Ubicar el POI en el lugar que corresponde", "isced:level": "0", "name": "Instituci\u00f3n educativa inicial Pinchollo", "note": "Med_gps (local)", "ref": "0678656", "source": "minedu.gob.pe"}}, {"type": "node", "id": 5574546238, "lat": -15.6155271, "lon": -71.8387, "tags": {"addr:district": "Cabanaconde", "addr:full": "Avenida Jose Olaya S/n", "addr:province": "Caylloma", "addr:subdistrict": "Pinchollo", "amenity": "school", "ele": "3618", "fixme": "Ubicar el POI en el lugar que corresponde", "isced:level": "2", "name": "Instituci\u00f3n Educativa Cped - 40379", "note": "Med_gps (local)", "ref": "1379387", "source": "minedu.gob.pe"}}, {"type": "node", "id": 5574546449, "lat": -15.6074591, "lon": -71.8044743}, {"type": "node", "id": 5574546450, "lat": -15.609, "lon": -71.8064, "tags": {"addr:district": "Madrigal", "addr:full": "Calle Bolivar S/n", "addr:province": "Caylloma", "addr:subdistrict": "Madrigal", "amenity": "kindergarten", "ele": "3274", "fixme": "Ubicar el POI en el lugar que corresponde", "isced:level": "0", "name": "Instituci\u00f3n educativa inicial Madrigal", "note": "Med_gps (local)", "ref": "0612564", "source": "minedu.gob.pe"}}, {"type": "node", "id": 5574573057, "lat": -15.6223, "lon": -71.7703, "tags": {"addr:district": "Lari", "addr:full": "Calle Chorrillos C-4", "addr:province": "Caylloma", "addr:subdistrict": "Lari", "amenity": "kindergarten", "ele": "3356", "fixme": "Ubicar el POI en el lugar que corresponde", "isced:level": "0", "name": "Instituci\u00f3n educativa inicial Lari", "note": "Med_gps (local)", "ref": "0678680", "source": "minedu.gob.pe"}}, {"type": "node", "id": 5574573058, "lat": -15.620342, "lon": -71.7724961}, {"type": "node", "id": 5574573119, "lat": -15.6442, "lon": -71.7617, "tags": {"addr:district": "Maca", "addr:full": "Pampa Apa\u00f1icro", "addr:province": "Caylloma", "addr:subdistrict": "Maca", "amenity": "kindergarten", "ele": "3276", "fixme": "Ubicar el POI en el lugar que corresponde", "isced:level": "0", "name": "Instituci\u00f3n educativa inicial Maca", "note": "Med_gps (local)", "ref": "0627364", "source": "minedu.gob.pe"}}, {"type": "node", "id": 5574576710, "lat": -15.6267, "lon": -71.6463, "tags": {"addr:district": "Coporaque", "addr:full": "Pasaje San Sebastian Mz S Lote 7", "addr:province": "Caylloma", "addr:subdistrict": "Coporaque", "amenity": "kindergarten", "ele": "3584", "fixme": "Ubicar el POI en el lugar que corresponde", "isced:level": "0", "name": "Instituci\u00f3n educativa inicial Coporaque", "note": "Med_gps (local)", "ref": "0655944", "source": "minedu.gob.pe"}}, {"type": "node", "id": 5574576711, "lat": -15.6258, "lon": -71.6458, "tags": {"addr:district": "Coporaque", "addr:full": "Calle Huancavelica S/n", "addr:province": "Caylloma", "addr:subdistrict": "Coporaque", "amenity": "school", "ele": "3584", "fixme": "Ubicar el POI en el lugar que corresponde", "isced:level": "1", "name": "Instituci\u00f3n Educativa 40382 Virgen De Chapi", "note": "Med_gps (local)", "ref": "0312637", "source": "minedu.gob.pe"}}, {"type": "node", "id": 5574576712, "lat": -15.6255586, "lon": -71.6443724}, {"type": "node", "id": 5574576722, "lat": -15.6439142, "lon": -71.7612007, "tags": {"addr:district": "Maca", "addr:full": "Avenida Arequipa S/n", "addr:province": "Caylloma", "addr:subdistrict": "Maca", "amenity": "school", "ele": "3276", "isced:level": "1;2", "name": "Instituci\u00f3n Educativa 40390 Mayta Capac", "note": "Med_gps (local)", "ref": "0312702;0796953", "source": "minedu.gob.pe"}}, {"type": "node", "id": 5574577130, "lat": -15.6619, "lon": -71.7009, "tags": {"addr:district": "Achoma", "addr:full": "Calle Sucre S/n", "addr:province": "Caylloma", "addr:subdistrict": "Achoma", "amenity": "school", "ele": "3492", "fixme": "Ubicar el POI en el lugar que corresponde", "isced:level": "1", "name": "Instituci\u00f3n Educativa No. 40376", "note": "Med_gps (local)", "ref": "0312579", "source": "minedu.gob.pe"}}, {"type": "node", "id": 5574577132, "lat": -15.6625, "lon": -71.701, "tags": {"addr:district": "Achoma", "addr:full": "Calle General Villavicencio S/n", "addr:province": "Caylloma", "addr:subdistrict": "Achoma", "amenity": "kindergarten", "ele": "3492", "fixme": "Ubicar el POI en el lugar que corresponde", "isced:level": "0", "name": "Instituci\u00f3n educativa inicial Achoma", "note": "Med_gps (local)", "ref": "0589598", "source": "minedu.gob.pe"}}, {"type": "node", "id": 5574577133, "lat": -15.6626, "lon": -71.7002, "tags": {"addr:district": "Achoma", "addr:full": "Calle Nicolas De Pierola S/n", "addr:province": "Caylloma", "addr:subdistrict": "Achoma", "amenity": "school", "ele": "3492", "fixme": "Ubicar el POI en el lugar que corresponde", "isced:level": "2", "name": "Instituci\u00f3n Educativa Daniel Alcides Carrion", "note": "Med_gps (local)", "ref": "0589747", "source": "minedu.gob.pe"}}, {"type": "node", "id": 5574577175, "lat": -15.6509, "lon": -71.6862, "tags": {"addr:district": "Ichupampa", "addr:full": "Calle Salaverry S/n", "addr:province": "Caylloma", "addr:subdistrict": "Ichupampa", "amenity": "kindergarten", "ele": "3408", "fixme": "Ubicar el POI en el lugar que corresponde", "isced:level": "0", "name": "Instituci\u00f3n educativa inicial Ichupampa", "note": "Med_gps (local)", "ref": "0627398", "source": "minedu.gob.pe"}}, {"type": "node", "id": 5574577176, "lat": -15.6499903, "lon": -71.6861013, "tags": {"addr:district": "Ichupampa", "addr:full": "Plaza Principal S/n", "addr:province": "Caylloma", "addr:subdistrict": "Ichupampa", "amenity": "school", "ele": "3408", "isced:level": "1;2", "name": "Instituci\u00f3n Educativa 40386 Tupac Amaru", "note": "Med_gps (local)", "ref": "0312660;0898247", "source": "minedu.gob.pe"}}, {"type": "node", "id": 5574577376, "lat": -15.6515, "lon": -71.6585, "tags": {"addr:district": "Yanque", "addr:full": "Avenida San Antonio 300", "addr:province": "Caylloma", "addr:subdistrict": "Yanque", "amenity": "school", "ele": "3428", "fixme": "Ubicar el POI en el lugar que corresponde", "isced:level": "1", "name": "Instituci\u00f3n Educativa Yanque", "note": "Med_gps (local)", "ref": "1703099", "source": "minedu.gob.pe"}}, {"type": "node", "id": 5574577377, "lat": -15.6513551, "lon": -71.6581912, "tags": {"addr:district": "Yanque", "addr:full": "Calle Sabancaya 200", "addr:province": "Caylloma", "addr:subdistrict": "Yanque", "amenity": "kindergarten", "ele": "3428", "fixme": "Ubicar el POI en el lugar que corresponde", "isced:level": "0", "name": "Instituci\u00f3n educativa inicial Saint Erblon Peru - Francia", "note": "Med_gps (local)", "ref": "0589564", "source": "minedu.gob.pe"}}, {"type": "node", "id": 5574577378, "lat": -15.6437758, "lon": -71.6536162}, {"type": "node", "id": 5574577379, "lat": -15.6495593, "lon": -71.6593615, "tags": {"addr:district": "Yanque", "addr:full": "Calle Chacapi S/n Mz W Lote 6", "addr:province": "Caylloma", "addr:subdistrict": "Yanque", "amenity": "kindergarten", "ele": "3428", "fixme": "Ubicar el POI en el lugar que corresponde", "isced:level": "0", "name": "Instituci\u00f3n educativa inicial Ong Pa Yachay", "note": "Med-gps (cp)", "ref": "1756550", "source": "minedu.gob.pe"}}, {"type": "node", "id": 5574577380, "lat": -15.6513, "lon": -71.6544, "tags": {"addr:district": "Yanque", "addr:full": "Avenida Colca 115", "addr:province": "Caylloma", "addr:subdistrict": "Yanque", "amenity": "school", "ele": "3428", "fixme": "Ubicar el POI en el lugar que corresponde", "isced:level": "6", "name": "Yanque", "note": "Gps_otras_fuentes (local)", "ref": "1345073", "source": "minedu.gob.pe"}}, {"type": "node", "id": 5574577381, "lat": -15.6514574, "lon": -71.658504, "tags": {"addr:district": "Yanque", "addr:full": "Avenida San Antonio 300", "addr:province": "Caylloma", "addr:subdistrict": "Yanque", "amenity": "school", "ele": "3428", "fixme": "Ubicar el POI en el lugar que corresponde", "isced:level": "1", "name": "Instituci\u00f3n Educativa 40397 San Antonio De Padua", "note": "Med_gps (local)", "ref": "0312777", "source": "minedu.gob.pe"}}, {"type": "node", "id": 5574582882, "lat": -15.637149, "lon": -71.6018446, "tags": {"addr:district": "Chivay", "addr:full": "Calle Pizarro S/n Lote 09", "addr:province": "Caylloma", "addr:subdistrict": "Chivay", "amenity": "kindergarten", "ele": "3638", "fixme": "Ubicar el POI en el lugar que corresponde", "isced:level": "0", "name": "Instituci\u00f3n educativa inicial Mundo Magico", "note": "Img_satelital (cp)", "ref": "1435296", "source": "minedu.gob.pe"}}, {"type": "node", "id": 5574582884, "lat": -15.6382, "lon": -71.5964, "tags": {"addr:district": "Chivay", "addr:full": "Jiron Prolongacion Ladislao Espinal S/n", "addr:province": "Caylloma", "addr:subdistrict": "Chivay", "amenity": "school", "ele": "3638", "fixme": "Ubicar el POI en el lugar que corresponde", "isced:level": "6", "name": "Chivay", "note": "Ubicacion_web_med (local)", "ref": "0891838", "source": "minedu.gob.pe"}}, {"type": "node", "id": 5574582886, "lat": -15.6321077, "lon": -71.6058092, "tags": {"addr:district": "Coporaque", "addr:full": "Plaza Principal", "addr:province": "Caylloma", "addr:subdistrict": "Sacsayhuaman", "amenity": "kindergarten", "ele": "3633", "fixme": "Ubicar el POI en el lugar que corresponde", "isced:level": "0", "name": "Instituci\u00f3n educativa inicial Sacsayhuaman", "note": "Ubicacion_web (local)", "ref": "0736066", "source": "minedu.gob.pe"}}, {"type": "node", "id": 5574582887, "lat": -15.6355, "lon": -71.597, "tags": {"addr:district": "Chivay", "addr:full": "Via Principal S/n", "addr:province": "Caylloma", "addr:subdistrict": "Chivay", "amenity": "kindergarten", "ele": "3638", "fixme": "Ubicar el POI en el lugar que corresponde", "isced:level": "0", "name": "Instituci\u00f3n educativa inicial Jardines Del Colca", "note": "Ubicacion_web (local)", "ref": "1649664", "source": "minedu.gob.pe"}}, {"type": "node", "id": 5574582888, "lat": -15.6337, "lon": -71.6023, "tags": {"addr:district": "Chivay", "addr:full": "Avenida Salaverry S/n Mz A", "addr:province": "Caylloma", "addr:subdistrict": "Chivay", "amenity": "kindergarten", "ele": "3638", "fixme": "Ubicar el POI en el lugar que corresponde", "isced:level": "0", "name": "Instituci\u00f3n educativa inicial Los Angelitos", "note": "Ubicacion_web (local)", "ref": "1615707", "source": "minedu.gob.pe"}}, {"type": "node", "id": 5574582890, "lat": -15.6321767, "lon": -71.6062266, "tags": {"addr:district": "Coporaque", "addr:full": "Carretera Coporaque Km 2.5", "addr:province": "Caylloma", "addr:subdistrict": "Sacsayhuaman", "amenity": "school", "ele": "3633", "fixme": "Ubicar el POI en el lugar que corresponde", "isced:level": "2", "name": "Instituci\u00f3n Educativa Sol Del Colca", "note": "Img_satelital (cp)", "ref": "1744226", "source": "minedu.gob.pe"}}, {"type": "node", "id": 5574582891, "lat": -15.6367, "lon": -71.6003, "tags": {"addr:district": "Chivay", "addr:full": "Calle Pizarro 403", "addr:province": "Caylloma", "addr:subdistrict": "Chivay", "amenity": "school", "ele": "3638", "fixme": "Ubicar el POI en el lugar que corresponde", "isced:level": "6", "name": "Andrew Pietowsky", "note": "Ubicacion_web_med (local)", "ref": "1639152", "source": "minedu.gob.pe"}}, {"type": "node", "id": 5574582892, "lat": -15.6396, "lon": -71.6001, "tags": {"addr:district": "Chivay", "addr:full": "Calle Melgar 415", "addr:province": "Caylloma", "addr:subdistrict": "Chivay", "amenity": "kindergarten", "ele": "3638", "fixme": "Ubicar el POI en el lugar que corresponde", "isced:level": "0", "name": "Instituci\u00f3n educativa inicial 075 Divino Ni\u00f1o Jesus", "note": "Gps_otras_fuentes (local)", "ref": "0225102", "source": "minedu.gob.pe"}}, {"type": "node", "id": 5574582893, "lat": -15.6366777, "lon": -71.6006973, "tags": {"addr:district": "Chivay", "addr:full": "Calle Mariano Melgar S/n", "addr:province": "Caylloma", "addr:subdistrict": "Chivay", "amenity": "school", "ele": "3638", "fixme": "Ubicar el POI en el lugar que corresponde", "isced:level": "1", "name": "Instituci\u00f3n Educativa 40375 Maria Auxiliadora", "note": "Gps_otras_fuentes (local)", "ref": "0312561", "source": "minedu.gob.pe"}}, {"type": "node", "id": 5574582894, "lat": -15.6371565, "lon": -71.6017431, "tags": {"addr:district": "Chivay", "addr:full": "Calle Bolognesi 1005", "addr:province": "Caylloma", "addr:subdistrict": "Chivay", "amenity": "school", "ele": "3638", "isced:level": "1;2", "name": "Instituci\u00f3n Educativa Hatarisunchis - El Principito", "note": "Img_satelital (cp)", "ref": "1578517;1578525", "source": "minedu.gob.pe"}}, {"type": "node", "id": 5574582895, "lat": -15.6316077, "lon": -71.6068092, "tags": {"addr:district": "Coporaque", "addr:full": "Calle Amauta S/n", "addr:province": "Caylloma", "addr:subdistrict": "Sacsayhuaman", "amenity": "school", "ele": "3633", "fixme": "Ubicar el POI en el lugar que corresponde", "isced:level": "1", "name": "Instituci\u00f3n Educativa 40572 Jose Qui\u00f1ones", "note": "Ubicacion_web (local)", "ref": "0612770", "source": "minedu.gob.pe"}}, {"type": "node", "id": 5574582896, "lat": -15.6371355, "lon": -71.6019357, "tags": {"addr:district": "Chivay", "addr:full": "Calle Bolognesi 1005", "addr:province": "Caylloma", "addr:subdistrict": "Chivay", "amenity": "kindergarten", "ele": "3638", "fixme": "Ubicar el POI en el lugar que corresponde", "isced:level": "0", "name": "Instituci\u00f3n educativa inicial Hatarisunchis - El Principito", "note": "Img_satelital (cp)", "ref": "1564194", "source": "minedu.gob.pe"}}, {"type": "node", "id": 5574582897, "lat": -15.6372234, "lon": -71.601967, "tags": {"addr:district": "Chivay", "addr:full": "Calle Grau 204", "addr:province": "Caylloma", "addr:subdistrict": "Chivay", "amenity": "school", "ele": "3638", "isced:level": "1;2", "name": "Instituci\u00f3n Educativa Santa Cruz", "note": "Img_satelital (cp)", "ref": "1271840;1274398", "source": "minedu.gob.pe"}}, {"type": "node", "id": 5574582898, "lat": -15.6367, "lon": -71.6031, "tags": {"addr:district": "Chivay", "addr:full": "Calle Elias Caceres Lozada Mz M Lote 1", "addr:province": "Caylloma", "addr:subdistrict": "Chivay", "amenity": "school", "ele": "3638", "fixme": "Ubicar el POI en el lugar que corresponde", "isced:level": "1", "name": "Instituci\u00f3n Educativa Honorio Delgado Espinoza", "note": "Gps_otras_fuentes (local)", "ref": "0679084", "source": "minedu.gob.pe"}}, {"type": "node", "id": 5574582899, "lat": -15.6322581, "lon": -71.6062105, "tags": {"addr:district": "Coporaque", "addr:full": "Mis Capullitos Ii", "addr:province": "Caylloma", "addr:subdistrict": "Sacsayhuaman", "amenity": "kindergarten", "ele": "3633", "fixme": "Ubicar el POI en el lugar que corresponde", "isced:level": "0", "name": "Instituci\u00f3n educativa inicial Mis Capullitos Ii/ Chaninchaq Maquicha", "note": "Img_satelital (cp)", "ref": "1741792", "source": "minedu.gob.pe"}}, {"type": "node", "id": 5574584059, "lat": -15.6453, "lon": -71.6064, "tags": {"addr:district": "Chivay", "addr:full": "Calle San Andres", "addr:province": "Caylloma", "addr:subdistrict": "San Andres", "amenity": "kindergarten", "ele": "3617", "fixme": "Ubicar el POI en el lugar que corresponde", "isced:level": "0", "name": "Instituci\u00f3n educativa inicial Los Patitos Ii", "note": "Ign (cp)", "ref": "1741800", "source": "minedu.gob.pe"}}, {"type": "node", "id": 9190684265, "lat": -15.641526, "lon": -71.6000181}, {"type": "node", "id": 9190684266, "lat": -15.6419235, "lon": -71.5998386}, {"type": "node", "id": 9190684267, "lat": -15.6424745, "lon": -71.5996712}, {"type": "node", "id": 9190684268, "lat": -15.6426607, "lon": -71.6001955}, {"type": "node", "id": 9190684269, "lat": -15.6428143, "lon": -71.6009571}, {"type": "node", "id": 9190684270, "lat": -15.6416086, "lon": -71.6012701}, {"type": "node", "id": 9190684271, "lat": -15.6414742, "lon": -71.6009252}, {"type": "node", "id": 9190684311, "lat": -15.6361422, "lon": -71.6052275}, {"type": "node", "id": 9190684312, "lat": -15.6355417, "lon": -71.6053545}, {"type": "node", "id": 9190684313, "lat": -15.6353939, "lon": -71.6057525}, {"type": "node", "id": 9190684314, "lat": -15.6358861, "lon": -71.6070556}, {"type": "node", "id": 9190684315, "lat": -15.6364793, "lon": -71.6068768}, {"type": "node", "id": 9190684316, "lat": -15.6362643, "lon": -71.6058422}, {"type": "node", "id": 9190694309, "lat": -15.6397691, "lon": -71.6036197}, {"type": "node", "id": 9190694310, "lat": -15.6401399, "lon": -71.6035411}, {"type": "node", "id": 9190694311, "lat": -15.6400606, "lon": -71.6032144}, {"type": "node", "id": 9190694312, "lat": -15.6396899, "lon": -71.6033074}, {"type": "node", "id": 9190694319, "lat": -15.6534219, "lon": -71.6145325}, {"type": "node", "id": 9190694320, "lat": -15.653074, "lon": -71.6139064}, {"type": "node", "id": 9190694321, "lat": -15.6531989, "lon": -71.613873}, {"type": "node", "id": 9190694322, "lat": -15.6532827, "lon": -71.6138415}, {"type": "node", "id": 9190694323, "lat": -15.653338, "lon": -71.6138452}, {"type": "node", "id": 9190694324, "lat": -15.6533951, "lon": -71.613823}, {"type": "node", "id": 9190694325, "lat": -15.6534968, "lon": -71.61381}, {"type": "node", "id": 9190694326, "lat": -15.6535503, "lon": -71.6137915}, {"type": "node", "id": 9190694327, "lat": -15.6535878, "lon": -71.6137656}, {"type": "node", "id": 9190694328, "lat": -15.6536234, "lon": -71.613723}, {"type": "node", "id": 9190694329, "lat": -15.6536324, "lon": -71.6136896}, {"type": "node", "id": 9190694330, "lat": -15.6536359, "lon": -71.613634}, {"type": "node", "id": 9190694331, "lat": -15.6536092, "lon": -71.6135562}, {"type": "node", "id": 9190694332, "lat": -15.6536556, "lon": -71.6135173}, {"type": "node", "id": 9190694333, "lat": -15.6537091, "lon": -71.6135062}, {"type": "node", "id": 9190694334, "lat": -15.6537537, "lon": -71.6134858}, {"type": "node", "id": 9190694335, "lat": -15.6538107, "lon": -71.613484}, {"type": "node", "id": 9190694336, "lat": -15.6538268, "lon": -71.6134395}, {"type": "node", "id": 9190694337, "lat": -15.6538625, "lon": -71.6134192}, {"type": "node", "id": 9190694338, "lat": -15.6538874, "lon": -71.6134229}, {"type": "node", "id": 9190694339, "lat": -15.6539285, "lon": -71.613384}, {"type": "node", "id": 9190694340, "lat": -15.6539595, "lon": -71.6133796}, {"type": "node", "id": 9190694341, "lat": -15.6542757, "lon": -71.613856}, {"type": "node", "id": 9190694342, "lat": -15.6539196, "lon": -71.6141694}, {"type": "node", "id": 9190694343, "lat": -15.6537162, "lon": -71.6143195}, {"type": "node", "id": 9190694344, "lat": -15.6536502, "lon": -71.6143491}, {"type": "node", "id": 9190694345, "lat": -15.6536074, "lon": -71.6143621}, {"type": "node", "id": 9190694346, "lat": -15.6535467, "lon": -71.6144103}, {"type": "node", "id": 9190694347, "lat": -15.6535164, "lon": -71.614438}, {"type": "node", "id": 9190694348, "lat": -15.6534665, "lon": -71.6144825}, {"type": "node", "id": 9191686110, "lat": -15.6397363, "lon": -71.6032958}, {"type": "node", "id": 9191686111, "lat": -15.6398793, "lon": -71.6032599}, {"type": "node", "id": 9191686114, "lat": -15.6400733, "lon": -71.6032669}, {"type": "node", "id": 9191724117, "lat": -15.6397474, "lon": -71.6035342}, {"type": "node", "id": 10239061412, "lat": -15.6259752, "lon": -71.6438875}, {"type": "node", "id": 10239061413, "lat": -15.6255988, "lon": -71.6435552}, {"type": "node", "id": 10239061414, "lat": -15.6251903, "lon": -71.6440296}, {"type": "node", "id": 10239061419, "lat": -15.6447384, "lon": -71.6538161}, {"type": "node", "id": 10239061420, "lat": -15.6448068, "lon": -71.6525766}, {"type": "node", "id": 10239061421, "lat": -15.6440881, "lon": -71.6524656}, {"type": "node", "id": 10247778992, "lat": -15.6075982, "lon": -71.8041389}, {"type": "node", "id": 10247778993, "lat": -15.6082828, "lon": -71.804501}, {"type": "node", "id": 10247778994, "lat": -15.6081095, "lon": -71.8048142}, {"type": "node", "id": 10247778995, "lat": -15.6079982, "lon": -71.8047653}, {"type": "node", "id": 10247778996, "lat": -15.6079683, "lon": -71.8047898}, {"type": "node", "id": 10247797733, "lat": -15.6212321, "lon": -71.7731157}, {"type": "node", "id": 10247797734, "lat": -15.6218421, "lon": -71.7720426}, {"type": "node", "id": 10247797735, "lat": -15.6210454, "lon": -71.7714403}, {"type": "way", "id": 995275620, "nodes": [9190684265, 9190684266, 9190684267, 9190684268, 9190684269, 9190684270, 9190684271, 9190684265], "tags": {"addr:district": "Chivay", "addr:province": "Caylloma", "addr:street": "Calle Ladislao Espinar", "addr:subdistrict": "Chivay", "amenity": "school", "contact:facebook": "https://www.facebook.com/I.E.FranciscoGarciaCalderon/", "ele": "3638", "isced:level": "2", "name": "Instituci\u00f3n Educativa Francisco Garcia Calderon", "note": "Gps_otras_fuentes (local)", "ref": "0309567", "source": "minedu.gob.pe"}}, {"type": "way", "id": 995275623, "nodes": [9190684311, 9190684312, 9190684313, 9190684314, 9190684315, 9190684316, 9190684311], "tags": {"addr:district": "Chivay", "addr:province": "Caylloma", "addr:street": "Calle Bolognesi", "addr:subdistrict": "Chivay", "amenity": "school", "contact:facebook": "https://www.facebook.com/elias.cacereslozada.1", "ele": "3638", "isced:level": "1", "name": "Instituci\u00f3n Educativa 40374 Elias Caceres Lozada", "note": "Gps_otras_fuentes (local)", "ref": "0312553", "source": "minedu.gob.pe"}}, {"type": "way", "id": 995275643, "nodes": [9190694309, 9190694310, 9191686114, 9190694311, 9191686111, 9191686110, 9190694312, 9191724117, 9190694309], "tags": {"amenity": "college"}}, {"type": "way", "id": 995275645, "nodes": [9190694319, 9190694320, 9190694321, 9190694322, 9190694323, 9190694324, 9190694325, 9190694326, 9190694327, 9190694328, 9190694329, 9190694330, 9190694331, 9190694332, 9190694333, 9190694334, 9190694335, 9190694336, 9190694337, 9190694338, 9190694339, 9190694340, 9190694341, 9190694342, 9190694343, 9190694344, 9190694345, 9190694346, 9190694347, 9190694348, 9190694319], "tags": {"addr:district": "Chivay", "addr:full": "Anexo Anansaya Trapiche", "addr:province": "Caylloma", "addr:subdistrict": "Trapiche", "amenity": "school", "ele": "3544", "isced:level": "1", "name": "Instituci\u00f3n Educativa Villa Infantil Casa Chapi", "note": "Gps_otras_fuentes (local)", "ref": "1655109", "source": "minedu.gob.pe"}}, {"type": "way", "id": 1119468012, "nodes": [5574576712, 10239061412, 10239061413, 10239061414, 5574576712], "tags": {"addr:district": "Coporaque", "addr:full": "Calle Tacna Y Arica S/n", "addr:province": "Caylloma", "addr:subdistrict": "Coporaque", "amenity": "school", "ele": "3584", "isced:level": "2", "name": "Instituci\u00f3n Educativa 40382 Virgen De Chapi", "note": "Med_gps (local)", "ref": "0892273", "source": "minedu.gob.pe"}}, {"type": "way", "id": 1119468014, "nodes": [5574577378, 10239061419, 10239061420, 10239061421, 5574577378], "tags": {"addr:district": "Yanque", "addr:full": "Calle Sallihua S/n", "addr:province": "Caylloma", "addr:subdistrict": "Yanque", "amenity": "school", "ele": "3428", "isced:level": "2", "name": "Instituci\u00f3n Educativa Agropecuario Yanque", "note": "Med_gps (local)", "ref": "0679035", "source": "minedu.gob.pe"}}, {"type": "way", "id": 1120445599, "nodes": [5574573058, 10247797733, 10247797734, 10247797735, 5574573058], "tags": {"addr:district": "Lari", "addr:full": "Avenida Ucayali S/n", "addr:province": "Caylloma", "addr:subdistrict": "Lari", "amenity": "school", "ele": "3356", "isced:level": "1;2", "name": "Instituci\u00f3n Educativa No. 40387", "note": "Med_gps (local)", "ref": "0312678;0589861", "source": "minedu.gob.pe"}}, {"type": "way", "id": 1120445642, "nodes": [5574546449, 10247778992, 10247778993, 10247778994, 10247778995, 10247778996, 5574546449], "tags": {"addr:district": "Madrigal", "addr:full": "Avenida San Martin S/n", "addr:province": "Caylloma", "addr:subdistrict": "Madrigal", "amenity": "school", "ele": "3274", "fixme": "Ubicar el POI en el lugar que corresponde", "isced:level": "1", "name": "Instituci\u00f3n Educativa No. 40391", "note": "Med_gps (local)", "ref": "0312710", "source": "minedu.gob.pe"}}]}