{"version": 0.6, "generator": "Overpass API 0.7.62.8 e802775f", "osm3s": {"timestamp_osm_base": "2025-09-30T11:07:22Z", "copyright": "The data included in this document is from www.openstreetmap.org. The data is made available under ODbL."}, "elements": [{"type": "node", "id": 675573737, "lat": 10.6528646, "lon": 122.9417087}, {"type": "node", "id": 675573741, "lat": 10.651985, "lon": 122.9432579}, {"type": "node", "id": 675573744, "lat": 10.6515985, "lon": 122.9424298}, {"type": "node", "id": 675573748, "lat": 10.6521101, "lon": 122.9413489}, {"type": "node", "id": 676637614, "lat": 10.6721688, "lon": 122.9566991, "tags": {"amenity": "fire_station", "name": "Amity Volunteer Fire Brigade"}}, {"type": "node", "id": 683553343, "lat": 10.6554643, "lon": 122.9563102, "tags": {"amenity": "fire_station"}}, {"type": "node", "id": 705931437, "lat": 10.6288118, "lon": 122.9278895, "tags": {"amenity": "police", "name": "Bacolod Police Station 8"}}, {"type": "node", "id": 725538637, "lat": 10.6718704, "lon": 122.9499559}, {"type": "node", "id": 725538640, "lat": 10.6723164, "lon": 122.950023}, {"type": "node", "id": 725538642, "lat": 10.6720208, "lon": 122.9499609}, {"type": "node", "id": 725538665, "lat": 10.6726589, "lon": 122.9499817}, {"type": "node", "id": 725538668, "lat": 10.6725817, "lon": 122.9501524}, {"type": "node", "id": 1158582434, "lat": 10.6011514, "lon": 122.9195599}, {"type": "node", "id": 1158582603, "lat": 10.6012096, "lon": 122.9195977}, {"type": "node", "id": 1158582694, "lat": 10.6011736, "lon": 122.9196551}, {"type": "node", "id": 1158582743, "lat": 10.6011155, "lon": 122.9196173}, {"type": "node", "id": 1158582758, "lat": 10.6011897, "lon": 122.9195848, "tags": {"entrance": "main"}}, {"type": "node", "id": 1217300280, "lat": 10.6512198, "lon": 122.941536}, {"type": "node", "id": 1217300313, "lat": 10.6518557, "lon": 122.941848}, {"type": "node", "id": 1704045208, "lat": 10.6467623, "lon": 122.9501243}, {"type": "node", "id": 1704045276, "lat": 10.6473481, "lon": 122.9484773}, {"type": "node", "id": 1704045311, "lat": 10.6477437, "lon": 122.9504899}, {"type": "node", "id": 1704045368, "lat": 10.6483839, "lon": 122.9488522}, {"type": "node", "id": 1708313106, "lat": 10.6578223, "lon": 122.9544275}, {"type": "node", "id": 1708313107, "lat": 10.6578535, "lon": 122.9540792}, {"type": "node", "id": 1708313111, "lat": 10.6580226, "lon": 122.9542867}, {"type": "node", "id": 1817700539, "lat": 10.6662422, "lon": 123.0339951, "tags": {"amenity": "fire_station", "name": "Granada Fire Station"}}, {"type": "node", "id": 2547024656, "lat": 10.6258931, "lon": 122.9674166}, {"type": "node", "id": 2547024657, "lat": 10.6258295, "lon": 122.967546}, {"type": "node", "id": 2547024659, "lat": 10.6259446, "lon": 122.967603}, {"type": "node", "id": 2547024661, "lat": 10.6260112, "lon": 122.9674766}, {"type": "node", "id": 2931653998, "lat": 10.4218223, "lon": 122.9137756}, {"type": "node", "id": 2931653999, "lat": 10.4219209, "lon": 122.9140693}, {"type": "node", "id": 2931665201, "lat": 10.4220204, "lon": 122.9137652}, {"type": "node", "id": 2931665202, "lat": 10.4220416, "lon": 122.913385}, {"type": "node", "id": 2931665203, "lat": 10.4221269, "lon": 122.91403}, {"type": "node", "id": 2931665205, "lat": 10.4222292, "lon": 122.9143296}, {"type": "node", "id": 2931665216, "lat": 10.4232901, "lon": 122.9143012}, {"type": "node", "id": 2931665221, "lat": 10.423534, "lon": 122.9143033}, {"type": "node", "id": 2931665222, "lat": 10.4235574, "lon": 122.9134261}, {"type": "node", "id": 3183926831, "lat": 10.6665903, "lon": 123.0341149}, {"type": "node", "id": 3183926832, "lat": 10.6666043, "lon": 123.0339792}, {"type": "node", "id": 3183926833, "lat": 10.6666645, "lon": 123.0341229}, {"type": "node", "id": 3183926834, "lat": 10.6666786, "lon": 123.0339871}, {"type": "node", "id": 3413786123, "lat": 10.6700335, "lon": 122.9456842, "tags": {"addr:street": "San Juan Street", "amenity": "police", "name": "Bacolod City Police Station \u2116 1"}}, {"type": "node", "id": 4123787491, "lat": 10.6656337, "lon": 122.937953, "tags": {"alt_name": "San Juan Fire Station", "amenity": "fire_station", "name": "Rodriguez Sub-Fire Station", "name:en": "Rodriguez Sub-Fire Station"}}, {"type": "node", "id": 4139879591, "lat": 10.6063599, "lon": 122.9664112, "tags": {"addr:street": "Handumanan Road", "amenity": "police", "name": "Bacolod Police Station \u2116 10"}}, {"type": "node", "id": 4164314691, "lat": 10.666467, "lon": 123.0337371, "tags": {"amenity": "police", "name": "Granada Police Station"}}, {"type": "node", "id": 4698626190, "lat": 10.6240586, "lon": 122.9704721, "tags": {"amenity": "police", "name": "Anya's Haven", "name:en": "Anya's Haven"}}, {"type": "node", "id": 4698661991, "lat": 10.6184582, "lon": 123.0070398, "tags": {"amenity": "police", "name": "Paglaum Village Public Market", "name:en": "Paglaum Village Public Market"}}, {"type": "node", "id": 4698661993, "lat": 10.6311308, "lon": 122.9747114, "tags": {"amenity": "police", "bubbleid": "271286810", "name": "Police Station \u2116 7", "old_name": "Bac-up 7 Police Station"}}, {"type": "node", "id": 4959853329, "lat": 10.6202656, "lon": 123.0068121, "tags": {"amenity": "hospital", "name": "BAM C", "name:en": "BAM C"}}, {"type": "node", "id": 4972903734, "lat": 10.6731544, "lon": 122.9505563}, {"type": "node", "id": 4972903735, "lat": 10.6714038, "lon": 122.9510487}, {"type": "node", "id": 4972903736, "lat": 10.6730129, "lon": 122.950034}, {"type": "node", "id": 4972903738, "lat": 10.672986, "lon": 122.9513071}, {"type": "node", "id": 4972903739, "lat": 10.6727807, "lon": 122.9499091}, {"type": "node", "id": 4972903740, "lat": 10.6733937, "lon": 122.9505793}, {"type": "node", "id": 4972903742, "lat": 10.6725555, "lon": 122.9515231}, {"type": "node", "id": 4972903743, "lat": 10.6727828, "lon": 122.9513311}, {"type": "node", "id": 4972903744, "lat": 10.6732274, "lon": 122.950577}, {"type": "node", "id": 4972903745, "lat": 10.6733026, "lon": 122.9505577}, {"type": "node", "id": 4972903747, "lat": 10.673037, "lon": 122.950509}, {"type": "node", "id": 4972903748, "lat": 10.673126, "lon": 122.9512503}, {"type": "node", "id": 4972903749, "lat": 10.6727179, "lon": 122.9499303}, {"type": "node", "id": 4972907461, "lat": 10.6143637, "lon": 122.9265237}, {"type": "node", "id": 4972907462, "lat": 10.6148798, "lon": 122.9255272}, {"type": "node", "id": 4972907463, "lat": 10.6140843, "lon": 122.9263827}, {"type": "node", "id": 4972907464, "lat": 10.614588, "lon": 122.9253875}, {"type": "node", "id": 5121765765, "lat": 10.6617454, "lon": 122.9848107}, {"type": "node", "id": 5121765766, "lat": 10.6609138, "lon": 122.9853316}, {"type": "node", "id": 5121765767, "lat": 10.6621576, "lon": 122.9853096}, {"type": "node", "id": 5121765768, "lat": 10.6621656, "lon": 122.9840604}, {"type": "node", "id": 5121765769, "lat": 10.6609075, "lon": 122.9848248}, {"type": "node", "id": 5121765770, "lat": 10.6620406, "lon": 122.9839796}, {"type": "node", "id": 6669345775, "lat": 10.5657895, "lon": 123.1180178, "tags": {"amenity": "fire_station", "source": "data.gov.ph;Bureau of Fire Protection"}}, {"type": "node", "id": 6669487363, "lat": 10.6012258, "lon": 122.9194596, "tags": {"entrance": "main"}}, {"type": "node", "id": 6669504012, "lat": 10.6692131, "lon": 122.9591198, "tags": {"amenity": "fire_station", "source": "data.gov.ph;Bureau of Fire Protection"}}, {"type": "node", "id": 7428742958, "lat": 10.6011958, "lon": 122.9194433}, {"type": "node", "id": 7428742959, "lat": 10.6011444, "lon": 122.9195414}, {"type": "node", "id": 7428742960, "lat": 10.6012124, "lon": 122.9195782}, {"type": "node", "id": 7428742961, "lat": 10.6012637, "lon": 122.9194801}, {"type": "node", "id": 7659999285, "lat": 10.6123113, "lon": 122.9325542, "tags": {"addr:place": "Pahanocoy", "amenity": "police", "name": "Police Station \u2116 8"}}, {"type": "node", "id": 7764297553, "lat": 10.6722825, "lon": 122.9500912}, {"type": "node", "id": 7764779365, "lat": 10.6719969, "lon": 122.9500149}, {"type": "node", "id": 7766454611, "lat": 10.6734057, "lon": 122.9509844}, {"type": "node", "id": 8259874025, "lat": 10.6672464, "lon": 122.9611683}, {"type": "node", "id": 8259874026, "lat": 10.667278, "lon": 122.9613547}, {"type": "node", "id": 8259874027, "lat": 10.6671977, "lon": 122.9613689}, {"type": "node", "id": 8259874028, "lat": 10.667166, "lon": 122.9611824}, {"type": "node", "id": 10892753371, "lat": 10.6727613, "lon": 122.9513723}, {"type": "node", "id": 10892809026, "lat": 10.6734571, "lon": 122.9507218}, {"type": "node", "id": 10892809027, "lat": 10.6734545, "lon": 122.9506434}, {"type": "node", "id": 10892809028, "lat": 10.6734535, "lon": 122.9508415}, {"type": "node", "id": 11998518680, "lat": 10.6067093, "lon": 123.0415534}, {"type": "node", "id": 11998518683, "lat": 10.6066154, "lon": 123.0415247}, {"type": "node", "id": 12143310144, "lat": 10.6065839, "lon": 123.0416316}, {"type": "node", "id": 12143310145, "lat": 10.6066778, "lon": 123.0416602}, {"type": "node", "id": 12366216361, "lat": 10.4270272, "lon": 122.9215321}, {"type": "node", "id": 12366216362, "lat": 10.4268998, "lon": 122.9215307}, {"type": "node", "id": 12366216363, "lat": 10.4268989, "lon": 122.9216172}, {"type": "node", "id": 12366216364, "lat": 10.4270262, "lon": 122.9216186}, {"type": "node", "id": 12383768062, "lat": 10.6066987, "lon": 123.0416932}, {"type": "node", "id": 12383768063, "lat": 10.6065821, "lon": 123.0416545}, {"type": "node", "id": 12383768064, "lat": 10.6065602, "lon": 123.0417227}, {"type": "node", "id": 12383768065, "lat": 10.6066768, "lon": 123.0417614}, {"type": "way", "id": 53447539, "nodes": [675573737, 675573741, 675573744, 1217300280, 1217300313, 675573748, 675573737], "tags": {"amenity": "police", "name": "Bacolod City Police Headquarters"}}, {"type": "way", "id": 100233824, "nodes": [1158582603, 1158582758, 1158582434, 1158582743, 1158582694, 1158582603], "tags": {"addr:city": "Bacolod", "addr:postcode": "6100", "addr:quarter": "Sum-ag", "addr:street": "Araneta Street", "alt_name": "Sum-ag Police Station", "amenity": "police", "building": "civic", "name": "Bacolod City Police Station 9", "phone": "+63 34 704 3435", "previously": "node:1158582758"}}, {"type": "way", "id": 158171506, "nodes": [1704045368, 1704045276, 1704045208, 1704045311, 1704045368], "tags": {"amenity": "hospital", "healthcare": "hospital", "name": "Adventist Medical Center - Bacolod", "previously": "node:676889055", "source": "Bing"}}, {"type": "way", "id": 158672441, "nodes": [1708313111, 1708313107, 1708313106, 1708313111], "tags": {"amenity": "police", "building": "yes", "name": "Backup 6 police precinct 6", "name:en": "Backup 6 police precinct 6"}}, {"type": "way", "id": 247842702, "nodes": [2547024656, 2547024657, 2547024659, 2547024661, 2547024656], "tags": {"addr:city": "Bacolod", "addr:postcode": "6100", "amenity": "fire_station", "building": "yes", "emergency": "ambulance_station", "name": "Amity Volunteer Fire Brigade Sub-Station", "operator": "Negros Occidental Filipino-Chinese Amity Club, Inc.", "operator:type": "community"}}, {"type": "way", "id": 289624100, "nodes": [2931665202, 2931665201, 2931653998, 2931653999, 2931665203, 2931665205, 2931665216, 2931665221, 2931665222, 2931665202], "tags": {"amenity": "hospital", "healthcare": "hospital", "name": "Don Salvador Benedicto Memorial District Hospital"}}, {"type": "way", "id": 312528173, "nodes": [3183926834, 3183926832, 3183926831, 3183926833, 3183926834], "tags": {"amenity": "police", "name": "Granada Police Station"}}, {"type": "way", "id": 507866123, "nodes": [725538637, 7764779365, 725538642, 7764297553, 725538640, 725538668, 725538665, 4972903749, 4972903739, 4972903736, 4972903747, 4972903734, 4972903744, 4972903745, 4972903740, 10892809027, 10892809026, 10892809028, 7766454611, 4972903748, 4972903738, 4972903743, 10892753371, 4972903742, 4972903735, 725538637], "tags": {"addr:city": "Bacolod", "addr:postcode": "6100", "addr:street": "Lacson Street", "amenity": "hospital", "contact:phone": "+63 34 433 2697;+6334 7070280;+6334 4332697;+6343 4331591", "healthcare": "hospital", "name": "Corazon Locsin Montelibano Memorial Regional Hospital", "name:abbr": "CLMMRH", "operator": "Department of Health", "operator:type": "government"}}, {"type": "way", "id": 507866551, "nodes": [4972907462, 4972907464, 4972907463, 4972907461, 4972907462], "tags": {"amenity": "hospital", "name": "South Bacolod General Hopital"}}, {"type": "way", "id": 526755204, "nodes": [5121765769, 5121765765, 5121765770, 5121765768, 5121765767, 5121765766, 5121765769], "tags": {"addr:city": "Bacolod", "addr:postcode": "6100", "addr:street": "Burgos Extension", "amenity": "hospital", "facebook": "https://www.facebook.com/MBHMCofficial", "name": "Metro Bacolod Hospital and Medical Center", "operator:type": "private"}}, {"type": "way", "id": 794270949, "nodes": [6669487363, 7428742961, 7428742960, 7428742959, 7428742958, 6669487363], "tags": {"addr:city": "Bacolod", "addr:postcode": "6100", "addr:quarter": "Sum-ag", "addr:street": "Araneta Street", "amenity": "fire_station", "building": "civic", "name": "Sum-ag Fire Sub-station", "operator:type": "public", "phone": "+63 34 444 0770", "previously": "node:6669487363", "source": "data.gov.ph;Bureau of Fire Protection"}}, {"type": "way", "id": 888428976, "nodes": [8259874028, 8259874025, 8259874026, 8259874027, 8259874028], "tags": {"amenity": "police", "building": "yes", "name": "Police Station 4 Villamonte"}}, {"type": "way", "id": 1294687800, "nodes": [11998518680, 12143310145, 12143310144, 11998518683, 11998518680], "tags": {"addr:street": "Lavaro Street", "amenity": "police", "building": "civic", "name": "Murcia Municipal Police Station", "operator": "Philippine National Police", "operator:short": "PNP", "operator:wikidata": "Q963772"}}, {"type": "way", "id": 1336976327, "nodes": [12366216361, 12366216362, 12366216363, 12366216364, 12366216361], "tags": {"addr:city": "La Carlota", "addr:district": "Barangay II", "addr:postcode": "6130", "addr:province": "Negros Occidental", "addr:street": "La Paz Street", "amenity": "fire_station", "building": "yes", "name": "La Carlota City Fire Station", "operator": "Bureau of Fire Protection", "operator:wikidata": "Q17027200"}}, {"type": "way", "id": 1338778326, "nodes": [12383768062, 12383768063, 12383768064, 12383768065, 12383768062], "tags": {"addr:street": "Lavaro Street", "amenity": "fire_station", "building": "civic", "name": "Murcia Fire Station", "operator": "Bureau of Fire Protection", "operator:wikidata": "Q17027200"}}]}