{"version": 0.6, "generator": "Overpass API 0.7.62.8 e802775f", "osm3s": {"timestamp_osm_base": "2025-09-30T11:00:16Z", "copyright": "The data included in this document is from www.openstreetmap.org. The data is made available under ODbL."}, "elements": [{"type": "node", "id": 1543703008, "lat": -7.5335128, "lon": 110.6014341, "tags": {"amenity": "bank", "atm": "yes", "brand": "BRI", "brand:wikidata": "Q623042", "name": "BRI", "official_name": "Bank Rakyat Indonesia"}}, {"type": "node", "id": 1543769872, "lat": -7.5373944, "lon": 110.6052381, "tags": {"amenity": "bank", "name": "Bank Mega"}}, {"type": "node", "id": 1543795341, "lat": -7.5341255, "lon": 110.6006543, "tags": {"amenity": "bank", "atm": "yes", "name": "BPD Jateng"}}, {"type": "node", "id": 1544575246, "lat": -7.5325558, "lon": 110.5998434, "tags": {"amenity": "bank", "name": "BPR Guna Daya"}}, {"type": "node", "id": 1651231504, "lat": -7.5222065, "lon": 110.5403567, "tags": {"amenity": "townhall", "name": "Balai Desa Paras"}}, {"type": "node", "id": 1920070987, "lat": -7.3196, "lon": 110.4983302, "tags": {"amenity": "bank", "atm": "yes", "name": "BNI"}}, {"type": "node", "id": 1920070991, "lat": -7.3197169, "lon": 110.4983582, "tags": {"amenity": "bank", "atm": "yes", "name": "BRI"}}, {"type": "node", "id": 1920070994, "lat": -7.3195841, "lon": 110.4988215, "tags": {"amenity": "bank", "atm": "yes", "name": "Bukopin"}}, {"type": "node", "id": 1920070998, "lat": -7.3193898, "lon": 110.4983986, "tags": {"amenity": "bank", "name": "CIMB Niaga"}}, {"type": "node", "id": 2160194797, "lat": -7.2736153, "lon": 110.4557518, "tags": {"amenity": "fuel", "source": "Bing"}}, {"type": "node", "id": 2177957904, "lat": -7.3411536, "lon": 110.5084597}, {"type": "node", "id": 2177957906, "lat": -7.3413478, "lon": 110.5082559}, {"type": "node", "id": 2177957907, "lat": -7.3411976, "lon": 110.5088674}, {"type": "node", "id": 2177957908, "lat": -7.341521, "lon": 110.5089517}, {"type": "node", "id": 2398897963, "lat": -7.3255042, "lon": 110.5052262}, {"type": "node", "id": 2398897977, "lat": -7.325482, "lon": 110.5050957}, {"type": "node", "id": 2398897983, "lat": -7.3252711, "lon": 110.5051269}, {"type": "node", "id": 2398897985, "lat": -7.3252933, "lon": 110.5052629}, {"type": "node", "id": 3001690339, "lat": -7.38486, "lon": 110.4666251}, {"type": "node", "id": 3001690340, "lat": -7.3848722, "lon": 110.466741}, {"type": "node", "id": 3001690341, "lat": -7.3851156, "lon": 110.4667102}, {"type": "node", "id": 3001690342, "lat": -7.3851009, "lon": 110.4665924}, {"type": "node", "id": 3009985919, "lat": -7.341699, "lon": 110.5087683}, {"type": "node", "id": 3011767690, "lat": -7.3202721, "lon": 110.5035676, "tags": {"addr:city": "Salatiga", "addr:street": "Jalan Pattimura", "amenity": "fuel", "fuel:diesel": "yes", "fuel:octane_88": "yes", "fuel:octane_90": "yes", "fuel:octane_92": "yes", "name": "SPBU Sayangan", "opening_hours": "24/7", "operator": "Pertamina", "payment:cash": "yes"}}, {"type": "node", "id": 3011767702, "lat": -7.3204565, "lon": 110.4942945, "tags": {"addr:city": "Salatiga", "addr:street": "Jalan Imam Bonjol", "amenity": "fuel", "name": "SPBU", "operator": "Pertamina"}}, {"type": "node", "id": 3026450327, "lat": -7.3299062, "lon": 110.4960203, "tags": {"addr:city": "Salatiga", "addr:street": "Jalan Osamaliki", "amenity": "fuel", "brand": "Pertamina", "brand:wikidata": "Q1641044", "name": "SPBU Osamaliki"}}, {"type": "node", "id": 3028960529, "lat": -7.5353214, "lon": 110.6008892, "tags": {"amenity": "bank", "atm": "yes", "name": "Bank BCA"}}, {"type": "node", "id": 3028963842, "lat": -7.5351353, "lon": 110.6009992, "tags": {"amenity": "bank", "atm": "yes", "name": "Bank Muamalat"}}, {"type": "node", "id": 3028964487, "lat": -7.5340569, "lon": 110.6010235, "tags": {"amenity": "bank", "atm": "yes", "name": "Bank Mandir Syariah"}}, {"type": "node", "id": 3095047483, "lat": -7.32841, "lon": 110.5092398}, {"type": "node", "id": 3095047484, "lat": -7.3284175, "lon": 110.509295}, {"type": "node", "id": 3095047485, "lat": -7.3284243, "lon": 110.509344}, {"type": "node", "id": 3095047487, "lat": -7.3284858, "lon": 110.5092293}, {"type": "node", "id": 3095047488, "lat": -7.3285001, "lon": 110.5093334}, {"type": "node", "id": 3357511757, "lat": -7.3244225, "lon": 110.5036139}, {"type": "node", "id": 3357511758, "lat": -7.3245787, "lon": 110.5034907}, {"type": "node", "id": 3357511761, "lat": -7.3246915, "lon": 110.5036485}, {"type": "node", "id": 3357511762, "lat": -7.3245322, "lon": 110.5037601}, {"type": "node", "id": 3359602009, "lat": -7.3218582, "lon": 110.5009937}, {"type": "node", "id": 3359602010, "lat": -7.321938, "lon": 110.5011359}, {"type": "node", "id": 3359602011, "lat": -7.3217385, "lon": 110.5012459}, {"type": "node", "id": 3359602012, "lat": -7.3216587, "lon": 110.5011024}, {"type": "node", "id": 3363320980, "lat": -7.3641305, "lon": 110.5129749, "tags": {"addr:city": "Salatiga", "addr:street": "Jalan Lingkar Salatiga", "amenity": "courthouse", "name": "Pengadilan Agama Salatiga"}}, {"type": "node", "id": 3421524242, "lat": -7.3244426, "lon": 110.5048505, "tags": {"amenity": "bank", "atm": "yes", "name": "Permata Bank Salatiga", "operator": "Permata Bank"}}, {"type": "node", "id": 3421524243, "lat": -7.3245907, "lon": 110.5044508, "tags": {"amenity": "bank", "atm": "yes", "name": "Bank BTN"}}, {"type": "node", "id": 3421662756, "lat": -7.3208399, "lon": 110.5002344}, {"type": "node", "id": 3421662757, "lat": -7.3209809, "lon": 110.5005348}, {"type": "node", "id": 3421662758, "lat": -7.3214704, "lon": 110.5003041}, {"type": "node", "id": 3421662759, "lat": -7.3213959, "lon": 110.5001298}, {"type": "node", "id": 3421662760, "lat": -7.32134, "lon": 110.5001593}, {"type": "node", "id": 3421662761, "lat": -7.3212841, "lon": 110.5000466}, {"type": "node", "id": 3655345915, "lat": -7.5225424, "lon": 110.451736, "tags": {"amenity": "shelter", "ele": "2150", "name": "Pintu Gerbang"}}, {"type": "node", "id": 4167008369, "lat": -7.3243252, "lon": 110.504988}, {"type": "node", "id": 4167008370, "lat": -7.3243292, "lon": 110.5050953}, {"type": "node", "id": 4167008371, "lat": -7.3244809, "lon": 110.5050912}, {"type": "node", "id": 4167008372, "lat": -7.3244769, "lon": 110.5049826}, {"type": "node", "id": 4167008373, "lat": -7.3237679, "lon": 110.5051824}, {"type": "node", "id": 4167008374, "lat": -7.3237746, "lon": 110.5053407}, {"type": "node", "id": 4167008375, "lat": -7.3238637, "lon": 110.5053353}, {"type": "node", "id": 4167008376, "lat": -7.323865, "lon": 110.5053796}, {"type": "node", "id": 4167008377, "lat": -7.3241803, "lon": 110.5053662}, {"type": "node", "id": 4167008378, "lat": -7.3241776, "lon": 110.5052911}, {"type": "node", "id": 4167008379, "lat": -7.3242481, "lon": 110.5052897}, {"type": "node", "id": 4167008380, "lat": -7.3242441, "lon": 110.5051985}, {"type": "node", "id": 4167008381, "lat": -7.3241709, "lon": 110.5051999}, {"type": "node", "id": 4167008382, "lat": -7.324167, "lon": 110.5051328}, {"type": "node", "id": 4167008383, "lat": -7.3238796, "lon": 110.5051395}, {"type": "node", "id": 4167008384, "lat": -7.3238796, "lon": 110.5051784}, {"type": "node", "id": 4636903384, "lat": -7.3310009, "lon": 110.5001575}, {"type": "node", "id": 4636903385, "lat": -7.3311934, "lon": 110.5008446}, {"type": "node", "id": 4636903386, "lat": -7.3321102, "lon": 110.5006351}, {"type": "node", "id": 4636903387, "lat": -7.3319452, "lon": 110.4999912}, {"type": "node", "id": 4637074225, "lat": -7.3321678, "lon": 110.5096763}, {"type": "node", "id": 4637074226, "lat": -7.3323591, "lon": 110.5095825}, {"type": "node", "id": 4637074227, "lat": -7.3324223, "lon": 110.5095985}, {"type": "node", "id": 4637074228, "lat": -7.3324855, "lon": 110.5096303}, {"type": "node", "id": 4637074229, "lat": -7.3325627, "lon": 110.5098533}, {"type": "node", "id": 4637074230, "lat": -7.3323064, "lon": 110.5099418}, {"type": "node", "id": 4637074231, "lat": -7.3305001, "lon": 110.5016232}, {"type": "node", "id": 4637074232, "lat": -7.3305427, "lon": 110.5017546}, {"type": "node", "id": 4637074233, "lat": -7.330971, "lon": 110.5016379}, {"type": "node", "id": 4637074234, "lat": -7.3309404, "lon": 110.501481}, {"type": "node", "id": 4639271489, "lat": -7.3241475, "lon": 110.5057422}, {"type": "node", "id": 4639271490, "lat": -7.3241583, "lon": 110.5060467}, {"type": "node", "id": 4639271491, "lat": -7.324497, "lon": 110.5060345}, {"type": "node", "id": 4639271492, "lat": -7.3244862, "lon": 110.5057301}, {"type": "node", "id": 4968460032, "lat": -7.3606435, "lon": 110.5137286, "tags": {"amenity": "fuel", "brand": "Pertamina", "brand:wikidata": "Q1641044", "fuel:diesel": "yes", "fuel:octane_88": "yes", "fuel:octane_90": "yes", "fuel:octane_92": "yes", "name": "Pertamina", "opening_hours": "24/7"}}, {"type": "node", "id": 4970512841, "lat": -7.535232, "lon": 110.6681385, "tags": {"amenity": "fuel", "fuel:diesel": "yes", "fuel:octane_88": "yes", "fuel:octane_92": "yes", "name": "Pertamina", "opening_hours": "24/7"}}, {"type": "node", "id": 4986721327, "lat": -7.3945965, "lon": 110.5135593, "tags": {"amenity": "fuel", "name": "Pertamina", "opening_hours": "24/7"}}, {"type": "node", "id": 4986721333, "lat": -7.3982651, "lon": 110.5138697, "tags": {"amenity": "fuel", "name": "Pertamina", "opening_hours": "24/7"}}, {"type": "node", "id": 5117550367, "lat": -7.3229613, "lon": 110.5028643}, {"type": "node", "id": 5117550368, "lat": -7.3232965, "lon": 110.502639}, {"type": "node", "id": 5117550369, "lat": -7.3233843, "lon": 110.5027623}, {"type": "node", "id": 5117550370, "lat": -7.3232326, "lon": 110.5028616}, {"type": "node", "id": 5117550371, "lat": -7.3231741, "lon": 110.5027865}, {"type": "node", "id": 5117550372, "lat": -7.3230996, "lon": 110.5029501}, {"type": "node", "id": 5117550373, "lat": -7.3230357, "lon": 110.5029876}, {"type": "node", "id": 5117550374, "lat": -7.3230464, "lon": 110.502871}, {"type": "node", "id": 5117550413, "lat": -7.3239623, "lon": 110.5036161}, {"type": "node", "id": 5117550414, "lat": -7.3240702, "lon": 110.5038024}, {"type": "node", "id": 5117550415, "lat": -7.3238943, "lon": 110.5039059}, {"type": "node", "id": 5117550416, "lat": -7.3238088, "lon": 110.5037581}, {"type": "node", "id": 5117550417, "lat": -7.3239085, "lon": 110.5036995}, {"type": "node", "id": 5117550418, "lat": -7.3238862, "lon": 110.5036609}, {"type": "node", "id": 5194235413, "lat": -7.3251867, "lon": 110.5090966}, {"type": "node", "id": 5194235414, "lat": -7.3252306, "lon": 110.5091797}, {"type": "node", "id": 5194235415, "lat": -7.3250856, "lon": 110.5092548}, {"type": "node", "id": 5194235416, "lat": -7.3250417, "lon": 110.5091771}, {"type": "node", "id": 5351221815, "lat": -7.5140205, "lon": 110.5870253, "tags": {"amenity": "fuel", "name": "Pertamina"}}, {"type": "node", "id": 5761940642, "lat": -7.3057599, "lon": 110.4879029, "tags": {"amenity": "fuel", "brand": "Pertamina", "fuel:biosolar": "yes", "fuel:pertalite": "yes", "fuel:pertamax": "yes", "name": "SPBU Pertamina 44.507.05"}}, {"type": "node", "id": 5806974554, "lat": -7.331447, "lon": 110.5048882, "tags": {"amenity": "bank", "atm": "yes", "name": "UOB"}}, {"type": "node", "id": 5808354977, "lat": -7.3184521, "lon": 110.4963571, "tags": {"addr:city": "Salatiga", "addr:housenumber": "77F-77G", "addr:postcode": "50711", "addr:street": "Jalan Diponegoro", "amenity": "bank", "brand": "Bank Mandiri Syariah", "brand:wikidata": "Q12474533", "brand:wikipedia": "id:Bank Syariah Mandiri", "name": "Bank Mandiri Syariah"}}, {"type": "node", "id": 5875598678, "lat": -7.538768, "lon": 110.6176441, "tags": {"amenity": "fuel", "name": "Pertamina"}}, {"type": "node", "id": 5875618523, "lat": -7.4909836, "lon": 110.5716841, "tags": {"amenity": "fuel", "fuel:diesel": "yes", "fuel:octane_88": "yes", "fuel:octane_90": "yes", "fuel:octane_92": "yes", "name": "Pertamina", "opening_hours": "24/7", "payment:cash": "yes"}}, {"type": "node", "id": 5875639577, "lat": -7.46466, "lon": 110.5549539, "tags": {"amenity": "fuel", "fuel:diesel": "yes", "fuel:octane_88": "yes", "fuel:octane_90": "yes", "fuel:octane_92": "yes", "name": "Pertamina", "opening_hours": "24/7", "payment:cash": "yes"}}, {"type": "node", "id": 5875647357, "lat": -7.4334101, "lon": 110.5313585, "tags": {"amenity": "fuel", "fuel:diesel": "yes", "fuel:octane_88": "yes", "fuel:octane_90": "yes", "fuel:octane_92": "yes", "name": "Pertamina", "opening_hours": "24/7", "payment:cash": "yes"}}, {"type": "node", "id": 5875650710, "lat": -7.4212403, "lon": 110.5258145, "tags": {"amenity": "fuel", "fuel:diesel": "yes", "fuel:octane_88": "yes", "fuel:octane_90": "yes", "fuel:octane_92": "yes", "name": "Pertamina", "opening_hours": "24/7", "payment:cash": "yes"}}, {"type": "node", "id": 6155065448, "lat": -7.3330115, "lon": 110.5089989, "tags": {"addr:city": "Salatiga", "addr:street": "Jalan dr. Muwardi", "amenity": "bank", "atm": "yes", "brand": "BRI", "brand:wikidata": "Q623042", "brand:wikipedia": "id:Bank Rakyat Indonesia", "name": "BRI Nanggulan", "official_name": "Bank Rakyat Indonesia", "official_name:en": "People's Bank of Indonesia", "official_name:id": "Bank Rakyat Indonesia"}}, {"type": "node", "id": 6195003195, "lat": -7.3678876, "lon": 110.5633745, "tags": {"amenity": "fuel", "brand": "Pertamina", "brand:wikidata": "Q1641044", "brand:wikipedia": "en:Pertamina", "name": "Pertamina"}}, {"type": "node", "id": 6195003196, "lat": -7.3621831, "lon": 110.5289591, "tags": {"amenity": "fuel", "brand": "Pertamina", "brand:wikidata": "Q1641044", "brand:wikipedia": "en:Pertamina", "name": "Pertamina"}}, {"type": "node", "id": 6263585051, "lat": -7.3244902, "lon": 110.5058419}, {"type": "node", "id": 6263585052, "lat": -7.3244928, "lon": 110.5059156}, {"type": "node", "id": 6263585053, "lat": -7.3245616, "lon": 110.5059131}, {"type": "node", "id": 6263585054, "lat": -7.3245589, "lon": 110.5058394}, {"type": "node", "id": 6630465598, "lat": -7.5266246, "lon": 110.4511873, "tags": {"amenity": "shelter", "ele": "2302", "name": "Pos 1"}}, {"type": "node", "id": 6673777117, "lat": -7.32099, "lon": 110.5024232, "tags": {"addr:city": "Salatiga", "addr:housenumber": "10", "addr:street": "Jalan Yos Sudarso", "amenity": "social_facility", "description": "Panti Asuhan (id) = orphanage (en)", "name": "Panti Asuhan Bakti Luhur Salatiga"}}, {"type": "node", "id": 6673876478, "lat": -7.3211207, "lon": 110.5029732, "tags": {"addr:city": "Salatiga", "addr:housenumber": "20", "addr:street": "Jalan Yos Sudarso", "amenity": "social_facility", "name": "Rumah Pelayanan Sosial Anak Balita Wiloso Tomo"}}, {"type": "node", "id": 6774243844, "lat": -7.3377359, "lon": 110.4991812}, {"type": "node", "id": 6774243845, "lat": -7.3379508, "lon": 110.4989293}, {"type": "node", "id": 6774243846, "lat": -7.3380797, "lon": 110.4990411}, {"type": "node", "id": 6774243847, "lat": -7.3380236, "lon": 110.4991068}, {"type": "node", "id": 6774243848, "lat": -7.33798, "lon": 110.499069}, {"type": "node", "id": 6774243849, "lat": -7.3378212, "lon": 110.4992551}, {"type": "node", "id": 6774243854, "lat": -7.331963, "lon": 110.499202}, {"type": "node", "id": 6774243855, "lat": -7.3320845, "lon": 110.4991597}, {"type": "node", "id": 6774243856, "lat": -7.3321626, "lon": 110.499388}, {"type": "node", "id": 6774243857, "lat": -7.3320317, "lon": 110.4994336}, {"type": "node", "id": 6774243858, "lat": -7.3320379, "lon": 110.4994517}, {"type": "node", "id": 6774243859, "lat": -7.3319566, "lon": 110.49948}, {"type": "node", "id": 6774243860, "lat": -7.3319287, "lon": 110.4993985}, {"type": "node", "id": 6774243861, "lat": -7.3320195, "lon": 110.4993669}, {"type": "node", "id": 6774639236, "lat": -7.3239613, "lon": 110.5028895}, {"type": "node", "id": 6774639237, "lat": -7.3238697, "lon": 110.5027489}, {"type": "node", "id": 6774639238, "lat": -7.3240935, "lon": 110.5026008}, {"type": "node", "id": 6774639239, "lat": -7.3241266, "lon": 110.5026516}, {"type": "node", "id": 6774639240, "lat": -7.3241716, "lon": 110.5026217}, {"type": "node", "id": 6774639241, "lat": -7.3242301, "lon": 110.5027115}, {"type": "node", "id": 7372141571, "lat": -7.3030181, "lon": 110.4860155, "tags": {"addr:city": "Salatiga", "addr:postcode": "50715", "addr:street": "Jalan Fatmawati", "amenity": "bank", "atm": "yes", "drive_through": "no", "name": "BTPN Syariah KFO Sidorejo", "opening_hours": "Mo-Fr 08:00-16:00"}}, {"type": "node", "id": 8327868428, "lat": -7.5325361, "lon": 110.6021781, "tags": {"amenity": "fuel", "name": "SPBU Kridanggo"}}, {"type": "node", "id": 8618091724, "lat": -7.3119819, "lon": 110.659682}, {"type": "node", "id": 8618091725, "lat": -7.3119052, "lon": 110.6598335}, {"type": "node", "id": 8618091726, "lat": -7.312057, "lon": 110.6598493}, {"type": "node", "id": 8618091727, "lat": -7.3121447, "lon": 110.6598335}, {"type": "node", "id": 8618091728, "lat": -7.3121416, "lon": 110.6597009}, {"type": "node", "id": 8816728059, "lat": -7.3346258, "lon": 110.5013682}, {"type": "node", "id": 8816728061, "lat": -7.334417, "lon": 110.5012191}, {"type": "node", "id": 8816728062, "lat": -7.3346963, "lon": 110.5012437}, {"type": "node", "id": 9231358346, "lat": -7.5363836, "lon": 110.655743, "tags": {"addr:city": "Teras, Boyolali", "addr:postcode": "57372", "amenity": "bank", "atm": "yes", "name": "BRI Teras"}}, {"type": "node", "id": 9231782387, "lat": -7.336826, "lon": 110.4772413, "tags": {"amenity": "fuel", "name": "Pom Bensin Jalan Lingkar Salatiga"}}, {"type": "node", "id": 9231881356, "lat": -7.3269199, "lon": 110.479138, "tags": {"amenity": "fuel", "name": "SPBU Lingkar Selatan Salatiga"}}, {"type": "node", "id": 9502808333, "lat": -7.5372178, "lon": 110.6007976, "tags": {"amenity": "townhall", "name": "Balai Sidang Mahesa"}}, {"type": "node", "id": 9571288735, "lat": -7.5372576, "lon": 110.6062022}, {"type": "node", "id": 9571288736, "lat": -7.5372822, "lon": 110.6062605}, {"type": "node", "id": 9571288737, "lat": -7.5371107, "lon": 110.6063342}, {"type": "node", "id": 9571288738, "lat": -7.5370861, "lon": 110.6062759}, {"type": "node", "id": 9572829725, "lat": -7.5369628, "lon": 110.6199226}, {"type": "node", "id": 9572829726, "lat": -7.5377844, "lon": 110.6199924}, {"type": "node", "id": 9572829727, "lat": -7.5377259, "lon": 110.6208855}, {"type": "node", "id": 9572829728, "lat": -7.5369096, "lon": 110.6208212}, {"type": "node", "id": 9723343653, "lat": -7.5371409, "lon": 110.6360123, "tags": {"amenity": "bank", "brand": "BRI", "brand:wikidata": "Q623042", "name": "BRI", "official_name": "Bank Rakyat Indonesia"}}, {"type": "node", "id": 9765028502, "lat": -7.4480784, "lon": 110.6787785, "tags": {"amenity": "fuel", "name": "SPBU 44 573 07"}}, {"type": "node", "id": 9765043941, "lat": -7.355379, "lon": 110.691536, "tags": {"amenity": "bank", "brand": "BRI", "brand:wikidata": "Q623042", "name": "BRI", "official_name": "Bank Rakyat Indonesia"}}, {"type": "node", "id": 9765801451, "lat": -7.3650982, "lon": 110.6389717, "tags": {"amenity": "bank", "brand": "BRI", "brand:wikidata": "Q623042", "name": "BRI", "official_name": "Bank Rakyat Indonesia"}}, {"type": "node", "id": 9765801452, "lat": -7.3654668, "lon": 110.6386178, "tags": {"amenity": "bank", "brand": "BNI", "brand:wikidata": "Q2882611", "name": "BNI", "official_name": "Bank Negara Indonesia"}}, {"type": "node", "id": 9765801454, "lat": -7.3657862, "lon": 110.6387948, "tags": {"amenity": "bank", "brand": "Bank Mandiri", "brand:wikidata": "Q806639", "name": "Bank Mandiri"}}, {"type": "node", "id": 9766001152, "lat": -7.5377338, "lon": 110.63336}, {"type": "node", "id": 9766001153, "lat": -7.5383047, "lon": 110.63336}, {"type": "node", "id": 9766001154, "lat": -7.5383005, "lon": 110.6337551}, {"type": "node", "id": 9766001155, "lat": -7.537713, "lon": 110.6337509}, {"type": "node", "id": 9774066007, "lat": -7.5159686, "lon": 110.5976761, "tags": {"amenity": "bank", "brand": "BRI", "brand:wikidata": "Q623042", "name": "BRI", "official_name": "Bank Rakyat Indonesia"}}, {"type": "node", "id": 9775051165, "lat": -7.5353737, "lon": 110.5554875, "tags": {"amenity": "bank", "name": "Bank Jateng"}}, {"type": "node", "id": 9784586808, "lat": -7.3673261, "lon": 110.5653915, "tags": {"amenity": "bank", "brand": "BRI", "brand:wikidata": "Q623042", "name": "BRI", "official_name": "Bank Rakyat Indonesia"}}, {"type": "node", "id": 9785498235, "lat": -7.4299277, "lon": 110.5300006, "tags": {"amenity": "bank", "brand": "BRI", "brand:wikidata": "Q623042", "name": "BRI", "official_name": "Bank Rakyat Indonesia"}}, {"type": "node", "id": 9785514862, "lat": -7.4539499, "lon": 110.5451565, "tags": {"amenity": "bank", "brand": "BRI", "brand:wikidata": "Q623042", "name": "BRI", "official_name": "Bank Rakyat Indonesia"}}, {"type": "node", "id": 9785514863, "lat": -7.4535374, "lon": 110.5448176, "tags": {"amenity": "bank", "brand": "BNI", "brand:wikidata": "Q2882611", "name": "BNI", "official_name": "Bank Negara Indonesia"}}, {"type": "node", "id": 9788271170, "lat": -7.3195085, "lon": 110.656823, "tags": {"amenity": "bank", "brand": "BRI", "brand:wikidata": "Q623042", "name": "BRI", "official_name": "Bank Rakyat Indonesia"}}, {"type": "node", "id": 10772988776, "lat": -7.5341961, "lon": 110.6272543}, {"type": "node", "id": 10772988777, "lat": -7.5347638, "lon": 110.6271296}, {"type": "node", "id": 10772988778, "lat": -7.5351461, "lon": 110.6269339}, {"type": "node", "id": 10772988779, "lat": -7.5353175, "lon": 110.6271607}, {"type": "node", "id": 10772988780, "lat": -7.5354328, "lon": 110.6273592}, {"type": "node", "id": 10772988781, "lat": -7.5346008, "lon": 110.6274641}, {"type": "node", "id": 10772988782, "lat": -7.5342354, "lon": 110.6274925}, {"type": "node", "id": 11031915780, "lat": -7.5322117, "lon": 110.4472967, "tags": {"amenity": "shelter", "name": "Geger Celeng"}}, {"type": "node", "id": 11599912369, "lat": -7.3315383, "lon": 110.503819, "tags": {"addr:street": "Jalan Letnan Jenderal Sukowati", "amenity": "bank", "name": "Bank Mandiri Taspen"}}, {"type": "node", "id": 11599912569, "lat": -7.3315303, "lon": 110.5037323, "tags": {"addr:street": "Jalan Letnan Jenderal Sukowati", "amenity": "bank", "name": "Bank Muamalat"}}, {"type": "node", "id": 11606704470, "lat": -7.3326177, "lon": 110.5051249, "tags": {"amenity": "bank", "name": "Danamon"}}, {"type": "node", "id": 11612344769, "lat": -7.332186, "lon": 110.5053119, "tags": {"amenity": "bank", "name": "CIMB Niaga"}}, {"type": "node", "id": 12176905127, "lat": -7.5382203, "lon": 110.6091004, "tags": {"amenity": "bank", "brand": "Bank Mandiri", "brand:wikidata": "Q806639", "name": "Bank Mandiri"}}, {"type": "node", "id": 12377682738, "lat": -7.3269117, "lon": 110.4790444}, {"type": "node", "id": 12377682739, "lat": -7.3270348, "lon": 110.4790689}, {"type": "node", "id": 12377682740, "lat": -7.3269816, "lon": 110.4793248}, {"type": "node", "id": 12377682741, "lat": -7.32686, "lon": 110.4793033}, {"type": "node", "id": 12377682742, "lat": -7.3371384, "lon": 110.4772842}, {"type": "node", "id": 12377682743, "lat": -7.3368125, "lon": 110.4772842}, {"type": "node", "id": 12377682744, "lat": -7.3368145, "lon": 110.4773978}, {"type": "node", "id": 12377682745, "lat": -7.3371364, "lon": 110.4774061}, {"type": "node", "id": 12397521449, "lat": -7.5316876, "lon": 110.6009082, "tags": {"addr:city": "Boyolali", "addr:district": "Boyolali", "addr:housenumber": "3", "addr:neighbourhood": "Sumber Lerak", "addr:postcode": "57313", "addr:province": "Jawa Tengah", "addr:street": "Jalan Merbabu", "addr:subdistrict": "Siswodipuran", "amenity": "bank", "name": "Bank Jateng Cabang Boyolali"}}, {"type": "node", "id": 12397890895, "lat": -7.326591, "lon": 110.494884, "tags": {"addr:district": "Kota Salatiga", "addr:province": "Jawa Tengah", "addr:street": "Jalan Osamaliki No 20 Kelurahan Mangunsari Kecamatan Sidomukti Kota Salatiga Provinsi Jawa Tengah", "addr:subdistrict": "Sidomukti", "addr:village": "Mangunsari", "amenity": "social_facility", "email": "kota_salatiga@pmi.or.id", "name": "Aula PMI Kota Salatiga", "operator": "Palang Merah Indonesia", "operator:short": "PMI", "phone": "895368558885", "social_facility": "hall"}}, {"type": "node", "id": 12397890897, "lat": -7.537924, "lon": 110.600937, "tags": {"addr:district": "Boyolali", "addr:province": "Jawa Tengah", "addr:street": "Jl. Randu Asri Ngebong Siswodipuran Boyolali", "addr:subdistrict": "Boyolali", "addr:village": "Siswodipuran", "amenity": "social_facility", "email": "kab_boyolali@pmi.or.id", "name": "PMI Kabupaten Boyolali", "operator": "Palang Merah Indonesia", "operator:short": "PMI", "phone": "276321104", "social_facility": "office"}}, {"type": "node", "id": 12397897305, "lat": -7.537918, "lon": 110.600967, "tags": {"addr:district": "Boyolali", "addr:province": "Jawa Tengah", "addr:street": "JL. Randu Asri Ngebong Siswodipuran Boyolali", "addr:subdistrict": "Boyolali", "addr:village": "Siswodipuran", "amenity": "social_facility", "email": "Kab_Boyolali@pmi.or.id", "name": "KSR PMI Kabupaten Boyolali", "operator": "Palang Merah Indonesia", "operator:short": "PMI", "phone": "81128500999", "social_facility": "ksr_district_office"}}, {"type": "node", "id": 12397897308, "lat": -7.326586, "lon": 110.494874, "tags": {"addr:district": "Kota Salatiga", "addr:province": "Jawa Tengah", "addr:street": "Jalan Osamaliki No 20 Kelurahan Mangunsari Kecamatan Sidomukti Kota Salatiga Provinsi Jawa Tengah", "addr:subdistrict": "Sidomukti", "addr:village": "Mangunsari", "amenity": "social_facility", "email": "kota_salatiga@pmi.or.id", "name": "KSR PMI Kota Salatiga", "operator": "Palang Merah Indonesia", "operator:short": "PMI", "phone": "895368558885", "social_facility": "ksr_city_office"}}, {"type": "node", "id": 12397897318, "lat": -7.326586, "lon": 110.49488, "tags": {"addr:district": "Kota Salatiga", "addr:province": "Jawa Tengah", "addr:street": "Jalan Osamaliki No 20 Kelurahan Mangunsari Kecamatan Sidomukti Kota Salatiga Provinsi Jawa Tengah", "addr:subdistrict": "Sidomukti", "addr:village": "Mangunsari", "amenity": "social_facility", "email": "kota_salatiga@pmi.or.id", "name": "POSKO PMI Kota Salatiga", "operator": "Palang Merah Indonesia", "operator:short": "PMI", "phone": "895368558885", "social_facility": "command_post"}}, {"type": "node", "id": 12712344650, "lat": -7.3344199, "lon": 110.5013546}, {"type": "way", "id": 207538208, "nodes": [2177957906, 2177957904, 2177957907, 2177957908, 3009985919, 2177957906], "tags": {"addr:city": "Salatiga", "addr:housenumber": "4", "addr:postcode": "50732", "addr:street": "Jalan Veteran", "amenity": "courthouse", "email": "pnsalatiga@yahoo.com", "fax": "+62 298 323119", "name": "Pengadilan Negeri Salatiga", "phone": "+62 298 323119", "website": "https://www.pn-salatiga.go.id/"}}, {"type": "way", "id": 231518140, "nodes": [2398897983, 2398897985, 2398897963, 2398897977, 2398897983], "tags": {"addr:city": "Salatiga", "addr:street": "Jalan Jenderal Sudirman", "amenity": "bank", "atm": "yes", "building": "office", "building:levels": "3", "name": "Bank BNI", "opening_hours": "Mo-Th 08:00-16:00; Fr 07:30-16:00", "start_date": "early 2010s"}}, {"type": "way", "id": 296375984, "nodes": [3001690339, 3001690340, 3001690341, 3001690342, 3001690339], "tags": {"amenity": "townhall", "building": "yes", "name": "Balai Dusun"}}, {"type": "way", "id": 304934981, "nodes": [3095047483, 3095047484, 3095047485, 3095047488, 3095047487, 3095047483], "tags": {"addr:city": "Salatiga", "addr:country": "ID", "addr:housenumber": "34", "addr:postcode": "50742", "addr:street": "Jalan Taman Pahlawan", "amenity": "townhall", "building": "office", "contact:phone": "+62 298 321994", "name": "Kantor Kelurahan Kutowinangun Kidul", "symbol": "33.73.02.1001"}}, {"type": "way", "id": 328930636, "nodes": [3357511757, 3357511758, 3357511761, 3357511762, 3357511757], "tags": {"addr:city": "Salatiga", "addr:housenumber": "9", "addr:postcode": "50711", "addr:street": "Jalan Diponegoro", "amenity": "bank", "atm": "yes", "brand": "BRI", "brand:wikidata": "Q623042", "brand:wikipedia": "id:Bank Rakyat Indonesia", "building": "commercial", "building:levels": "2", "name": "BRI", "official_name": "Bank Rakyat Indonesia", "official_name:en": "People's Bank of Indonesia", "official_name:id": "Bank Rakyat Indonesia", "start_date": "2018", "wheelchair": "limited"}}, {"type": "way", "id": 329141008, "nodes": [3359602009, 3359602010, 3359602011, 3359602012, 3359602009], "tags": {"addr:city": "Salatiga", "addr:street": "Jalan Diponegoro", "amenity": "bank", "brand": "Bank Mandiri", "brand:wikidata": "Q806639", "brand:wikipedia": "en:Bank Mandiri", "building": "yes", "name": "Bank Mandiri"}}, {"type": "way", "id": 335036462, "nodes": [3421662756, 3421662757, 3421662758, 3421662759, 3421662760, 3421662761, 3421662756], "tags": {"addr:city": "Salatiga", "addr:housenumber": "2", "addr:street": "Jalan Yos Sudarso", "amenity": "prison", "name": "Rumah Tahanan Kelas II B Salatiga"}}, {"type": "way", "id": 415719626, "nodes": [4167008369, 4167008370, 4167008371, 4167008372, 4167008369], "tags": {"amenity": "bank", "brand": "Bank Mega", "brand:wikidata": "Q12474504", "brand:wikipedia": "id:Bank Mega", "building": "office", "drive_through": "no", "name": "Bank Mega"}}, {"type": "way", "id": 415719628, "nodes": [4167008373, 4167008374, 4167008375, 4167008376, 4167008377, 4167008378, 4167008379, 4167008380, 4167008381, 4167008382, 4167008383, 4167008384, 4167008373], "tags": {"addr:city": "Salatiga", "addr:street": "Jalan Pemuda", "amenity": "bank", "atm": "yes", "building": "yes", "building:levels": "1", "drive_through": "no", "name": "Bank Jateng", "old_name": "Hotel Kalitaman", "smoking": "no", "start_date": "before 1915"}}, {"type": "way", "id": 469350068, "nodes": [4636903384, 4636903385, 4636903386, 4636903387, 4636903384], "tags": {"addr:city": "Salatiga", "addr:street": "Jalan Letjend Sukowati", "amenity": "townhall", "name": "Kantor Walikota Salatiga", "office": "government"}}, {"type": "way", "id": 469373373, "nodes": [4637074225, 4637074226, 4637074227, 4637074228, 4637074229, 4637074230, 4637074225], "tags": {"amenity": "fuel", "name": "POM TNI"}}, {"type": "way", "id": 469373380, "nodes": [4637074231, 4637074232, 4637074233, 4637074234, 4637074231], "tags": {"addr:city": "Salatiga", "addr:street": "Jalan Letjend Sukowati", "amenity": "bank", "building": "office", "name": "BTPN"}}, {"type": "way", "id": 469621122, "nodes": [4639271489, 4639271490, 4639271491, 6263585052, 6263585053, 6263585054, 6263585051, 4639271492, 4639271489], "tags": {"addr:city": "Salatiga", "addr:postcode": "50711", "addr:street": "Jalan Pemuda", "amenity": "townhall", "building": "government", "name": "Gedung Pertemuan Daerah Salatiga", "wheelchair": "no"}}, {"type": "way", "id": 526201229, "nodes": [5117550367, 5117550368, 5117550369, 5117550370, 5117550371, 5117550374, 5117550372, 5117550373, 5117550367], "tags": {"amenity": "bank", "atm": "yes", "brand": "Maybank", "brand:wikidata": "Q1364018", "brand:wikipedia": "en:Maybank", "building": "office", "name": "Maybank"}}, {"type": "way", "id": 526201234, "nodes": [5117550413, 5117550414, 5117550415, 5117550416, 5117550417, 5117550418, 5117550413], "tags": {"addr:city": "Salatiga", "addr:housenumber": "10", "addr:postcode": "50711", "addr:street": "Jalan Diponegoro", "amenity": "bank", "atm": "no", "building": "commercial", "name": "BPR Bank Salatiga"}}, {"type": "way", "id": 536103329, "nodes": [5194235413, 5194235414, 5194235415, 5194235416, 5194235413], "tags": {"addr:city": "Salatiga", "addr:housenumber": "3", "addr:postcode": "50742", "addr:street": "Jalan Wuni Benoyo", "amenity": "doctors", "building": "house", "healthcare": "doctor", "healthcare:speciality": "general", "name": "Dr. Endang Sri Artati", "opening_hours": "Mo-Sa 05:00-06:30,17:00-20:00; PH,Su \"dengan perjanjian\"", "phone": "+62 298 322224"}}, {"type": "way", "id": 722189016, "nodes": [6774243844, 6774243845, 6774243846, 6774243847, 6774243848, 6774243849, 6774243844], "tags": {"amenity": "fuel", "brand": "Pertamina", "brand:wikidata": "Q1641044", "brand:wikipedia": "en:Pertamina", "name": "SPBU Pertamina Pasar Sapi"}}, {"type": "way", "id": 722189018, "nodes": [6774243854, 6774243855, 6774243856, 6774243857, 6774243858, 6774243859, 6774243860, 6774243861, 6774243854], "tags": {"amenity": "fuel", "brand": "Pertamina", "brand:wikidata": "Q1641044", "brand:wikipedia": "en:Pertamina", "fuel:diesel": "yes", "fuel:octane_92": "yes", "name": "Pertamina"}}, {"type": "way", "id": 722227940, "nodes": [6774639236, 6774639237, 6774639238, 6774639239, 6774639240, 6774639241, 6774639236], "tags": {"addr:city": "Salatiga", "addr:housenumber": "15", "addr:postcode": "50711", "addr:street": "Jalan Diponegoro", "air_conditioning": "yes", "amenity": "bank", "atm": "yes", "brand": "Bank Central Asia", "brand:wikidata": "Q806626", "brand:wikipedia": "id:Bank Central Asia", "building": "yes", "drive_through": "no", "name": "Bank Central Asia", "official_name": "Bank Central Asia"}}, {"type": "way", "id": 929276452, "nodes": [8618091724, 8618091725, 8618091726, 8618091727, 8618091728, 8618091724], "tags": {"addr:city": "Boyolali", "addr:postcode": "57382", "addr:street": "Jl. Raya Wonosegoro", "amenity": "bank", "building": "yes", "name": "PD. BPR BKK Wonosegoro"}}, {"type": "way", "id": 952577505, "nodes": [8816728059, 12712344650, 8816728061, 8816728062, 8816728059], "tags": {"amenity": "bank", "brand": "BRI", "brand:wikidata": "Q623042", "building": "yes", "name": "BRI", "official_name": "Bank Rakyat Indonesia"}}, {"type": "way", "id": 1039386558, "nodes": [9571288738, 9571288737, 9571288736, 9571288735, 9571288738], "tags": {"amenity": "bank", "brand": "BCA", "brand:wikidata": "Q806626", "building": "yes", "name": "BCA", "official_name": "Bank Central Asia"}}, {"type": "way", "id": 1039591734, "nodes": [9572829725, 9572829726, 9572829727, 9572829728, 9572829725], "tags": {"addr:street": "Jalan Raya Boyolali - Kartosuro", "amenity": "prison", "name": "Rutan Kelas IIB Boyolali"}}, {"type": "way", "id": 1063123114, "nodes": [9766001152, 9766001153, 9766001154, 9766001155, 9766001152], "tags": {"amenity": "courthouse", "building": "yes", "name": "Pengadilan Agama"}}, {"type": "way", "id": 1158409167, "nodes": [10772988776, 10772988777, 10772988778, 10772988779, 10772988780, 10772988781, 10772988782, 10772988776], "tags": {"amenity": "social_facility", "name": "Rumah Singgah/RPS Dinsos Boyolali", "source": "survey;local knowledge"}}, {"type": "way", "id": 1338168887, "nodes": [12377682738, 12377682739, 12377682740, 12377682741, 12377682738], "tags": {"amenity": "fuel", "brand": "Pertamina", "brand:wikidata": "Q1641044", "name": "Pertamina"}}, {"type": "way", "id": 1338168888, "nodes": [12377682742, 12377682743, 12377682744, 12377682745, 12377682742], "tags": {"amenity": "fuel", "brand": "Pertamina", "brand:wikidata": "Q1641044", "name": "Pertamina"}}]}