{"version": 0.6, "generator": "Overpass API 0.7.62.8 e802775f", "osm3s": {"timestamp_osm_base": "2025-10-16T11:01:51Z", "copyright": "The data included in this document is from www.openstreetmap.org. The data is made available under ODbL."}, "elements": [{"type": "node", "id": 1431339452, "lat": 9.9065108, "lon": -83.6862929}, {"type": "node", "id": 1431339454, "lat": 9.9066482, "lon": -83.686086}, {"type": "node", "id": 1431339459, "lat": 9.9066775, "lon": -83.6864079}, {"type": "node", "id": 1431339466, "lat": 9.9068149, "lon": -83.6861876}, {"type": "node", "id": 1718457028, "lat": 9.8514496, "lon": -83.614127, "tags": {"amenity": "police", "name": "Delegaci\u00f3n Policial La Suiza", "operator": "MSP"}}, {"type": "node", "id": 1718478759, "lat": 9.8407339, "lon": -83.5809807, "tags": {"addr:city": "Tuis", "amenity": "police", "name": "Delegaci\u00f3n Policial Tuis", "operator": "MSP"}}, {"type": "node", "id": 3728609978, "lat": 9.8948333, "lon": -83.7462039, "tags": {"addr:city": "Juan Vi\u00f1as", "addr:street": "Avenida 1", "amenity": "police", "name": "Delegaci\u00f3n Policial Juan Vi\u00f1as", "operator": "MSP"}}, {"type": "node", "id": 3882592717, "lat": 9.9117522, "lon": -83.6192717, "tags": {"addr:city": "Pavones", "addr:street": "V\u00eda 10", "amenity": "police", "name": "Delegaci\u00f3n Policial de Pavones", "operator": "Public Force of Costa Rica", "operator:en": "Public Force of Costa Rica", "operator:es": "Fuerza P\u00fablica de Costa Rica", "operator:wikidata": "Q2333698", "source": "KG Ground Survey 2015"}}, {"type": "node", "id": 4410932429, "lat": 9.8532937, "lon": -83.7197892, "tags": {"addr:city": "Tucurrique", "amenity": "police", "name": "Delegaci\u00f3n Policial Tucurrique"}}, {"type": "node", "id": 4812685922, "lat": 9.8706717, "lon": -83.6525233}, {"type": "node", "id": 4812685924, "lat": 9.8733815, "lon": -83.6518567}, {"type": "node", "id": 4812685925, "lat": 9.8741098, "lon": -83.6514675}, {"type": "node", "id": 4812685926, "lat": 9.8704328, "lon": -83.6489008}, {"type": "node", "id": 4812685927, "lat": 9.8699896, "lon": -83.6495494}, {"type": "node", "id": 5557318740, "lat": 9.9662886, "lon": -83.7311619}, {"type": "node", "id": 5557318741, "lat": 9.9663073, "lon": -83.7312356}, {"type": "node", "id": 5557318742, "lat": 9.9664342, "lon": -83.7312024}, {"type": "node", "id": 5557318743, "lat": 9.9664155, "lon": -83.7311287}, {"type": "node", "id": 6161690283, "lat": 9.8948955, "lon": -83.7467061}, {"type": "node", "id": 6161690284, "lat": 9.8948955, "lon": -83.7465053}, {"type": "node", "id": 6161690585, "lat": 9.8948119, "lon": -83.7465053}, {"type": "node", "id": 6161690586, "lat": 9.8948119, "lon": -83.7467061}, {"type": "node", "id": 6770565186, "lat": 9.8989986, "lon": -83.6793488}, {"type": "node", "id": 6770565187, "lat": 9.8994488, "lon": -83.6794972}, {"type": "node", "id": 6770565188, "lat": 9.8994518, "lon": -83.6791998}, {"type": "node", "id": 7387742544, "lat": 9.8922679, "lon": -83.6578265, "tags": {"addr:city": "Turrialba", "addr:street": "V\u00eda 10", "amenity": "police", "name": "Entrada Principal"}}, {"type": "node", "id": 7407736567, "lat": 9.8869053, "lon": -83.5830382, "tags": {"addr:city": "La Suiza", "addr:street": "V\u00eda 413", "amenity": "police", "name": "Delegaci\u00f3n Policial de Pacayitas", "opening_hours": "24/7", "operator": "MSP"}}, {"type": "node", "id": 8857246131, "lat": 9.915852, "lon": -83.6766103, "tags": {"addr:city": "La Isabel", "addr:street": "Avenida 3", "amenity": "police", "name": "Delegaci\u00f3n Policial La Isabel", "operator": "MSP"}}, {"type": "node", "id": 8857287731, "lat": 9.9093291, "lon": -83.6844183, "tags": {"addr:city": "Turrialba", "amenity": "police", "name": "Delegaci\u00f3n Policial La Margot", "operator": "MSP"}}, {"type": "node", "id": 8860788182, "lat": 9.9764913, "lon": -83.6449839, "tags": {"addr:city": "Santa Teresita", "addr:street": "V\u00eda 415", "amenity": "police", "name": "Delegaci\u00f3n Policial Santa Teresita"}}, {"type": "node", "id": 8861316548, "lat": 9.8833707, "lon": -83.6257794, "tags": {"addr:city": "Pavones", "amenity": "police", "name": "Delegaci\u00f3n Policial de Sitio de Mata", "operator": "MSP"}}, {"type": "node", "id": 8863615348, "lat": 9.8218265, "lon": -83.5550809, "tags": {"addr:city": "Tayutic", "addr:street": "V\u00eda 414", "amenity": "police", "name": "Delegaci\u00f3n Policial de Tayutic", "operator": "Public Force of Costa Rica", "operator:en": "Public Force of Costa Rica", "operator:es": "Fuerza P\u00fablica de Costa Rica", "operator:wikidata": "Q2333698"}}, {"type": "node", "id": 9522546110, "lat": 9.9004355, "lon": -83.6732846, "tags": {"addr:city": "Turrialba", "addr:street": "V\u00eda 10", "amenity": "police", "name": "OIJ -Subdelegaci\u00f3n Regional Turrialba", "operator": "Poder Judicial"}}, {"type": "node", "id": 9754631370, "lat": 9.8699702, "lon": -83.6492269}, {"type": "node", "id": 9754631373, "lat": 9.8701188, "lon": -83.6526182}, {"type": "node", "id": 9754671029, "lat": 9.8738538, "lon": -83.6513672}, {"type": "node", "id": 9754671030, "lat": 9.8738294, "lon": -83.6516762}, {"type": "node", "id": 9754671031, "lat": 9.8714929, "lon": -83.6496603}, {"type": "node", "id": 9854574097, "lat": 9.8935497, "lon": -83.750534}, {"type": "node", "id": 9854574098, "lat": 9.8933697, "lon": -83.7506606}, {"type": "node", "id": 9854574099, "lat": 9.8933184, "lon": -83.7506335}, {"type": "node", "id": 9854574100, "lat": 9.8934079, "lon": -83.750459}, {"type": "node", "id": 9886084807, "lat": 9.9254837, "lon": -83.6966852}, {"type": "node", "id": 9886084808, "lat": 9.9254198, "lon": -83.6966658}, {"type": "node", "id": 9886084809, "lat": 9.9253753, "lon": -83.6968172}, {"type": "node", "id": 9886084810, "lat": 9.9254391, "lon": -83.6968366}, {"type": "node", "id": 11824942014, "lat": 9.8123482, "lon": -83.7030581}, {"type": "node", "id": 11824942015, "lat": 9.8122845, "lon": -83.7031319}, {"type": "node", "id": 11824942016, "lat": 9.8122173, "lon": -83.7030722}, {"type": "node", "id": 11824942017, "lat": 9.8122809, "lon": -83.7029984}, {"type": "node", "id": 11825272063, "lat": 9.851683, "lon": -83.6102467}, {"type": "node", "id": 11825272064, "lat": 9.8524652, "lon": -83.6101533}, {"type": "node", "id": 11825272065, "lat": 9.85238, "lon": -83.6094272}, {"type": "node", "id": 11825272066, "lat": 9.851584, "lon": -83.6095462}, {"type": "node", "id": 12641432028, "lat": 9.9592642, "lon": -83.5715946, "tags": {"amenity": "police", "name": "Delegaci\u00f3n Policial Tres Equis", "operator": "Public Force of Costa Rica", "operator:en": "Public Force of Costa Rica", "operator:es": "Fuerza P\u00fablica de Costa Rica", "operator:wikidata": "Q2333698"}}, {"type": "node", "id": 12983225239, "lat": 9.8934867, "lon": -83.7506566}, {"type": "node", "id": 12983225240, "lat": 9.8933963, "lon": -83.7506088}, {"type": "node", "id": 12983252603, "lat": 9.9020661, "lon": -83.679593}, {"type": "node", "id": 12983252604, "lat": 9.9022664, "lon": -83.679562}, {"type": "node", "id": 12983252605, "lat": 9.9022444, "lon": -83.6794155}, {"type": "node", "id": 12983252606, "lat": 9.9020441, "lon": -83.6794464}, {"type": "way", "id": 129800749, "nodes": [1431339452, 1431339459, 1431339466, 1431339454, 1431339452], "tags": {"addr:city": "Turrialba", "addr:street": "Calle 2", "amenity": "fire_station", "building": "yes", "name": "Estaci\u00f3n de Bomberos 3-1", "operator": "INS", "phone": "2556-0118"}}, {"type": "way", "id": 488979318, "nodes": [4812685922, 4812685924, 9754671030, 4812685925, 9754671029, 9754671031, 4812685926, 9754631370, 4812685927, 9754631373, 4812685922], "tags": {"addr:city": "Turrialba", "addr:postcode": "30501", "addr:street": "V\u00eda 411", "amenity": "hospital", "emergency": "yes", "healthcare": "hospital", "name": "Hospital William Allen Taylor", "opening_hours": "24/7", "operator": "CCSS", "operator:type": "public", "operator:wikidata": "Q5174896", "wheelchair": "yes"}}, {"type": "way", "id": 580564973, "nodes": [5557318740, 5557318741, 5557318742, 5557318743, 5557318740], "tags": {"addr:city": "Santa Cruz", "addr:street": "V\u00eda 230", "amenity": "police", "building": "yes", "name": "Delegaci\u00f3n Policial de Santa Cruz", "operator": "MSP"}}, {"type": "way", "id": 657928206, "nodes": [6161690283, 6161690284, 6161690585, 6161690586, 6161690283], "tags": {"addr:city": "Juan Vi\u00f1as", "addr:street": "Calle 2", "amenity": "fire_station", "building": "yes", "name": "Estaci\u00f3n de Bomberos 3-2", "operator": "INS", "phone": "2532-2258"}}, {"type": "way", "id": 721746448, "nodes": [6770565186, 6770565187, 6770565188, 6770565186], "tags": {"addr:city": "Turrialba", "addr:street": "Calle Zapote", "amenity": "police", "building": "yes", "name": "Delegaci\u00f3n Polic\u00eda de Tr\u00e1nsito Turrialba", "operator": "Ministerio de Obras P\u00fablicas y Transportes", "operator:short": "MOPT", "operator:wikidata": "Q2838952"}}, {"type": "way", "id": 1074363571, "nodes": [9854574097, 12983225239, 12983225240, 9854574098, 9854574099, 9854574100, 9854574097], "tags": {"addr:city": "Juan Vi\u00f1as", "addr:street": "Avenida Jes\u00fas Jim\u00e9nez", "amenity": "police", "building": "yes", "name": "Delegaci\u00f3n Cantonal de Polic\u00eda de Jim\u00e9nez", "opening_hours": "24/7", "operator": "Public Force of Costa Rica", "operator:en": "Public Force of Costa Rica", "operator:es": "Fuerza P\u00fablica de Costa Rica", "operator:wikidata": "Q2333698"}}, {"type": "way", "id": 1078332827, "nodes": [9886084807, 9886084808, 9886084809, 9886084810, 9886084807], "tags": {"amenity": "police", "building": "yes", "name": "Delegaci\u00f3n Policial Santa Rosa", "operator": "MSP"}}, {"type": "way", "id": 1273379344, "nodes": [11824942014, 11824942015, 11824942016, 11824942017, 11824942014], "tags": {"addr:city": "Pejibaye", "addr:street": "Calle 1", "amenity": "police", "building": "yes", "name": "Delegaci\u00f3n Policial Pejibaye", "operator": "MSP"}}, {"type": "way", "id": 1273432719, "nodes": [11825272063, 11825272064, 11825272065, 11825272066, 11825272063], "tags": {"addr:city": "La Suiza", "addr:street": "Calle 7", "amenity": "hospital", "emergency": "yes", "healthcare": "hospital", "name": "Cl\u00ednica CCSS La Suiza", "operator": "CCSS", "operator:type": "public", "operator:wikidata": "Q5174896"}}, {"type": "way", "id": 1412792607, "nodes": [12983252603, 12983252604, 12983252605, 12983252606, 12983252603], "tags": {"addr:city": "Turrialba", "addr:street": "Calle Puntarenas", "amenity": "police", "building": "yes", "name": "Delegaci\u00f3n Cantonal de Polic\u00eda de Turrialba", "opening_hours": "24/7", "operator": "Public Force of Costa Rica", "operator:en": "Public Force of Costa Rica", "operator:es": "Fuerza P\u00fablica de Costa Rica", "operator:wikidata": "Q2333698"}}]}